{"type":"FeatureCollection","source":"https://data.gov.tw/dataset/7441 鄉鎮市區界線(TWD97經緯度)","agency":"內政部國土測繪中心","license":"政府資料開放授權條款第1版","generatedBy":"scripts/build-geo.py","features":[{"type":"Feature","properties":{"code":"09007010","name":"連江縣南竿鄉"},"geometry":{"type":"MultiPolygon","coordinates":[[[[119.97284,26.16842],[119.97229,26.16778],[119.97309,26.16682],[119.97233,26.16582],[119.97394,26.16627],[119.97272,26.16588],[119.97356,26.1654],[119.97243,26.165],[119.97258,26.164],[119.97049,26.16174],[119.97047,26.16649],[119.97179,26.16836],[119.97284,26.16842]]],[[[119.91703,26.17517],[119.91836,26.17437],[119.91992,26.17507],[119.92029,26.17286],[119.92221,26.17177],[119.92829,26.17199],[119.92774,26.17094],[119.9284,26.16979],[119.92582,26.17009],[119.92624,26.16795],[119.92388,26.16462],[119.92393,26.16205],[119.92795,26.16018],[119.93048,26.16207],[119.93146,26.15998],[119.93028,26.1606],[119.92987,26.15941],[119.93115,26.15814],[119.93498,26.15953],[119.93584,26.15829],[119.93583,26.15423],[119.9373,26.1543],[119.93916,26.15707],[119.94187,26.1589],[119.94012,26.16214],[119.93963,26.16584],[119.9444,26.16497],[119.94903,26.16747],[119.95058,26.16716],[119.95113,26.16821],[119.95309,26.16742],[119.95266,26.16559],[119.95361,26.16421],[119.95663,26.16796],[119.96069,26.1683],[119.96043,26.16775],[119.96519,26.16648],[119.96479,26.16519],[119.96356,26.16492],[119.9629,26.16375],[119.96369,26.16207],[119.9625,26.16147],[119.96219,26.15842],[119.95943,26.15756],[119.9573,26.15225],[119.95593,26.15191],[119.95531,26.15073],[119.95427,26.15074],[119.95402,26.15211],[119.95158,26.15146],[119.95328,26.15233],[119.95235,26.15338],[119.94997,26.15354],[119.94844,26.15207],[119.94913,26.15141],[119.94841,26.15088],[119.94907,26.15015],[119.94877,26.14855],[119.94627,26.14839],[119.94652,26.14673],[119.94406,26.14578],[119.94199,26.14325],[119.93942,26.14352],[119.93803,26.14289],[119.93725,26.14579],[119.93613,26.14607],[119.93514,26.14513],[119.93444,26.14569],[119.93359,26.14395],[119.932,26.14455],[119.93086,26.14265],[119.92882,26.14159],[119.92908,26.14068],[119.93073,26.14035],[119.93046,26.13982],[119.92756,26.13982],[119.92443,26.13778],[119.92333,26.1382],[119.92319,26.13956],[119.92436,26.14095],[119.92348,26.142],[119.92127,26.14213],[119.92064,26.14133],[119.92072,26.14217],[119.91684,26.14109],[119.91374,26.14274],[119.91262,26.14257],[119.91304,26.14526],[119.91014,26.14414],[119.90891,26.14534],[119.91046,26.14767],[119.91075,26.14974],[119.91516,26.15326],[119.91398,26.15467],[119.91608,26.15576],[119.91767,26.15789],[119.91723,26.15921],[119.91539,26.16011],[119.91251,26.15959],[119.91502,26.16287],[119.91758,26.16267],[119.91759,26.1651],[119.91916,26.16719],[119.91872,26.16791],[119.917,26.16782],[119.91516,26.16944],[119.91692,26.17147],[119.91564,26.17263],[119.9163,26.1751],[119.91703,26.17517]]]]}},{"type":"Feature","properties":{"code":"09007030","name":"連江縣莒光鄉"},"geometry":{"type":"MultiPolygon","coordinates":[[[[119.96433,25.94638],[119.96415,25.94265],[119.96354,25.94321],[119.96142,25.941],[119.96092,25.94238],[119.96299,25.94516],[119.96212,25.9456],[119.96347,25.94699],[119.96433,25.94638]]],[[[119.98485,25.97059],[119.98619,25.97063],[119.98674,25.96981],[119.98798,25.97036],[119.98736,25.96886],[119.98866,25.96879],[119.9886,25.96813],[119.98663,25.96721],[119.9872,25.96674],[119.98678,25.96599],[119.98455,25.96418],[119.98368,25.96421],[119.98464,25.96378],[119.98494,25.9625],[119.98043,25.95977],[119.97857,25.95966],[119.97896,25.9562],[119.97716,25.95642],[119.97621,25.95513],[119.97468,25.95527],[119.97499,25.95393],[119.97394,25.95333],[119.97293,25.95374],[119.97148,25.95662],[119.96743,25.95126],[119.96642,25.95159],[119.96519,25.95086],[119.96494,25.94921],[119.96302,25.94869],[119.96212,25.94996],[119.96045,25.95017],[119.96216,25.95012],[119.96408,25.95505],[119.96561,25.9563],[119.96501,25.95824],[119.9622,25.95811],[119.96375,25.95804],[119.96436,25.95884],[119.96625,25.9584],[119.96954,25.96045],[119.97149,25.96409],[119.97152,25.96706],[119.97427,25.96839],[119.97834,25.96851],[119.97851,25.96719],[119.98187,25.96647],[119.98305,25.96725],[119.98199,25.96902],[119.98378,25.96964],[119.98408,25.97075],[119.98485,25.97059]]],[[[119.96667,25.97467],[119.96727,25.9743],[119.96725,25.97175],[119.96596,25.97215],[119.96438,25.97115],[119.96531,25.9729],[119.96495,25.97413],[119.96597,25.97505],[119.96667,25.97467]]],[[[119.97579,25.97592],[119.97647,25.97479],[119.97742,25.97487],[119.97648,25.97409],[119.97728,25.9741],[119.97399,25.97026],[119.97444,25.97479],[119.97579,25.97592]]],[[[119.94459,25.9821],[119.94393,25.98185],[119.94508,25.98068],[119.94801,25.98171],[119.94744,25.98139],[119.9485,25.98109],[119.94772,25.97816],[119.94642,25.97805],[119.94655,25.97694],[119.94194,25.97292],[119.93969,25.97399],[119.93849,25.97338],[119.9372,25.97178],[119.93832,25.97068],[119.93394,25.96748],[119.93156,25.96747],[119.9325,25.96916],[119.93336,25.9687],[119.93331,25.97],[119.93053,25.97187],[119.92883,25.97096],[119.92886,25.97254],[119.92401,25.97924],[119.92525,25.98093],[119.92691,25.98165],[119.92837,25.98112],[119.93162,25.98163],[119.93341,25.97997],[119.93733,25.98176],[119.93886,25.98068],[119.94001,25.982],[119.94182,25.9815],[119.94425,25.98274],[119.94459,25.9821]]]]}},{"type":"Feature","properties":{"code":"09007020","name":"連江縣北竿鄉"},"geometry":{"type":"MultiPolygon","coordinates":[[[[120.01292,26.20968],[120.01147,26.20954],[120.0109,26.21039],[120.01146,26.21105],[120.01314,26.21175],[120.0147,26.21116],[120.01292,26.20968]]],[[[119.99642,26.23808],[120.00005,26.238],[120.00188,26.23362],[120.00401,26.23479],[120.00638,26.23405],[120.0053,26.23025],[120.00653,26.22933],[120.00648,26.22785],[120.00536,26.22715],[120.00365,26.22365],[120.00575,26.22331],[120.00651,26.22427],[120.00656,26.2265],[120.0105,26.22846],[120.01539,26.22779],[120.0154,26.22684],[120.01325,26.22452],[120.01349,26.22382],[120.01462,26.22408],[120.01448,26.22349],[120.01057,26.2212],[120.00981,26.21967],[120.01039,26.21824],[120.01267,26.21789],[120.01158,26.2173],[120.01164,26.21438],[120.00964,26.21476],[120.00923,26.21851],[120.00751,26.21946],[120.00701,26.22227],[120.00381,26.22291],[120.00268,26.22279],[120.00022,26.21872],[119.99904,26.21953],[120.00063,26.22198],[119.99822,26.22254],[119.99691,26.21815],[119.99463,26.21782],[119.99307,26.21863],[119.99023,26.21444],[119.98903,26.21507],[119.98937,26.21772],[119.98707,26.21868],[119.98386,26.21866],[119.98285,26.2174],[119.97773,26.21485],[119.97585,26.2152],[119.97255,26.21186],[119.97288,26.20926],[119.97147,26.20748],[119.97263,26.20617],[119.9729,26.20145],[119.97138,26.19938],[119.97358,26.1976],[119.97289,26.19481],[119.97555,26.19482],[119.97599,26.19323],[119.97354,26.19231],[119.97319,26.19453],[119.97128,26.19524],[119.96748,26.19371],[119.96647,26.19402],[119.96676,26.19824],[119.96554,26.20255],[119.96671,26.20344],[119.9656,26.20489],[119.97107,26.21262],[119.9686,26.2154],[119.96909,26.21823],[119.96739,26.21909],[119.96744,26.22125],[119.96856,26.22063],[119.97003,26.2213],[119.97156,26.22091],[119.97413,26.22264],[119.97492,26.2242],[119.97595,26.22359],[119.97877,26.22602],[119.97975,26.22606],[119.98053,26.22492],[119.98325,26.22498],[119.98841,26.23079],[119.99151,26.23245],[119.99192,26.23376],[119.99325,26.23397],[119.99317,26.23647],[119.99532,26.23822],[119.99642,26.23808]]],[[[120.01277,26.24053],[120.01419,26.23999],[120.01411,26.23899],[120.01205,26.23802],[120.01224,26.23578],[120.01132,26.23563],[120.01087,26.23811],[120.01277,26.24053]]],[[[120.0045,26.25066],[120.00631,26.25092],[120.00638,26.24999],[120.00503,26.24707],[120.00359,26.24736],[120.00314,26.24506],[120.0012,26.24522],[119.99824,26.24215],[119.99583,26.24204],[119.99556,26.24463],[119.99624,26.2448],[119.99844,26.24971],[120.00085,26.24848],[120.00351,26.25119],[120.0045,26.25066]]],[[[120.0099,26.25515],[120.0112,26.25469],[120.01107,26.25396],[120.01382,26.25477],[120.01504,26.25405],[120.01365,26.25247],[120.0099,26.25262],[120.0079,26.25183],[120.00888,26.25485],[120.0099,26.25515]]],[[[119.98962,26.28187],[119.99058,26.2819],[119.98864,26.27985],[119.98879,26.27816],[119.99144,26.27869],[119.98928,26.27694],[119.99135,26.27701],[119.99231,26.27569],[119.99206,26.27474],[119.98866,26.27293],[119.98923,26.27196],[119.98874,26.27105],[119.99023,26.27068],[119.99036,26.26969],[119.98781,26.26817],[119.98792,26.26714],[119.98124,26.26655],[119.98079,26.2685],[119.97882,26.26963],[119.97995,26.27146],[119.9784,26.27206],[119.98275,26.27335],[119.98406,26.27482],[119.98413,26.277],[119.98158,26.27831],[119.98389,26.27937],[119.9832,26.28047],[119.98436,26.28038],[119.98469,26.27954],[119.98678,26.28009],[119.98618,26.28234],[119.98683,26.28301],[119.98882,26.2837],[119.98962,26.28187]]],[[[120.22893,26.34501],[120.22799,26.34426],[120.22745,26.34483],[120.22638,26.34362],[120.2267,26.3426],[120.22574,26.34243],[120.22359,26.33909],[120.22293,26.33918],[120.2231,26.33852],[120.22151,26.33893],[120.22136,26.33824],[120.22068,26.33843],[120.22045,26.33634],[120.21807,26.33571],[120.21812,26.3376],[120.21942,26.33859],[120.22034,26.34183],[120.22208,26.34125],[120.22421,26.34432],[120.22889,26.34737],[120.22984,26.34547],[120.22893,26.34501]]]]}},{"type":"Feature","properties":{"code":"09007040","name":"連江縣東引鄉"},"geometry":{"type":"MultiPolygon","coordinates":[[[[120.40324,26.15904],[120.40313,26.15787],[120.40376,26.15741],[120.40476,26.15804],[120.40517,26.15645],[120.40609,26.15672],[120.40648,26.15547],[120.40289,26.15649],[120.40213,26.15789],[120.40324,26.15904]]],[[[120.4796,26.383],[120.48044,26.38084],[120.48228,26.38072],[120.48346,26.37718],[120.48208,26.37471],[120.48152,26.37123],[120.48351,26.37052],[120.48437,26.37105],[120.48552,26.36974],[120.48781,26.37183],[120.48894,26.37063],[120.49035,26.37131],[120.492,26.37064],[120.49228,26.37503],[120.49418,26.37776],[120.49589,26.37863],[120.49867,26.37793],[120.49972,26.37844],[120.50049,26.37664],[120.49853,26.37361],[120.49867,26.37265],[120.50129,26.37317],[120.50257,26.37104],[120.50356,26.37079],[120.50393,26.37173],[120.5057,26.37183],[120.50589,26.37306],[120.50666,26.37295],[120.50827,26.36944],[120.51109,26.36833],[120.51131,26.36522],[120.50892,26.36479],[120.50647,26.36705],[120.5042,26.36557],[120.50457,26.36612],[120.50299,26.36876],[120.50134,26.36869],[120.50055,26.36444],[120.49881,26.36307],[120.49854,26.36184],[120.49616,26.36116],[120.49349,26.35689],[120.49299,26.35932],[120.48854,26.35736],[120.48849,26.35925],[120.48616,26.35979],[120.48607,26.35853],[120.48509,26.35847],[120.48559,26.35658],[120.48428,26.35577],[120.48402,26.35718],[120.48155,26.35898],[120.48322,26.36056],[120.4838,26.36322],[120.48206,26.36502],[120.48304,26.36446],[120.48541,26.36547],[120.48536,26.36892],[120.48103,26.37079],[120.47773,26.36754],[120.47779,26.37393],[120.47669,26.37495],[120.47712,26.3789],[120.47655,26.37904],[120.47536,26.377],[120.474,26.37701],[120.47167,26.37227],[120.47103,26.37239],[120.47036,26.37108],[120.47002,26.37188],[120.46936,26.37116],[120.46926,26.37246],[120.47057,26.37445],[120.46925,26.3771],[120.47065,26.37837],[120.47308,26.37844],[120.47469,26.37965],[120.47406,26.38339],[120.47681,26.38347],[120.47758,26.3818],[120.47937,26.38363],[120.48022,26.38382],[120.4796,26.383]]]]}}]}