{"type":"FeatureCollection","source":"https://data.gov.tw/dataset/7441 鄉鎮市區界線(TWD97經緯度)","agency":"內政部國土測繪中心","license":"政府資料開放授權條款第1版","generatedBy":"scripts/build-geo.py","features":[{"type":"Feature","properties":{"code":"09020060","name":"金門縣烏坵鄉"},"geometry":{"type":"MultiPolygon","coordinates":[[[[119.47405,24.98598],[119.4775,24.98642],[119.47888,24.98588],[119.47896,24.98395],[119.47621,24.97938],[119.47278,24.9776],[119.46599,24.97995],[119.46564,24.98241],[119.46782,24.98439],[119.47272,24.98722],[119.47405,24.98598]]],[[[119.45834,24.98946],[119.45836,24.98731],[119.45688,24.98524],[119.4512,24.98756],[119.4473,24.98773],[119.44545,24.99362],[119.44329,24.99668],[119.44345,24.99872],[119.44479,24.99961],[119.4558,24.99496],[119.45801,24.99235],[119.45834,24.98946]]]]}},{"type":"Feature","properties":{"code":"09020050","name":"金門縣烈嶼鄉"},"geometry":{"type":"MultiPolygon","coordinates":[[[[118.23382,24.16277],[118.23506,24.16257],[118.23456,24.16026],[118.23243,24.16077],[118.23289,24.16318],[118.23382,24.16277]]],[[[118.14557,24.37893],[118.14471,24.37548],[118.14368,24.3785],[118.14557,24.37893]]],[[[118.16038,24.37855],[118.15718,24.37797],[118.15685,24.3772],[118.15137,24.38233],[118.15434,24.38374],[118.16326,24.38132],[118.16038,24.37855]]],[[[118.16262,24.3949],[118.16421,24.39524],[118.16363,24.39375],[118.16522,24.39011],[118.17099,24.38962],[118.17191,24.3876],[118.17256,24.38822],[118.17331,24.38719],[118.17279,24.38633],[118.16899,24.38421],[118.16577,24.38684],[118.16183,24.38733],[118.16176,24.38999],[118.15922,24.39324],[118.15983,24.39494],[118.16101,24.3956],[118.16262,24.3949]]],[[[118.1943,24.39716],[118.19415,24.3962],[118.19513,24.39582],[118.19432,24.39532],[118.19149,24.397],[118.19369,24.39813],[118.1943,24.39716]]],[[[118.24886,24.45636],[118.25805,24.45403],[118.26005,24.45275],[118.26369,24.44821],[118.26579,24.44678],[118.26917,24.44598],[118.26819,24.43969],[118.26983,24.43825],[118.26638,24.43467],[118.26729,24.43391],[118.26582,24.43014],[118.26632,24.42813],[118.26508,24.42537],[118.26291,24.4242],[118.26308,24.42253],[118.25926,24.42213],[118.26053,24.42309],[118.25974,24.42448],[118.25856,24.42466],[118.25889,24.42296],[118.25816,24.42343],[118.25845,24.42508],[118.25464,24.42488],[118.24992,24.42159],[118.24871,24.41941],[118.25005,24.41826],[118.24535,24.41364],[118.24363,24.41335],[118.24149,24.41126],[118.24144,24.41432],[118.23861,24.4149],[118.23544,24.41431],[118.23229,24.41275],[118.22926,24.40828],[118.22751,24.40784],[118.2258,24.405],[118.22415,24.40591],[118.22353,24.4078],[118.22209,24.40879],[118.21352,24.40977],[118.21157,24.41248],[118.21387,24.41185],[118.21637,24.41307],[118.21465,24.41358],[118.21457,24.41484],[118.21737,24.42076],[118.21681,24.42807],[118.22385,24.43661],[118.22422,24.43973],[118.2273,24.44787],[118.23053,24.45205],[118.23337,24.45368],[118.23544,24.45377],[118.24137,24.45605],[118.24342,24.45501],[118.24594,24.45618],[118.24886,24.45636]]],[[[118.27769,24.45381],[118.27636,24.45228],[118.2724,24.45335],[118.26883,24.45248],[118.2692,24.45424],[118.27205,24.45804],[118.27479,24.45672],[118.27769,24.45381]]]]}},{"type":"Feature","properties":{"code":"09020020","name":"金門縣金沙鎮"},"geometry":{"type":"MultiPolygon","coordinates":[[[[118.43906,24.52474],[118.43908,24.52344],[118.43576,24.52197],[118.43471,24.52234],[118.43659,24.52406],[118.43888,24.52523],[118.43906,24.52474]]],[[[118.41131,24.53214],[118.41086,24.53056],[118.41446,24.52831],[118.41919,24.53044],[118.42175,24.52963],[118.42413,24.52767],[118.42581,24.52835],[118.42933,24.52738],[118.42953,24.52528],[118.43358,24.52501],[118.43341,24.52272],[118.43154,24.52194],[118.4327,24.51845],[118.43566,24.51448],[118.45011,24.511],[118.45063,24.50991],[118.44956,24.50466],[118.45074,24.50102],[118.45172,24.49939],[118.45495,24.49756],[118.4558,24.49586],[118.45511,24.4928],[118.45862,24.48701],[118.46195,24.48426],[118.46894,24.48368],[118.46899,24.48044],[118.4662,24.47922],[118.46508,24.47702],[118.46343,24.47659],[118.46322,24.475],[118.46543,24.46273],[118.4689,24.4577],[118.46568,24.45348],[118.46382,24.45285],[118.46245,24.45043],[118.45972,24.44846],[118.45517,24.44663],[118.44602,24.45439],[118.43534,24.46636],[118.43303,24.47091],[118.42656,24.47031],[118.42499,24.46794],[118.4244,24.46831],[118.41825,24.46344],[118.41485,24.4629],[118.40946,24.45879],[118.40569,24.45936],[118.40523,24.45786],[118.40321,24.45656],[118.3961,24.45367],[118.39446,24.45469],[118.39239,24.45894],[118.38965,24.46039],[118.38658,24.45937],[118.38256,24.46146],[118.37659,24.46946],[118.37197,24.47907],[118.37906,24.48504],[118.38073,24.49125],[118.38481,24.49223],[118.38571,24.49359],[118.38374,24.5027],[118.38404,24.5081],[118.38579,24.5095],[118.38861,24.50989],[118.39204,24.51161],[118.39685,24.51955],[118.40077,24.52222],[118.39965,24.52545],[118.39653,24.52573],[118.39771,24.52811],[118.40005,24.5286],[118.40377,24.52723],[118.4056,24.52747],[118.40767,24.53007],[118.40737,24.53145],[118.4057,24.53176],[118.40731,24.53423],[118.40927,24.53398],[118.41131,24.53214]]]]}},{"type":"Feature","properties":{"code":"09020030","name":"金門縣金湖鎮"},"geometry":{"type":"Polygon","coordinates":[[[118.38294,24.46135],[118.38658,24.45937],[118.38965,24.46039],[118.39239,24.45894],[118.39446,24.45469],[118.3961,24.45367],[118.40321,24.45656],[118.40523,24.45786],[118.40569,24.45936],[118.40946,24.45879],[118.41485,24.4629],[118.41825,24.46344],[118.4244,24.46831],[118.42499,24.46794],[118.42656,24.47031],[118.43303,24.47091],[118.43534,24.46636],[118.44602,24.45439],[118.45517,24.44663],[118.46226,24.45026],[118.46375,24.45279],[118.46568,24.45348],[118.4689,24.4577],[118.47034,24.45522],[118.47206,24.45479],[118.47315,24.45356],[118.4762,24.45328],[118.47817,24.45026],[118.47746,24.44952],[118.4742,24.44956],[118.47378,24.44493],[118.47228,24.44306],[118.47267,24.44151],[118.4711,24.44159],[118.47108,24.44052],[118.46974,24.4401],[118.47062,24.43975],[118.4682,24.44012],[118.46834,24.44152],[118.46619,24.44199],[118.46275,24.44029],[118.46285,24.43804],[118.46104,24.43815],[118.4605,24.43628],[118.46213,24.43541],[118.46346,24.43585],[118.46382,24.43346],[118.46651,24.43091],[118.46386,24.42968],[118.46402,24.42914],[118.46509,24.4295],[118.46529,24.42871],[118.46407,24.4273],[118.46244,24.42723],[118.46226,24.42582],[118.46054,24.42368],[118.45858,24.42598],[118.45732,24.42601],[118.45774,24.42405],[118.45675,24.42039],[118.45538,24.41939],[118.45604,24.41779],[118.45496,24.41627],[118.45441,24.41721],[118.45282,24.41656],[118.45302,24.41538],[118.44836,24.4155],[118.4475,24.41393],[118.44672,24.41442],[118.44587,24.41386],[118.44679,24.4124],[118.44496,24.41256],[118.44469,24.41153],[118.4431,24.41073],[118.44102,24.41123],[118.43754,24.41015],[118.43495,24.40769],[118.43166,24.40804],[118.43053,24.40681],[118.4262,24.40678],[118.4272,24.40818],[118.42625,24.40933],[118.42752,24.40836],[118.43003,24.40857],[118.43231,24.40979],[118.42909,24.41037],[118.43021,24.41224],[118.42558,24.41079],[118.42771,24.41218],[118.43083,24.41266],[118.43302,24.41647],[118.43133,24.4201],[118.42747,24.42389],[118.42529,24.42487],[118.41818,24.42702],[118.41369,24.42715],[118.41264,24.42853],[118.41051,24.42856],[118.40922,24.42757],[118.41061,24.4292],[118.41012,24.43048],[118.41098,24.43142],[118.40986,24.4318],[118.40902,24.42869],[118.40822,24.43218],[118.40324,24.43358],[118.40261,24.43498],[118.3993,24.43551],[118.39716,24.43483],[118.39504,24.43587],[118.38797,24.43448],[118.38716,24.43526],[118.38547,24.43507],[118.37283,24.43192],[118.36057,24.4265],[118.35883,24.43028],[118.36052,24.43218],[118.36134,24.43692],[118.36386,24.43795],[118.36134,24.44199],[118.36049,24.44798],[118.36783,24.45791],[118.36807,24.46048],[118.36641,24.46164],[118.36583,24.47375],[118.37197,24.47907],[118.37749,24.46796],[118.38294,24.46135]]]}},{"type":"Feature","properties":{"code":"09020040","name":"金門縣金寧鄉"},"geometry":{"type":"Polygon","coordinates":[[[118.34067,24.47454],[118.34552,24.4744],[118.35044,24.47166],[118.35664,24.47102],[118.36312,24.47167],[118.36583,24.47375],[118.36641,24.46164],[118.36807,24.46048],[118.36783,24.45791],[118.36049,24.44798],[118.36134,24.44199],[118.36386,24.43795],[118.36134,24.43692],[118.36052,24.43218],[118.35883,24.43028],[118.36057,24.4265],[118.35036,24.42055],[118.34828,24.41837],[118.34772,24.41496],[118.34614,24.41411],[118.34457,24.41126],[118.33464,24.41909],[118.32918,24.41395],[118.32529,24.42181],[118.32508,24.42602],[118.32859,24.42614],[118.3304,24.43247],[118.32459,24.43239],[118.32652,24.43432],[118.32322,24.43666],[118.32827,24.44127],[118.32584,24.44411],[118.32514,24.44353],[118.32371,24.44487],[118.32038,24.44217],[118.31975,24.4406],[118.31695,24.43891],[118.31534,24.4405],[118.31471,24.43982],[118.31385,24.44041],[118.31192,24.43746],[118.30743,24.43814],[118.303,24.44157],[118.30096,24.4487],[118.29555,24.456],[118.29592,24.46056],[118.29535,24.46236],[118.29117,24.46818],[118.28846,24.46992],[118.2891,24.47089],[118.28622,24.47482],[118.28599,24.47707],[118.2897,24.48598],[118.29454,24.49134],[118.30283,24.49473],[118.31047,24.49602],[118.31817,24.49316],[118.32256,24.4896],[118.32699,24.48304],[118.33135,24.47904],[118.33629,24.47603],[118.34067,24.47454]]]}},{"type":"Feature","properties":{"code":"09020010","name":"金門縣金城鎮"},"geometry":{"type":"Polygon","coordinates":[[[118.32514,24.44353],[118.32584,24.44411],[118.32827,24.44127],[118.32322,24.43666],[118.32652,24.43432],[118.32453,24.43245],[118.3304,24.43247],[118.32859,24.42614],[118.32508,24.42602],[118.32529,24.42181],[118.32918,24.41395],[118.33464,24.41909],[118.34457,24.41126],[118.34123,24.40876],[118.33871,24.40453],[118.33424,24.39109],[118.33126,24.38968],[118.3306,24.38831],[118.32919,24.38776],[118.32876,24.38841],[118.32757,24.38696],[118.32501,24.38804],[118.32364,24.38595],[118.32306,24.3857],[118.32284,24.3864],[118.322,24.38555],[118.31996,24.38576],[118.31917,24.38764],[118.31824,24.38842],[118.3166,24.38811],[118.31514,24.39004],[118.30925,24.39021],[118.30942,24.39113],[118.30881,24.39087],[118.30872,24.39187],[118.30636,24.39324],[118.30629,24.39444],[118.30521,24.39471],[118.30553,24.39537],[118.30486,24.39581],[118.29593,24.39571],[118.29648,24.39735],[118.29561,24.39916],[118.29064,24.40199],[118.29128,24.40331],[118.29084,24.40415],[118.2806,24.41051],[118.28049,24.41197],[118.28023,24.41151],[118.27801,24.4135],[118.27889,24.41513],[118.28086,24.4152],[118.2804,24.41634],[118.28096,24.41703],[118.29092,24.41885],[118.30221,24.43625],[118.303,24.44157],[118.30743,24.43814],[118.31192,24.43746],[118.31385,24.44041],[118.31471,24.43982],[118.31534,24.4405],[118.31695,24.43891],[118.31975,24.4406],[118.32038,24.44217],[118.32371,24.44487],[118.32514,24.44353]]]}}]}