{"type":"FeatureCollection","source":"https://data.gov.tw/dataset/7441 鄉鎮市區界線(TWD97經緯度)","agency":"內政部國土測繪中心","license":"政府資料開放授權條款第1版","generatedBy":"scripts/build-geo.py","features":[{"type":"Feature","properties":{"code":"10002030","name":"宜蘭縣蘇澳鎮"},"geometry":{"type":"Polygon","coordinates":[[[121.81842,24.65494],[121.81884,24.65375],[121.8227,24.65394],[121.82527,24.64733],[121.83022,24.64872],[121.83156,24.64508],[121.83444,24.64595],[121.83555,24.64278],[121.83658,24.64389],[121.83729,24.64316],[121.84517,24.64466],[121.85213,24.628],[121.85877,24.6167],[121.86613,24.60992],[121.86963,24.60864],[121.8734,24.60873],[121.87532,24.60564],[121.87808,24.60514],[121.88022,24.60574],[121.88218,24.60351],[121.88514,24.60372],[121.88366,24.60138],[121.88604,24.59981],[121.88184,24.59863],[121.87923,24.59912],[121.87346,24.59661],[121.87924,24.59104],[121.87621,24.58649],[121.87463,24.58531],[121.87265,24.58525],[121.87225,24.58405],[121.87288,24.58369],[121.874,24.58457],[121.87417,24.58326],[121.8757,24.58282],[121.87525,24.5814],[121.87661,24.58125],[121.87728,24.57976],[121.87979,24.57966],[121.87698,24.57808],[121.87678,24.57885],[121.8757,24.57901],[121.87553,24.57716],[121.87338,24.57723],[121.87208,24.57818],[121.86983,24.57608],[121.86949,24.57449],[121.86922,24.57127],[121.87031,24.56924],[121.87121,24.56343],[121.8707,24.5603],[121.87119,24.55252],[121.87411,24.54549],[121.87231,24.54148],[121.87375,24.53438],[121.87248,24.53281],[121.87257,24.5311],[121.87013,24.53001],[121.86983,24.52825],[121.86857,24.52765],[121.86093,24.52717],[121.85626,24.52394],[121.84254,24.52081],[121.83993,24.51653],[121.83878,24.51162],[121.83835,24.50328],[121.83971,24.49864],[121.8413,24.49758],[121.84644,24.49658],[121.84785,24.49736],[121.84805,24.49581],[121.85021,24.49472],[121.85074,24.49534],[121.85081,24.49339],[121.84965,24.4922],[121.85093,24.48457],[121.85254,24.48365],[121.86023,24.48364],[121.86242,24.4812],[121.86213,24.48039],[121.85969,24.47856],[121.85545,24.48059],[121.84903,24.4792],[121.84612,24.47693],[121.84392,24.47686],[121.84123,24.47558],[121.83831,24.47226],[121.83424,24.46962],[121.83266,24.46742],[121.82467,24.46461],[121.82086,24.46209],[121.82006,24.45851],[121.82181,24.45565],[121.81717,24.45021],[121.81655,24.44674],[121.8156,24.44789],[121.81218,24.44269],[121.8034,24.43616],[121.80048,24.43136],[121.79512,24.43301],[121.79344,24.4357],[121.79151,24.43694],[121.79075,24.43956],[121.78721,24.44197],[121.78537,24.44673],[121.77921,24.45553],[121.78265,24.45875],[121.78746,24.45896],[121.79014,24.46154],[121.80332,24.46541],[121.80705,24.46794],[121.8082,24.47005],[121.80939,24.47022],[121.81077,24.46926],[121.81426,24.47194],[121.81478,24.47369],[121.81695,24.47573],[121.8169,24.47693],[121.82014,24.48018],[121.81919,24.49169],[121.82301,24.49265],[121.82588,24.49676],[121.82565,24.5005],[121.82946,24.50773],[121.82898,24.51389],[121.82971,24.51615],[121.83549,24.52267],[121.838,24.52787],[121.84065,24.53029],[121.84686,24.53162],[121.84979,24.53775],[121.84547,24.53926],[121.84374,24.54261],[121.83961,24.54323],[121.83468,24.55109],[121.83293,24.55205],[121.82645,24.55241],[121.82374,24.55119],[121.81852,24.55346],[121.81457,24.5594],[121.81538,24.5618],[121.8145,24.56326],[121.81402,24.5673],[121.81473,24.57181],[121.81279,24.57538],[121.81505,24.57873],[121.81497,24.58026],[121.81257,24.58281],[121.81097,24.58709],[121.8075,24.58933],[121.80682,24.59285],[121.80046,24.59518],[121.79825,24.59966],[121.79586,24.6013],[121.7969,24.60221],[121.7999,24.6024],[121.80189,24.60894],[121.80837,24.60852],[121.80875,24.61119],[121.81006,24.61181],[121.81193,24.61549],[121.81106,24.6187],[121.8122,24.62254],[121.81591,24.62245],[121.81693,24.62301],[121.8169,24.62399],[121.81827,24.62409],[121.81809,24.62645],[121.82316,24.62702],[121.82272,24.6326],[121.8256,24.63285],[121.82535,24.63624],[121.82595,24.63655],[121.82446,24.64025],[121.82229,24.64267],[121.81936,24.64267],[121.81643,24.64972],[121.814,24.65153],[121.81406,24.653],[121.81486,24.65288],[121.81558,24.65457],[121.818,24.65561],[121.81842,24.65494]]]}},{"type":"Feature","properties":{"code":"10002090","name":"宜蘭縣五結鄉"},"geometry":{"type":"Polygon","coordinates":[[[121.75767,24.71677],[121.7616,24.71638],[121.76602,24.7134],[121.76914,24.71329],[121.78037,24.71528],[121.78897,24.71319],[121.81189,24.71191],[121.81482,24.71292],[121.81731,24.71275],[121.82444,24.71616],[121.83042,24.71606],[121.83852,24.71789],[121.83914,24.71741],[121.83925,24.71472],[121.83706,24.71178],[121.83631,24.70823],[121.83671,24.69906],[121.8377,24.6952],[121.83729,24.68979],[121.83846,24.68168],[121.83818,24.67234],[121.84058,24.65987],[121.84517,24.64466],[121.83729,24.64316],[121.83658,24.64389],[121.83555,24.64278],[121.83444,24.64595],[121.83156,24.64508],[121.83022,24.64872],[121.82527,24.64733],[121.8227,24.65394],[121.81884,24.65375],[121.81809,24.65562],[121.81552,24.65452],[121.81486,24.65288],[121.81406,24.653],[121.81445,24.65209],[121.81343,24.65091],[121.81136,24.65136],[121.81253,24.65358],[121.81233,24.65683],[121.81398,24.65883],[121.81158,24.66342],[121.81207,24.66755],[121.81306,24.66919],[121.81131,24.67233],[121.80708,24.67239],[121.80616,24.6708],[121.80506,24.67125],[121.80393,24.6702],[121.80244,24.67032],[121.80088,24.6709],[121.79993,24.67233],[121.79924,24.67442],[121.80003,24.67611],[121.78533,24.67879],[121.78525,24.67823],[121.78322,24.6781],[121.78036,24.68167],[121.77794,24.68171],[121.77617,24.68082],[121.77618,24.68407],[121.77494,24.68402],[121.77496,24.68607],[121.77092,24.68575],[121.77017,24.69021],[121.76571,24.69069],[121.76546,24.6916],[121.76454,24.69144],[121.76312,24.69272],[121.76351,24.69577],[121.76482,24.69807],[121.76372,24.69908],[121.76283,24.70232],[121.76199,24.70231],[121.76181,24.70095],[121.75742,24.70679],[121.7614,24.7107],[121.75924,24.71111],[121.75659,24.70988],[121.75122,24.70995],[121.74747,24.71265],[121.74074,24.70952],[121.74068,24.71218],[121.74218,24.71476],[121.74668,24.71831],[121.75767,24.71677]]]}},{"type":"Feature","properties":{"code":"10002010","name":"宜蘭縣宜蘭市"},"geometry":{"type":"Polygon","coordinates":[[[121.73466,24.78302],[121.73728,24.78173],[121.73815,24.78214],[121.7433,24.77724],[121.7464,24.78033],[121.74974,24.78104],[121.75102,24.78016],[121.75302,24.78107],[121.75645,24.78022],[121.75795,24.7807],[121.75919,24.78204],[121.7589,24.78261],[121.76099,24.78294],[121.7628,24.78172],[121.76222,24.77969],[121.76336,24.77818],[121.76414,24.77825],[121.7652,24.77541],[121.7668,24.77467],[121.7675,24.77319],[121.76706,24.77252],[121.76827,24.77203],[121.76796,24.77103],[121.77046,24.77188],[121.772,24.77152],[121.77072,24.76997],[121.77238,24.76663],[121.77678,24.76864],[121.77822,24.76661],[121.77921,24.76689],[121.77958,24.76579],[121.78068,24.76611],[121.7803,24.76487],[121.78201,24.7628],[121.78568,24.76391],[121.78709,24.76186],[121.78913,24.75814],[121.78809,24.75768],[121.78853,24.75635],[121.78578,24.75549],[121.78864,24.75273],[121.78826,24.75177],[121.78525,24.7503],[121.78526,24.74869],[121.78322,24.74881],[121.78238,24.74733],[121.7834,24.74688],[121.78376,24.74243],[121.785,24.7425],[121.78531,24.73879],[121.77905,24.739],[121.77912,24.73844],[121.77685,24.73822],[121.77706,24.73734],[121.77573,24.73558],[121.77558,24.72901],[121.77346,24.71926],[121.77414,24.71578],[121.7761,24.7147],[121.76914,24.71329],[121.76504,24.71358],[121.76312,24.7156],[121.76081,24.71661],[121.76201,24.71804],[121.76009,24.71987],[121.7592,24.72235],[121.75725,24.72348],[121.75115,24.72214],[121.747,24.72254],[121.74681,24.72354],[121.74312,24.72409],[121.73802,24.72653],[121.73479,24.72433],[121.7333,24.73016],[121.73649,24.73234],[121.7337,24.7348],[121.73687,24.73789],[121.73583,24.73854],[121.73708,24.74042],[121.73798,24.74118],[121.73899,24.74025],[121.74071,24.74178],[121.73989,24.74252],[121.74212,24.74457],[121.73401,24.74662],[121.72801,24.75144],[121.72948,24.75296],[121.72707,24.75504],[121.72926,24.75691],[121.72849,24.75788],[121.73112,24.76004],[121.73185,24.76419],[121.73249,24.76428],[121.73213,24.7658],[121.7344,24.7697],[121.73468,24.77183],[121.7335,24.77572],[121.73045,24.7799],[121.7303,24.78439],[121.73221,24.78441],[121.73466,24.78302]]]}},{"type":"Feature","properties":{"code":"10002060","name":"宜蘭縣壯圍鄉"},"geometry":{"type":"Polygon","coordinates":[[[121.8115,24.80799],[121.82032,24.80724],[121.81844,24.78994],[121.81806,24.77217],[121.81954,24.75539],[121.82196,24.74412],[121.82588,24.733],[121.83278,24.71989],[121.83502,24.71852],[121.83852,24.71789],[121.83356,24.71642],[121.82444,24.71616],[121.81731,24.71275],[121.81482,24.71292],[121.81189,24.71191],[121.78897,24.71319],[121.78037,24.71528],[121.7761,24.7147],[121.77414,24.71578],[121.77346,24.71926],[121.77558,24.72901],[121.77573,24.73558],[121.77706,24.73734],[121.77685,24.73822],[121.77912,24.73844],[121.77905,24.739],[121.78531,24.73879],[121.785,24.7425],[121.78376,24.74243],[121.7834,24.74688],[121.78238,24.74733],[121.78322,24.74881],[121.7852,24.74864],[121.78525,24.7503],[121.78826,24.75177],[121.78864,24.75273],[121.78578,24.75549],[121.78853,24.75635],[121.78809,24.75768],[121.78915,24.7583],[121.78573,24.76389],[121.78201,24.7628],[121.7803,24.76487],[121.78068,24.76611],[121.77958,24.76579],[121.77921,24.76689],[121.77822,24.76661],[121.77678,24.76864],[121.77233,24.76668],[121.77073,24.77002],[121.77226,24.77163],[121.77311,24.7704],[121.77511,24.77174],[121.77209,24.77624],[121.77653,24.77864],[121.77902,24.77839],[121.77939,24.78149],[121.78059,24.78106],[121.78105,24.78463],[121.78355,24.78445],[121.78405,24.78717],[121.78684,24.78683],[121.78668,24.78621],[121.7878,24.78575],[121.78737,24.78479],[121.78848,24.78438],[121.79208,24.79218],[121.79104,24.79261],[121.79162,24.79388],[121.79277,24.79362],[121.79418,24.79572],[121.80373,24.79351],[121.8067,24.79502],[121.80739,24.79661],[121.80976,24.79819],[121.80829,24.80235],[121.80982,24.80427],[121.81056,24.80752],[121.8115,24.80799]]]}},{"type":"Feature","properties":{"code":"10002020","name":"宜蘭縣羅東鎮"},"geometry":{"type":"Polygon","coordinates":[[[121.76177,24.70099],[121.76199,24.70231],[121.76283,24.70232],[121.76372,24.69908],[121.76484,24.69795],[121.76351,24.69577],[121.76314,24.69268],[121.76454,24.69144],[121.76546,24.6916],[121.76571,24.69069],[121.77017,24.69021],[121.77092,24.68575],[121.77496,24.68607],[121.77494,24.68402],[121.77618,24.68407],[121.77617,24.68082],[121.77794,24.68171],[121.78036,24.68167],[121.78322,24.6781],[121.78525,24.67823],[121.78533,24.67879],[121.80003,24.67611],[121.79924,24.67442],[121.79993,24.67233],[121.80088,24.6709],[121.80244,24.67032],[121.80116,24.67004],[121.80098,24.66608],[121.79984,24.664],[121.7963,24.66414],[121.79403,24.66338],[121.79194,24.66528],[121.78864,24.66595],[121.78679,24.66574],[121.7849,24.66425],[121.78301,24.66546],[121.78055,24.66545],[121.77487,24.66925],[121.77164,24.66753],[121.76845,24.67032],[121.76513,24.66761],[121.76025,24.66728],[121.75822,24.6659],[121.75795,24.66677],[121.75621,24.66679],[121.75572,24.66523],[121.75484,24.66537],[121.75485,24.66683],[121.75299,24.66584],[121.75238,24.6667],[121.7528,24.66779],[121.75478,24.66947],[121.75376,24.67163],[121.74968,24.67277],[121.74936,24.67601],[121.75172,24.67715],[121.74856,24.67848],[121.75052,24.68436],[121.7496,24.68515],[121.75159,24.69005],[121.75113,24.69386],[121.75374,24.69389],[121.75488,24.70226],[121.75742,24.70679],[121.76177,24.70099]]]}},{"type":"Feature","properties":{"code":"10002070","name":"宜蘭縣員山鄉"},"geometry":{"type":"Polygon","coordinates":[[[121.64031,24.79505],[121.64142,24.79426],[121.64801,24.79535],[121.64903,24.795],[121.6494,24.79364],[121.65563,24.79307],[121.65802,24.79193],[121.66057,24.7894],[121.66255,24.78933],[121.66702,24.7874],[121.67367,24.78362],[121.68011,24.78423],[121.68185,24.78375],[121.68551,24.78505],[121.69195,24.78327],[121.70135,24.78255],[121.70808,24.7798],[121.71341,24.78036],[121.71739,24.77946],[121.71815,24.77823],[121.72352,24.77627],[121.72401,24.77473],[121.72658,24.77453],[121.73369,24.76851],[121.73213,24.7658],[121.73249,24.76428],[121.73185,24.76419],[121.73112,24.76004],[121.72849,24.75788],[121.72931,24.75701],[121.72707,24.75504],[121.72948,24.75296],[121.72801,24.75144],[121.73455,24.7463],[121.74212,24.74457],[121.73989,24.74252],[121.74071,24.74178],[121.73899,24.74025],[121.73798,24.74118],[121.73708,24.74042],[121.73583,24.73854],[121.73687,24.73789],[121.7337,24.7348],[121.73649,24.73234],[121.7333,24.73016],[121.73479,24.72433],[121.73802,24.72653],[121.74312,24.72409],[121.74681,24.72354],[121.747,24.72254],[121.75115,24.72214],[121.75725,24.72348],[121.75928,24.72225],[121.76185,24.71748],[121.76081,24.71661],[121.75748,24.71677],[121.74685,24.71838],[121.74218,24.71476],[121.74068,24.71218],[121.74074,24.70952],[121.73331,24.70714],[121.72603,24.70318],[121.71413,24.6995],[121.70126,24.70203],[121.69571,24.70115],[121.67865,24.70057],[121.67849,24.70264],[121.67618,24.70197],[121.6718,24.70456],[121.66291,24.70395],[121.65176,24.69821],[121.64931,24.69361],[121.644,24.69059],[121.64253,24.68752],[121.63729,24.68319],[121.63352,24.68247],[121.63111,24.68032],[121.62497,24.68069],[121.62282,24.68163],[121.6272,24.68472],[121.6301,24.68776],[121.63048,24.68918],[121.62669,24.68715],[121.6255,24.68769],[121.61834,24.69417],[121.61438,24.69565],[121.61126,24.70149],[121.60703,24.7022],[121.60171,24.70586],[121.59495,24.70898],[121.58834,24.71591],[121.58728,24.71919],[121.58705,24.72011],[121.59043,24.72345],[121.59679,24.72704],[121.59795,24.72903],[121.59377,24.72954],[121.59501,24.73248],[121.59417,24.735],[121.59531,24.73963],[121.59493,24.74084],[121.59192,24.74332],[121.59167,24.74492],[121.59467,24.74643],[121.59613,24.7483],[121.59459,24.75019],[121.59033,24.75124],[121.58897,24.75515],[121.5894,24.75721],[121.59082,24.75878],[121.59078,24.76134],[121.59344,24.76482],[121.59628,24.76694],[121.59559,24.7693],[121.59759,24.77217],[121.5944,24.77899],[121.59433,24.78105],[121.59322,24.78229],[121.59338,24.78503],[121.59195,24.7875],[121.59889,24.7877],[121.60293,24.78944],[121.60564,24.78913],[121.60964,24.79377],[121.61334,24.7932],[121.61681,24.79389],[121.62096,24.7925],[121.62356,24.79438],[121.62661,24.79393],[121.63032,24.79566],[121.63637,24.79494],[121.63933,24.79592],[121.64031,24.79505]]]}},{"type":"Feature","properties":{"code":"10002080","name":"宜蘭縣冬山鄉"},"geometry":{"type":"Polygon","coordinates":[[[121.75125,24.69348],[121.75159,24.69005],[121.7496,24.68515],[121.75052,24.68436],[121.74856,24.67848],[121.75172,24.67715],[121.74936,24.67601],[121.74968,24.67277],[121.75376,24.67163],[121.75478,24.66947],[121.7528,24.66779],[121.75238,24.6667],[121.75299,24.66584],[121.75485,24.66683],[121.75484,24.66537],[121.75572,24.66523],[121.75621,24.66679],[121.75795,24.66677],[121.75822,24.6659],[121.76025,24.66728],[121.76513,24.66761],[121.76845,24.67032],[121.77164,24.66753],[121.77478,24.66927],[121.78055,24.66545],[121.78301,24.66546],[121.78497,24.66425],[121.78679,24.66574],[121.79045,24.6659],[121.79409,24.66338],[121.7963,24.66414],[121.79984,24.664],[121.80098,24.66608],[121.8012,24.6701],[121.80393,24.6702],[121.80506,24.67125],[121.80616,24.6708],[121.80708,24.67239],[121.81101,24.6725],[121.81304,24.66924],[121.81207,24.66755],[121.81156,24.66354],[121.81396,24.6586],[121.81233,24.65683],[121.81253,24.65358],[121.81132,24.65139],[121.81338,24.65089],[121.814,24.65153],[121.81643,24.64972],[121.81936,24.64267],[121.82225,24.64269],[121.82442,24.64031],[121.826,24.63631],[121.82535,24.63624],[121.8256,24.63285],[121.82272,24.6326],[121.82299,24.6268],[121.81809,24.62645],[121.81827,24.62409],[121.8169,24.62399],[121.81679,24.62288],[121.81206,24.62238],[121.81106,24.6187],[121.81193,24.61549],[121.81006,24.61181],[121.80875,24.61119],[121.80832,24.60846],[121.80189,24.60894],[121.79986,24.60235],[121.79664,24.60211],[121.79404,24.59938],[121.7894,24.60119],[121.78664,24.6013],[121.78589,24.60377],[121.77781,24.60899],[121.77637,24.61159],[121.77294,24.61155],[121.76878,24.61398],[121.76696,24.61407],[121.76605,24.61596],[121.76075,24.61766],[121.75934,24.61892],[121.75701,24.61912],[121.75459,24.61629],[121.75261,24.61783],[121.75015,24.61833],[121.75133,24.61669],[121.75092,24.61482],[121.75208,24.61431],[121.7513,24.61335],[121.75241,24.61311],[121.753,24.61145],[121.75027,24.61238],[121.7504,24.61084],[121.74682,24.60688],[121.74583,24.60976],[121.74608,24.61122],[121.74787,24.61297],[121.74687,24.6148],[121.74804,24.61597],[121.74571,24.61743],[121.74552,24.61959],[121.74457,24.62025],[121.73789,24.61624],[121.73606,24.62002],[121.73439,24.6214],[121.73204,24.62157],[121.72782,24.62063],[121.72298,24.61708],[121.71887,24.61772],[121.71815,24.61927],[121.71546,24.61688],[121.7122,24.61817],[121.70707,24.6239],[121.70446,24.62287],[121.69647,24.62675],[121.69374,24.62698],[121.69212,24.62628],[121.69021,24.62861],[121.68357,24.63189],[121.68012,24.63589],[121.67987,24.63758],[121.68549,24.63843],[121.6879,24.64058],[121.69136,24.6419],[121.69279,24.64158],[121.69282,24.64233],[121.69426,24.64158],[121.69571,24.64226],[121.70136,24.64139],[121.70602,24.64988],[121.70529,24.65026],[121.70173,24.64834],[121.6995,24.6484],[121.69939,24.64978],[121.70257,24.65034],[121.70317,24.6513],[121.69828,24.65426],[121.69588,24.65432],[121.6944,24.65695],[121.69538,24.6585],[121.69702,24.65775],[121.69804,24.65862],[121.70023,24.65708],[121.701,24.65823],[121.70667,24.6577],[121.70762,24.65344],[121.71063,24.65085],[121.71473,24.6521],[121.71577,24.65397],[121.72235,24.65171],[121.7237,24.65205],[121.72884,24.66341],[121.73362,24.66937],[121.72226,24.67043],[121.72186,24.67162],[121.72299,24.67175],[121.72251,24.67384],[121.72391,24.6748],[121.72402,24.67648],[121.72517,24.67751],[121.72385,24.68172],[121.7256,24.68321],[121.72463,24.68505],[121.72678,24.68728],[121.73322,24.69077],[121.73436,24.69016],[121.73577,24.69125],[121.73788,24.69101],[121.74094,24.69252],[121.74497,24.69094],[121.74849,24.69316],[121.75125,24.69348]]]}},{"type":"Feature","properties":{"code":"10002100","name":"宜蘭縣三星鄉"},"geometry":{"type":"Polygon","coordinates":[[[121.74937,24.71087],[121.75172,24.7099],[121.75659,24.70988],[121.75924,24.71111],[121.76168,24.71041],[121.75816,24.70763],[121.75532,24.70356],[121.75374,24.69389],[121.74849,24.69316],[121.74497,24.69094],[121.74094,24.69252],[121.73788,24.69101],[121.73577,24.69125],[121.73436,24.69016],[121.73322,24.69077],[121.72678,24.68728],[121.72452,24.68488],[121.72561,24.68329],[121.72385,24.68172],[121.72517,24.67751],[121.72402,24.67648],[121.72391,24.6748],[121.72251,24.67384],[121.72299,24.67175],[121.72186,24.67162],[121.72226,24.67043],[121.73362,24.66937],[121.72884,24.66341],[121.7237,24.65205],[121.72235,24.65171],[121.71577,24.65397],[121.71473,24.6521],[121.71063,24.65085],[121.70762,24.65344],[121.70667,24.6577],[121.701,24.65823],[121.70023,24.65708],[121.69804,24.65862],[121.69708,24.65776],[121.69554,24.6585],[121.6947,24.65799],[121.69441,24.65689],[121.69588,24.65432],[121.69828,24.65426],[121.70311,24.65142],[121.70257,24.65034],[121.69939,24.64978],[121.6995,24.6484],[121.70173,24.64834],[121.70529,24.65026],[121.70602,24.64988],[121.70136,24.64139],[121.69571,24.64226],[121.69426,24.64158],[121.69282,24.64233],[121.69279,24.64158],[121.69136,24.6419],[121.6879,24.64058],[121.68549,24.63843],[121.67798,24.63682],[121.67604,24.6378],[121.67241,24.63574],[121.66928,24.63592],[121.6671,24.63693],[121.66307,24.63631],[121.65961,24.63822],[121.65586,24.63622],[121.65319,24.6366],[121.64855,24.63582],[121.64706,24.63627],[121.64526,24.639],[121.63904,24.63944],[121.63646,24.63757],[121.63512,24.63749],[121.63033,24.63802],[121.62934,24.63931],[121.62473,24.63358],[121.62576,24.62536],[121.62491,24.62496],[121.62261,24.6261],[121.6127,24.63451],[121.6082,24.63655],[121.60382,24.63481],[121.60344,24.63338],[121.60148,24.63294],[121.60121,24.63152],[121.59809,24.63152],[121.59564,24.63215],[121.58935,24.63954],[121.58688,24.63836],[121.58104,24.63823],[121.57801,24.6371],[121.57415,24.63936],[121.5699,24.63886],[121.56921,24.64168],[121.56656,24.64047],[121.56455,24.64191],[121.56645,24.64689],[121.56874,24.64811],[121.57388,24.64807],[121.57603,24.64883],[121.58143,24.65499],[121.58367,24.65504],[121.58648,24.65717],[121.58816,24.66113],[121.59084,24.66348],[121.6018,24.66825],[121.60606,24.67202],[121.61056,24.67321],[121.61525,24.67598],[121.62182,24.68154],[121.63111,24.68032],[121.63352,24.68247],[121.63729,24.68319],[121.64253,24.68752],[121.644,24.69059],[121.64931,24.69361],[121.65176,24.69821],[121.66291,24.70395],[121.6718,24.70456],[121.67618,24.70197],[121.67849,24.70264],[121.67865,24.70057],[121.69571,24.70115],[121.70126,24.70203],[121.71413,24.6995],[121.72616,24.70323],[121.73331,24.70714],[121.74206,24.71001],[121.7473,24.7126],[121.74937,24.71087]]]}},{"type":"Feature","properties":{"code":"10002110","name":"宜蘭縣大同鄉"},"geometry":{"type":"Polygon","coordinates":[[[121.58576,24.72006],[121.58705,24.72011],[121.58822,24.71607],[121.59523,24.70877],[121.60171,24.70586],[121.60703,24.7022],[121.61126,24.70149],[121.61438,24.69565],[121.61827,24.69422],[121.62618,24.68725],[121.63029,24.68916],[121.63034,24.68828],[121.62712,24.68465],[121.62323,24.68177],[121.62151,24.68134],[121.61516,24.67592],[121.61056,24.67321],[121.60606,24.67202],[121.6018,24.66825],[121.59424,24.66548],[121.5905,24.66324],[121.58816,24.66113],[121.58648,24.65717],[121.58367,24.65504],[121.58143,24.65499],[121.57603,24.64883],[121.57388,24.64807],[121.56874,24.64811],[121.56645,24.64689],[121.56464,24.64281],[121.5657,24.64076],[121.56669,24.64049],[121.56921,24.64168],[121.5699,24.63886],[121.57415,24.63936],[121.57801,24.6371],[121.58104,24.63823],[121.58688,24.63836],[121.58928,24.63956],[121.59564,24.63215],[121.59826,24.6315],[121.60127,24.63155],[121.60148,24.63294],[121.60344,24.63338],[121.60382,24.63481],[121.6082,24.63655],[121.6127,24.63451],[121.62261,24.6261],[121.62491,24.62496],[121.62576,24.62536],[121.62473,24.63358],[121.62934,24.63931],[121.63033,24.63802],[121.63512,24.63749],[121.63646,24.63757],[121.63904,24.63944],[121.64526,24.639],[121.64706,24.63627],[121.64855,24.63582],[121.65319,24.6366],[121.65586,24.63622],[121.65961,24.63822],[121.66307,24.63631],[121.6671,24.63693],[121.67182,24.63574],[121.67604,24.6378],[121.67788,24.63682],[121.67987,24.63758],[121.68018,24.63578],[121.68357,24.63189],[121.69021,24.62861],[121.69212,24.62628],[121.69374,24.62698],[121.69647,24.62675],[121.70446,24.62287],[121.70707,24.6239],[121.7122,24.61817],[121.71546,24.61688],[121.71815,24.61927],[121.71887,24.61772],[121.72172,24.61711],[121.72298,24.61708],[121.72436,24.61829],[121.72553,24.61482],[121.72558,24.61175],[121.72387,24.60787],[121.72744,24.60284],[121.73182,24.59949],[121.73159,24.59826],[121.73411,24.59216],[121.73689,24.59161],[121.74013,24.58943],[121.74373,24.58836],[121.75229,24.58222],[121.75645,24.58126],[121.75894,24.58168],[121.76034,24.57899],[121.76194,24.57969],[121.76273,24.5775],[121.76424,24.5776],[121.76567,24.57645],[121.76535,24.5748],[121.76362,24.57671],[121.76165,24.57697],[121.76059,24.5763],[121.7597,24.57351],[121.75639,24.5741],[121.75443,24.57216],[121.75202,24.57231],[121.74935,24.56945],[121.74793,24.56548],[121.74363,24.56777],[121.73623,24.56608],[121.72701,24.57237],[121.72575,24.57593],[121.72361,24.57735],[121.72252,24.57671],[121.72222,24.57467],[121.71919,24.57227],[121.71754,24.57215],[121.71522,24.57302],[121.71488,24.57426],[121.7123,24.57602],[121.71009,24.57625],[121.7088,24.57824],[121.70731,24.57849],[121.70482,24.581],[121.70173,24.57931],[121.69816,24.57912],[121.69645,24.57739],[121.69475,24.57733],[121.69045,24.57376],[121.68859,24.57313],[121.68793,24.57012],[121.68535,24.56679],[121.68451,24.56416],[121.6805,24.56132],[121.67043,24.56105],[121.66552,24.56244],[121.66649,24.56085],[121.66712,24.55643],[121.66818,24.55658],[121.66741,24.55709],[121.66763,24.5582],[121.66866,24.55645],[121.66734,24.55274],[121.66594,24.55192],[121.66529,24.54929],[121.66596,24.54587],[121.66481,24.54333],[121.66525,24.54152],[121.66337,24.53692],[121.66321,24.53109],[121.66181,24.52496],[121.65942,24.52355],[121.65903,24.52123],[121.65766,24.51938],[121.6579,24.51717],[121.6571,24.51548],[121.6576,24.5137],[121.65685,24.51133],[121.64791,24.50345],[121.63953,24.5032],[121.63654,24.50217],[121.63641,24.5011],[121.63396,24.49877],[121.63051,24.49765],[121.629,24.49212],[121.62732,24.49119],[121.62635,24.4882],[121.62458,24.48803],[121.62401,24.4847],[121.62488,24.48196],[121.62351,24.47985],[121.62249,24.48014],[121.62294,24.47878],[121.62144,24.47763],[121.62141,24.47344],[121.62065,24.47372],[121.61968,24.47285],[121.61963,24.47188],[121.62075,24.47132],[121.62146,24.46755],[121.61831,24.46626],[121.61762,24.4652],[121.61785,24.4628],[121.61566,24.46162],[121.61316,24.46336],[121.60952,24.46427],[121.60463,24.46394],[121.59687,24.46531],[121.5923,24.46688],[121.58777,24.47068],[121.58512,24.46701],[121.58526,24.46425],[121.58741,24.46133],[121.58626,24.45767],[121.58365,24.45673],[121.58153,24.45348],[121.57706,24.45498],[121.57407,24.45955],[121.56961,24.45865],[121.56766,24.45929],[121.55926,24.45908],[121.55505,24.46165],[121.54897,24.46277],[121.54809,24.46227],[121.54545,24.46347],[121.53526,24.46094],[121.53094,24.46119],[121.52644,24.46024],[121.52064,24.4585],[121.5198,24.45741],[121.51516,24.45811],[121.51252,24.45733],[121.50756,24.45736],[121.50528,24.45865],[121.50108,24.45785],[121.49513,24.45802],[121.4908,24.45515],[121.4838,24.45279],[121.47738,24.44351],[121.47305,24.44182],[121.47121,24.4423],[121.46851,24.43658],[121.46158,24.43207],[121.45898,24.42941],[121.45808,24.4143],[121.44723,24.40885],[121.44607,24.40659],[121.44327,24.40408],[121.44178,24.4006],[121.44355,24.39746],[121.44292,24.3958],[121.43877,24.39208],[121.43845,24.38554],[121.43694,24.38294],[121.42937,24.38306],[121.42154,24.38071],[121.4191,24.37905],[121.41277,24.37974],[121.40791,24.37755],[121.40441,24.37772],[121.40089,24.37967],[121.39812,24.37776],[121.39508,24.37763],[121.39283,24.37512],[121.38996,24.37515],[121.38762,24.36969],[121.38076,24.3669],[121.37701,24.36844],[121.37374,24.36805],[121.36943,24.37226],[121.36925,24.37459],[121.3671,24.37893],[121.3698,24.38259],[121.36841,24.38544],[121.36489,24.38907],[121.35939,24.39045],[121.35469,24.39327],[121.35239,24.39224],[121.34297,24.39284],[121.33993,24.391],[121.33913,24.3896],[121.33698,24.3924],[121.3336,24.395],[121.33234,24.39794],[121.3276,24.39845],[121.32598,24.40104],[121.325,24.40691],[121.32744,24.41302],[121.32737,24.42124],[121.32872,24.42701],[121.32767,24.43043],[121.32826,24.43345],[121.32167,24.44037],[121.31767,24.44149],[121.32334,24.45575],[121.32645,24.46042],[121.32958,24.46265],[121.33014,24.46455],[121.336,24.46737],[121.33564,24.47204],[121.34007,24.47485],[121.34284,24.48226],[121.34632,24.48466],[121.35074,24.48434],[121.35775,24.48661],[121.36189,24.49078],[121.36385,24.49496],[121.37125,24.49836],[121.37252,24.50211],[121.37335,24.5099],[121.37929,24.50953],[121.38357,24.51022],[121.3854,24.5138],[121.38512,24.51682],[121.38853,24.5178],[121.39052,24.52293],[121.39286,24.52446],[121.39771,24.52481],[121.4015,24.52899],[121.40151,24.53022],[121.39886,24.53255],[121.39846,24.53626],[121.39675,24.53982],[121.39876,24.5482],[121.39544,24.55303],[121.39476,24.55591],[121.39836,24.56046],[121.40126,24.56201],[121.40131,24.56469],[121.40358,24.56871],[121.40766,24.57003],[121.41233,24.5734],[121.41033,24.57916],[121.40456,24.58775],[121.40309,24.59187],[121.40847,24.59898],[121.41222,24.60085],[121.41278,24.60365],[121.41829,24.60103],[121.4244,24.60301],[121.42769,24.60585],[121.43062,24.61451],[121.43259,24.61564],[121.43352,24.61879],[121.43477,24.61938],[121.43566,24.62133],[121.43484,24.62446],[121.43609,24.6274],[121.44055,24.6351],[121.44502,24.6373],[121.44563,24.63942],[121.44484,24.64105],[121.44508,24.64318],[121.44876,24.64601],[121.45134,24.65092],[121.45126,24.65168],[121.44899,24.65298],[121.44761,24.65617],[121.44775,24.65837],[121.44959,24.66222],[121.45391,24.6644],[121.45531,24.66832],[121.45964,24.67323],[121.46921,24.67183],[121.47645,24.67376],[121.48181,24.67434],[121.48501,24.67388],[121.48735,24.67521],[121.49301,24.67324],[121.49636,24.67513],[121.49903,24.67795],[121.505,24.67949],[121.5073,24.68234],[121.51174,24.68435],[121.51369,24.6843],[121.51481,24.68324],[121.5238,24.6833],[121.52695,24.68525],[121.52714,24.68852],[121.52788,24.68897],[121.5295,24.68757],[121.53656,24.68833],[121.53763,24.69024],[121.53753,24.69393],[121.53889,24.69478],[121.53786,24.69984],[121.54084,24.70231],[121.54321,24.70564],[121.54727,24.70627],[121.55062,24.70574],[121.55443,24.70837],[121.55649,24.71127],[121.55832,24.71095],[121.56254,24.71284],[121.56778,24.71156],[121.57038,24.71397],[121.57216,24.71058],[121.57461,24.71004],[121.57728,24.71487],[121.57806,24.72216],[121.57932,24.72243],[121.58576,24.72006]]]}},{"type":"Feature","properties":{"code":"10002040","name":"宜蘭縣頭城鎮"},"geometry":{"type":"MultiPolygon","coordinates":[[[[121.95972,24.84493],[121.96067,24.84264],[121.96495,24.84049],[121.9651,24.83899],[121.96294,24.83593],[121.96148,24.83528],[121.95707,24.83682],[121.94802,24.83533],[121.94573,24.83552],[121.94101,24.8378],[121.93831,24.84235],[121.93426,24.84556],[121.93519,24.84716],[121.94174,24.84429],[121.94334,24.84461],[121.94754,24.85125],[121.94948,24.85177],[121.95719,24.85026],[121.95984,24.84696],[121.95972,24.84493]]],[[[121.9606,24.98822],[121.96291,24.9877],[121.96599,24.98303],[121.96224,24.98175],[121.95831,24.98262],[121.95451,24.98],[121.95167,24.97968],[121.95156,24.9789],[121.94855,24.97885],[121.94427,24.97683],[121.94368,24.97499],[121.94227,24.97504],[121.94183,24.97339],[121.94091,24.97329],[121.94098,24.97389],[121.93638,24.97329],[121.93623,24.97385],[121.92559,24.96856],[121.92239,24.96321],[121.92305,24.96183],[121.92219,24.96227],[121.92132,24.95961],[121.92015,24.95906],[121.9202,24.95519],[121.91692,24.95217],[121.91136,24.95073],[121.91023,24.94987],[121.91034,24.94904],[121.90961,24.9495],[121.90713,24.94698],[121.90536,24.9466],[121.90413,24.94365],[121.90513,24.94241],[121.90427,24.94143],[121.90467,24.93982],[121.90337,24.9406],[121.90092,24.93994],[121.89897,24.94002],[121.89805,24.94087],[121.89528,24.94073],[121.88926,24.9371],[121.88789,24.93509],[121.88688,24.92916],[121.88754,24.92674],[121.88543,24.92324],[121.88537,24.91889],[121.88249,24.91453],[121.87955,24.91356],[121.87778,24.91039],[121.87624,24.90979],[121.87478,24.9073],[121.87251,24.90618],[121.87179,24.90364],[121.87188,24.90497],[121.87036,24.90408],[121.87057,24.90351],[121.86822,24.90336],[121.86595,24.902],[121.86394,24.89835],[121.86047,24.89446],[121.85136,24.89011],[121.85084,24.88646],[121.84832,24.88453],[121.84269,24.87616],[121.83062,24.85045],[121.82795,24.84216],[121.82714,24.84236],[121.82742,24.83966],[121.82311,24.82344],[121.82032,24.80724],[121.81661,24.80771],[121.81704,24.80894],[121.81577,24.8106],[121.81641,24.81319],[121.81421,24.8179],[121.81601,24.82223],[121.82033,24.82809],[121.81864,24.83191],[121.81718,24.83063],[121.81325,24.83027],[121.81225,24.82749],[121.80822,24.82574],[121.8059,24.8264],[121.80109,24.826],[121.79763,24.82753],[121.79577,24.83077],[121.79079,24.83283],[121.78991,24.83482],[121.79038,24.83561],[121.78462,24.84174],[121.77874,24.84488],[121.77653,24.84906],[121.77466,24.85083],[121.77497,24.85366],[121.77669,24.8562],[121.77286,24.85657],[121.77195,24.85567],[121.76941,24.85572],[121.76528,24.8519],[121.76288,24.85254],[121.76148,24.85134],[121.75832,24.8506],[121.75485,24.85194],[121.75215,24.85151],[121.74738,24.8537],[121.74797,24.85495],[121.75346,24.85498],[121.75429,24.85641],[121.76099,24.8567],[121.76211,24.85878],[121.76156,24.86015],[121.76279,24.86126],[121.7633,24.86005],[121.76438,24.85989],[121.7661,24.86252],[121.76784,24.86365],[121.76782,24.86542],[121.76911,24.86593],[121.77115,24.86487],[121.77543,24.86508],[121.77519,24.86672],[121.77733,24.87076],[121.78322,24.87422],[121.78505,24.87401],[121.78428,24.87758],[121.78224,24.87918],[121.78168,24.88947],[121.78299,24.89038],[121.78565,24.89062],[121.78579,24.89249],[121.79001,24.89345],[121.79302,24.89624],[121.79206,24.89762],[121.79191,24.89981],[121.79518,24.89975],[121.79716,24.90162],[121.79889,24.90087],[121.80221,24.901],[121.80347,24.90181],[121.80462,24.90119],[121.80773,24.90321],[121.81048,24.90363],[121.81049,24.90527],[121.81164,24.90652],[121.81838,24.90271],[121.82551,24.90526],[121.82701,24.90454],[121.8281,24.90537],[121.83182,24.90491],[121.83329,24.90664],[121.8364,24.90835],[121.84228,24.91515],[121.84374,24.91572],[121.8456,24.91937],[121.85363,24.92512],[121.85387,24.92788],[121.84915,24.93033],[121.84674,24.93771],[121.84244,24.93936],[121.83998,24.9419],[121.83905,24.94464],[121.83925,24.94642],[121.84076,24.94801],[121.84176,24.95112],[121.84141,24.95426],[121.84297,24.95513],[121.84348,24.9569],[121.84519,24.95775],[121.84561,24.95932],[121.84686,24.96027],[121.84876,24.96],[121.85036,24.96118],[121.85257,24.95961],[121.85402,24.96],[121.85438,24.96159],[121.86112,24.96367],[121.86363,24.96213],[121.87155,24.96072],[121.87314,24.96154],[121.87606,24.96146],[121.883,24.96424],[121.88857,24.96318],[121.88957,24.96476],[121.8972,24.96707],[121.90283,24.97438],[121.90412,24.97466],[121.90542,24.97342],[121.90673,24.97551],[121.90826,24.97586],[121.91033,24.97477],[121.91096,24.97693],[121.91487,24.97935],[121.91899,24.97864],[121.92082,24.97972],[121.92274,24.9786],[121.92677,24.98017],[121.9285,24.97965],[121.93062,24.98103],[121.9335,24.9809],[121.93461,24.98325],[121.93749,24.98302],[121.93866,24.98486],[121.94051,24.98449],[121.94464,24.98818],[121.9479,24.98666],[121.95039,24.98832],[121.95525,24.98834],[121.95809,24.98729],[121.9606,24.98822]]],[[[123.5502,25.72581],[123.55441,25.72387],[123.55567,25.72086],[123.55308,25.72026],[123.54497,25.72235],[123.54461,25.72359],[123.54538,25.72463],[123.5502,25.72581]]],[[[123.54135,25.73438],[123.54367,25.7295],[123.54563,25.72873],[123.54476,25.72792],[123.54463,25.72614],[123.54242,25.72525],[123.54237,25.72606],[123.54149,25.72583],[123.54095,25.72875],[123.53877,25.73168],[123.53762,25.73178],[123.53987,25.73289],[123.54109,25.73486],[123.54135,25.73438]]],[[[123.4767,25.75181],[123.48061,25.7501],[123.48697,25.74966],[123.4896,25.74823],[123.49373,25.74428],[123.49381,25.74209],[123.48863,25.74019],[123.47722,25.74127],[123.47519,25.74011],[123.47535,25.73922],[123.47452,25.73988],[123.474,25.73813],[123.47227,25.73893],[123.47016,25.73714],[123.46566,25.73598],[123.46446,25.73491],[123.46152,25.73482],[123.4594,25.73564],[123.45779,25.74032],[123.4603,25.74471],[123.46691,25.74916],[123.4767,25.75181]]],[[[124.55913,25.92337],[124.56115,25.9223],[124.55657,25.92153],[124.55769,25.9231],[124.55913,25.92337]]],[[[123.68245,25.92888],[123.68721,25.92513],[123.68784,25.92332],[123.68871,25.92356],[123.68788,25.92094],[123.68602,25.9197],[123.68155,25.91909],[123.68005,25.91958],[123.67608,25.92315],[123.67672,25.92505],[123.67977,25.92861],[123.68245,25.92888]]]]}},{"type":"Feature","properties":{"code":"10002120","name":"宜蘭縣南澳鄉"},"geometry":{"type":"Polygon","coordinates":[[[121.73262,24.62144],[121.73439,24.6214],[121.73606,24.62002],[121.73784,24.61624],[121.74437,24.62025],[121.74552,24.61959],[121.74568,24.61747],[121.74804,24.61597],[121.74687,24.6148],[121.74787,24.61297],[121.74608,24.61122],[121.74583,24.60976],[121.74674,24.6069],[121.7504,24.61084],[121.75027,24.61238],[121.753,24.61145],[121.75241,24.61311],[121.7513,24.61335],[121.75208,24.61431],[121.75092,24.61482],[121.75133,24.61669],[121.75015,24.61833],[121.75261,24.61783],[121.75459,24.61629],[121.75694,24.61908],[121.75794,24.61916],[121.76587,24.61607],[121.76676,24.61416],[121.76878,24.61398],[121.77257,24.61169],[121.77637,24.61159],[121.77781,24.60899],[121.78589,24.60377],[121.7867,24.60126],[121.78947,24.60117],[121.79334,24.59923],[121.79586,24.6013],[121.79731,24.60051],[121.80046,24.59518],[121.80682,24.59285],[121.8075,24.58933],[121.81097,24.58709],[121.81257,24.58281],[121.81497,24.58026],[121.81505,24.57873],[121.81279,24.57538],[121.81473,24.57181],[121.81402,24.5673],[121.8145,24.56326],[121.81538,24.5618],[121.81457,24.5594],[121.81841,24.55359],[121.82374,24.55119],[121.82645,24.55241],[121.83293,24.55205],[121.83468,24.55109],[121.83961,24.54323],[121.84374,24.54261],[121.84547,24.53926],[121.84978,24.53794],[121.84686,24.53162],[121.84065,24.53029],[121.838,24.52787],[121.83549,24.52267],[121.82971,24.51615],[121.82898,24.51389],[121.82946,24.50773],[121.82565,24.5005],[121.82588,24.49676],[121.82301,24.49265],[121.81919,24.49169],[121.82014,24.48018],[121.8169,24.47693],[121.81695,24.47573],[121.81478,24.47369],[121.81426,24.47194],[121.81077,24.46926],[121.80939,24.47022],[121.8082,24.47005],[121.80705,24.46794],[121.80332,24.46541],[121.79014,24.46154],[121.78746,24.45896],[121.78265,24.45875],[121.77921,24.45553],[121.78537,24.44673],[121.78721,24.44197],[121.79075,24.43956],[121.79151,24.43694],[121.79344,24.4357],[121.79512,24.43301],[121.80048,24.43136],[121.79115,24.40823],[121.78878,24.39616],[121.78703,24.3725],[121.78372,24.36651],[121.78227,24.36161],[121.77872,24.3562],[121.77799,24.35233],[121.77358,24.34371],[121.77164,24.33756],[121.77089,24.33259],[121.77396,24.31961],[121.77407,24.31527],[121.77272,24.31363],[121.77014,24.31312],[121.7594,24.31411],[121.74474,24.32285],[121.74006,24.32356],[121.73518,24.32307],[121.72796,24.32596],[121.72346,24.32548],[121.71332,24.32694],[121.70557,24.32945],[121.69571,24.33471],[121.68847,24.33362],[121.68736,24.33464],[121.68698,24.33875],[121.68558,24.34073],[121.68385,24.34073],[121.67701,24.33758],[121.67484,24.33777],[121.67349,24.33998],[121.67398,24.3434],[121.66911,24.3431],[121.66674,24.34725],[121.6639,24.34917],[121.66313,24.35289],[121.66137,24.35301],[121.66124,24.35179],[121.66001,24.35115],[121.65866,24.35128],[121.65665,24.35325],[121.65351,24.35219],[121.65376,24.35582],[121.65068,24.35985],[121.64946,24.35966],[121.64785,24.35773],[121.6481,24.35653],[121.65003,24.35487],[121.65072,24.35093],[121.6503,24.3495],[121.64876,24.34951],[121.64048,24.35717],[121.64037,24.35939],[121.63867,24.36092],[121.63834,24.36232],[121.63503,24.36372],[121.635,24.36634],[121.63062,24.36642],[121.63187,24.36977],[121.63095,24.37055],[121.62589,24.36912],[121.62188,24.36676],[121.62038,24.36321],[121.62076,24.36255],[121.62357,24.36234],[121.62152,24.35991],[121.6212,24.35811],[121.62228,24.35668],[121.62677,24.35433],[121.62685,24.34953],[121.62945,24.34944],[121.63046,24.34822],[121.63324,24.34917],[121.63552,24.34762],[121.63593,24.34611],[121.6353,24.34482],[121.63137,24.34398],[121.63298,24.3399],[121.6328,24.33475],[121.62864,24.33369],[121.62669,24.33563],[121.62808,24.33871],[121.62748,24.34112],[121.62279,24.33947],[121.62062,24.34487],[121.61921,24.34548],[121.61792,24.34439],[121.61614,24.33813],[121.61632,24.33704],[121.61866,24.33574],[121.61754,24.33365],[121.61523,24.3333],[121.61221,24.33589],[121.60792,24.33542],[121.60654,24.33273],[121.60646,24.33006],[121.60447,24.32901],[121.60072,24.33086],[121.59923,24.33353],[121.59698,24.33347],[121.59575,24.33162],[121.59657,24.32814],[121.60133,24.32328],[121.6011,24.32058],[121.60523,24.31728],[121.60515,24.31541],[121.60702,24.31264],[121.60575,24.30942],[121.60192,24.31415],[121.59719,24.31629],[121.59376,24.31641],[121.58949,24.3138],[121.58752,24.31606],[121.58236,24.3178],[121.57884,24.31803],[121.57585,24.31967],[121.5699,24.31794],[121.56637,24.31918],[121.56333,24.32223],[121.55949,24.32315],[121.55608,24.33115],[121.54535,24.33767],[121.53994,24.33588],[121.53572,24.33737],[121.53313,24.33709],[121.53055,24.33876],[121.52775,24.33915],[121.52514,24.34247],[121.52216,24.34302],[121.51799,24.341],[121.51544,24.34181],[121.51357,24.34081],[121.50968,24.3412],[121.5073,24.34326],[121.50388,24.34278],[121.4994,24.33937],[121.4954,24.34029],[121.49224,24.34209],[121.48537,24.34846],[121.48111,24.34908],[121.47887,24.35188],[121.47526,24.35126],[121.4654,24.35531],[121.46092,24.35811],[121.45429,24.36364],[121.45201,24.36468],[121.44826,24.37257],[121.44798,24.37483],[121.44256,24.37313],[121.4383,24.38262],[121.43694,24.38294],[121.43845,24.38554],[121.43877,24.39208],[121.44292,24.3958],[121.44355,24.39746],[121.44178,24.4006],[121.44247,24.40275],[121.44723,24.40885],[121.45789,24.414],[121.45898,24.42941],[121.46158,24.43207],[121.46851,24.43658],[121.47121,24.4423],[121.47305,24.44182],[121.47738,24.44351],[121.48416,24.45305],[121.4908,24.45515],[121.49641,24.45843],[121.49875,24.45776],[121.50528,24.45865],[121.50756,24.45736],[121.51252,24.45733],[121.51516,24.45811],[121.5198,24.45741],[121.52064,24.4585],[121.52644,24.46024],[121.53094,24.46119],[121.53526,24.46094],[121.54536,24.46347],[121.54809,24.46227],[121.54897,24.46277],[121.55505,24.46165],[121.55926,24.45908],[121.56766,24.45929],[121.56961,24.45865],[121.57407,24.45955],[121.57706,24.45498],[121.58153,24.45348],[121.58365,24.45673],[121.58626,24.45767],[121.58741,24.46133],[121.58526,24.46425],[121.58512,24.46701],[121.58777,24.47068],[121.5923,24.46688],[121.59687,24.46531],[121.60463,24.46394],[121.60952,24.46427],[121.61316,24.46336],[121.61601,24.46162],[121.61789,24.46286],[121.61762,24.4652],[121.61882,24.46687],[121.62052,24.46671],[121.62143,24.46747],[121.62077,24.47126],[121.61963,24.47188],[121.6197,24.47292],[121.62141,24.47344],[121.62144,24.47763],[121.62294,24.47878],[121.62249,24.48014],[121.62351,24.47985],[121.62488,24.48196],[121.62401,24.4847],[121.62458,24.48803],[121.62635,24.4882],[121.62732,24.49119],[121.629,24.49212],[121.63051,24.49765],[121.63396,24.49877],[121.63641,24.5011],[121.63654,24.50217],[121.63953,24.5032],[121.64791,24.50345],[121.65685,24.51133],[121.6576,24.5137],[121.6571,24.51548],[121.6579,24.51717],[121.65766,24.51938],[121.65903,24.52123],[121.65942,24.52355],[121.66181,24.52496],[121.66321,24.53109],[121.66337,24.53692],[121.66525,24.54152],[121.66481,24.54333],[121.66596,24.54587],[121.66529,24.54929],[121.66594,24.55192],[121.66734,24.55274],[121.66866,24.55645],[121.66763,24.5582],[121.66741,24.55709],[121.66818,24.55658],[121.66712,24.55643],[121.66649,24.56085],[121.66552,24.56244],[121.67043,24.56105],[121.6805,24.56132],[121.68451,24.56416],[121.68535,24.56679],[121.68793,24.57012],[121.68859,24.57313],[121.69045,24.57376],[121.69475,24.57733],[121.69645,24.57739],[121.69816,24.57912],[121.70173,24.57931],[121.70482,24.581],[121.70731,24.57849],[121.7088,24.57824],[121.71009,24.57625],[121.7123,24.57602],[121.71488,24.57426],[121.71522,24.57302],[121.71754,24.57215],[121.71919,24.57227],[121.72222,24.57467],[121.72252,24.57671],[121.72361,24.57735],[121.72575,24.57593],[121.72701,24.57237],[121.73623,24.56608],[121.74363,24.56777],[121.74793,24.56548],[121.74935,24.56945],[121.75202,24.57231],[121.75443,24.57216],[121.75639,24.5741],[121.7597,24.57351],[121.76059,24.5763],[121.76165,24.57697],[121.76362,24.57671],[121.76535,24.5748],[121.76567,24.57645],[121.76424,24.5776],[121.76273,24.5775],[121.76194,24.57969],[121.76034,24.57899],[121.75894,24.58168],[121.75645,24.58126],[121.75229,24.58222],[121.74373,24.58836],[121.74013,24.58943],[121.73689,24.59161],[121.73411,24.59216],[121.73159,24.59826],[121.73182,24.59949],[121.72744,24.60284],[121.72382,24.6082],[121.72558,24.61175],[121.72446,24.61821],[121.72824,24.62081],[121.73262,24.62144]]]}},{"type":"Feature","properties":{"code":"10002050","name":"宜蘭縣礁溪鄉"},"geometry":{"type":"Polygon","coordinates":[[[121.77426,24.85651],[121.77681,24.85612],[121.77501,24.85376],[121.77466,24.85083],[121.77653,24.84906],[121.77878,24.84483],[121.78462,24.84174],[121.79038,24.83561],[121.78991,24.83482],[121.79079,24.83283],[121.79577,24.83077],[121.79763,24.82753],[121.80109,24.826],[121.8059,24.8264],[121.80822,24.82574],[121.81225,24.82749],[121.81325,24.83027],[121.81718,24.83063],[121.81864,24.83191],[121.82044,24.82851],[121.81431,24.81889],[121.81643,24.81308],[121.81582,24.81023],[121.81704,24.80833],[121.81605,24.8074],[121.81056,24.80752],[121.80982,24.80427],[121.80829,24.80235],[121.80974,24.79814],[121.80739,24.79661],[121.8067,24.79502],[121.80373,24.79351],[121.79418,24.79572],[121.79277,24.79362],[121.79169,24.79398],[121.79104,24.79261],[121.79208,24.79218],[121.78848,24.78438],[121.78737,24.78479],[121.7878,24.78575],[121.78668,24.78621],[121.78684,24.78683],[121.78405,24.78717],[121.78355,24.78445],[121.78105,24.78463],[121.78059,24.78106],[121.77939,24.78149],[121.77902,24.77839],[121.77653,24.77864],[121.77209,24.77624],[121.77511,24.77174],[121.77311,24.7704],[121.77226,24.77163],[121.77046,24.77188],[121.76796,24.77103],[121.76827,24.77203],[121.76706,24.77252],[121.7675,24.77319],[121.7668,24.77467],[121.7652,24.77541],[121.76414,24.77825],[121.76336,24.77818],[121.76222,24.77969],[121.7628,24.78172],[121.76099,24.78294],[121.7589,24.78261],[121.75919,24.78204],[121.75795,24.7807],[121.75645,24.78022],[121.75302,24.78107],[121.75102,24.78016],[121.74974,24.78104],[121.7464,24.78033],[121.7433,24.77724],[121.73815,24.78214],[121.73728,24.78173],[121.73221,24.78441],[121.73037,24.78443],[121.73045,24.7799],[121.7335,24.77572],[121.7347,24.77265],[121.73369,24.76851],[121.72711,24.77419],[121.72401,24.77473],[121.72352,24.77627],[121.71965,24.77745],[121.71657,24.77968],[121.71341,24.78036],[121.70808,24.7798],[121.70156,24.78251],[121.69195,24.78327],[121.68551,24.78505],[121.68185,24.78375],[121.68011,24.78423],[121.67367,24.78362],[121.66702,24.7874],[121.66255,24.78933],[121.66057,24.7894],[121.65802,24.79193],[121.65563,24.79307],[121.64904,24.79377],[121.64903,24.795],[121.64822,24.79532],[121.64142,24.79426],[121.63933,24.79592],[121.63637,24.79494],[121.63066,24.7957],[121.62661,24.79393],[121.62356,24.79438],[121.62558,24.79513],[121.62602,24.7965],[121.62482,24.80119],[121.62641,24.80528],[121.62583,24.80878],[121.62842,24.80792],[121.63041,24.80902],[121.63723,24.80944],[121.6388,24.81073],[121.64504,24.80929],[121.64621,24.81031],[121.64732,24.81395],[121.64867,24.81265],[121.65052,24.81297],[121.65311,24.81127],[121.66069,24.81083],[121.661,24.81189],[121.66863,24.81679],[121.66905,24.81801],[121.67436,24.81412],[121.67531,24.8147],[121.67716,24.81409],[121.68124,24.81762],[121.68307,24.81691],[121.6862,24.81753],[121.68729,24.8162],[121.68845,24.81619],[121.69012,24.82149],[121.68764,24.8249],[121.69617,24.82989],[121.6964,24.83462],[121.69816,24.8342],[121.69916,24.83558],[121.70187,24.8344],[121.70836,24.83906],[121.70891,24.84054],[121.71427,24.84178],[121.71559,24.84435],[121.71974,24.84559],[121.72061,24.84875],[121.72192,24.84985],[121.72521,24.85079],[121.72716,24.85314],[121.73051,24.85529],[121.7366,24.8557],[121.73843,24.85524],[121.74199,24.85246],[121.74738,24.8537],[121.75215,24.85151],[121.75485,24.85194],[121.75832,24.8506],[121.76148,24.85134],[121.76288,24.85254],[121.76528,24.8519],[121.76935,24.8557],[121.77426,24.85651]]]}}]}