{"type":"FeatureCollection","source":"https://data.gov.tw/dataset/7441 鄉鎮市區界線(TWD97經緯度)","agency":"內政部國土測繪中心","license":"政府資料開放授權條款第1版","generatedBy":"scripts/build-geo.py","features":[{"type":"Feature","properties":{"code":"10007120","name":"彰化縣田中鎮"},"geometry":{"type":"Polygon","coordinates":[[[120.57512,23.88456],[120.57599,23.88187],[120.57479,23.88008],[120.57552,23.87791],[120.57933,23.87549],[120.58205,23.87715],[120.58275,23.87593],[120.58507,23.87683],[120.59292,23.87701],[120.59274,23.88267],[120.59636,23.88325],[120.59809,23.88134],[120.60473,23.88109],[120.60594,23.88001],[120.61211,23.88059],[120.61737,23.87939],[120.62483,23.87707],[120.62577,23.87524],[120.62545,23.87263],[120.62378,23.87147],[120.62396,23.86892],[120.62155,23.86983],[120.62125,23.8686],[120.62016,23.86871],[120.62065,23.86634],[120.62006,23.86551],[120.62066,23.86364],[120.62209,23.8635],[120.62355,23.86197],[120.62224,23.86012],[120.62446,23.85976],[120.62483,23.8585],[120.62603,23.85847],[120.62545,23.85771],[120.62652,23.8586],[120.62668,23.8575],[120.62782,23.8574],[120.62631,23.85621],[120.62627,23.85475],[120.62525,23.85518],[120.62627,23.85412],[120.62596,23.85208],[120.6245,23.85226],[120.62487,23.85098],[120.62376,23.85029],[120.62344,23.8489],[120.62296,23.84986],[120.62271,23.8487],[120.62179,23.84959],[120.61943,23.84962],[120.62067,23.84909],[120.6196,23.84867],[120.62329,23.84815],[120.62367,23.84734],[120.62299,23.84655],[120.6216,23.84658],[120.62109,23.8444],[120.61828,23.84452],[120.61965,23.84351],[120.61829,23.84259],[120.61978,23.84242],[120.6105,23.83858],[120.60554,23.83485],[120.60284,23.83852],[120.60111,23.83706],[120.59848,23.83804],[120.59692,23.83768],[120.59527,23.83918],[120.5983,23.83491],[120.59803,23.83106],[120.59991,23.8304],[120.60028,23.82588],[120.60156,23.8257],[120.60191,23.82327],[120.60434,23.81943],[120.60383,23.81878],[120.60189,23.82058],[120.59623,23.81928],[120.59172,23.82019],[120.58314,23.82808],[120.58072,23.82614],[120.57249,23.83523],[120.57209,23.83316],[120.55838,23.84882],[120.56844,23.84647],[120.57318,23.85176],[120.57169,23.85146],[120.56307,23.85789],[120.5618,23.86045],[120.55475,23.86491],[120.55543,23.86994],[120.55446,23.87113],[120.55307,23.87127],[120.55175,23.87324],[120.5521,23.87652],[120.55641,23.8743],[120.5579,23.88127],[120.56071,23.88262],[120.56077,23.88338],[120.55958,23.88394],[120.56003,23.88598],[120.56604,23.88619],[120.57056,23.88456],[120.56809,23.88874],[120.57471,23.89548],[120.57434,23.89317],[120.57542,23.89105],[120.5743,23.88968],[120.57512,23.88456]]]}},{"type":"Feature","properties":{"code":"10007170","name":"彰化縣社頭鄉"},"geometry":{"type":"Polygon","coordinates":[[[120.58109,23.92342],[120.58969,23.92494],[120.59236,23.92804],[120.59339,23.93058],[120.59284,23.93321],[120.59811,23.93382],[120.59835,23.93472],[120.60235,23.93561],[120.60699,23.93382],[120.6097,23.93466],[120.61547,23.93399],[120.62385,23.93084],[120.6285,23.93137],[120.62783,23.93099],[120.62871,23.93001],[120.63298,23.92819],[120.63377,23.92722],[120.63314,23.9266],[120.6355,23.92624],[120.63684,23.92502],[120.63725,23.9219],[120.63531,23.92161],[120.63651,23.91944],[120.63497,23.92009],[120.63477,23.91925],[120.63353,23.91954],[120.63509,23.9179],[120.6339,23.91781],[120.63415,23.9162],[120.63327,23.916],[120.63405,23.91558],[120.63334,23.91518],[120.63471,23.91312],[120.63314,23.91424],[120.63356,23.91243],[120.63254,23.91251],[120.63337,23.91176],[120.6326,23.91088],[120.6294,23.91081],[120.63301,23.9096],[120.63067,23.90821],[120.63422,23.90767],[120.63329,23.90724],[120.63328,23.90618],[120.63213,23.90675],[120.6322,23.90435],[120.63303,23.90421],[120.63137,23.90343],[120.63498,23.90139],[120.63371,23.90037],[120.63489,23.89787],[120.63405,23.8977],[120.63436,23.89675],[120.63276,23.89627],[120.63418,23.89524],[120.63376,23.89409],[120.63439,23.89347],[120.63221,23.89228],[120.6341,23.89183],[120.63227,23.89043],[120.63271,23.88976],[120.63212,23.88943],[120.62736,23.88965],[120.62942,23.8891],[120.62895,23.88587],[120.62959,23.88462],[120.62746,23.88351],[120.62672,23.8795],[120.62483,23.87707],[120.61256,23.88054],[120.60594,23.88001],[120.60473,23.88109],[120.59809,23.88134],[120.59636,23.88325],[120.59274,23.88267],[120.59292,23.87701],[120.58507,23.87683],[120.58275,23.87593],[120.58205,23.87715],[120.57933,23.87549],[120.57604,23.87721],[120.57478,23.87999],[120.57599,23.88185],[120.5743,23.88968],[120.57542,23.89105],[120.57434,23.89317],[120.57489,23.89544],[120.56809,23.88874],[120.56616,23.89381],[120.56453,23.90334],[120.56907,23.90489],[120.56621,23.91196],[120.57068,23.91431],[120.57707,23.91451],[120.57718,23.91678],[120.57517,23.92212],[120.57637,23.92324],[120.57121,23.92707],[120.57382,23.92903],[120.5763,23.93627],[120.57908,23.92719],[120.58109,23.92342]]]}},{"type":"Feature","properties":{"code":"10007100","name":"彰化縣員林市"},"geometry":{"type":"Polygon","coordinates":[[[120.60762,23.99007],[120.60879,23.99015],[120.60788,23.98625],[120.60961,23.98571],[120.6094,23.98652],[120.61169,23.98376],[120.60994,23.98686],[120.61108,23.98731],[120.61138,23.9858],[120.61302,23.98445],[120.61295,23.98334],[120.61436,23.98426],[120.61579,23.98401],[120.61644,23.98314],[120.61599,23.98237],[120.61732,23.98168],[120.61715,23.98022],[120.61969,23.97876],[120.61949,23.97612],[120.62106,23.97461],[120.61983,23.97444],[120.62246,23.97189],[120.62464,23.96802],[120.62311,23.96939],[120.62333,23.96828],[120.62151,23.96778],[120.6237,23.96742],[120.62516,23.96528],[120.62428,23.96493],[120.62806,23.96301],[120.62871,23.96152],[120.6268,23.96224],[120.62883,23.95978],[120.62538,23.95951],[120.62965,23.95776],[120.62966,23.95611],[120.62713,23.95652],[120.62695,23.95565],[120.62981,23.95521],[120.6294,23.95456],[120.63228,23.9546],[120.63385,23.95336],[120.63407,23.95226],[120.63156,23.95348],[120.62938,23.95212],[120.62802,23.95266],[120.62759,23.95177],[120.63466,23.94371],[120.63337,23.94288],[120.63083,23.9448],[120.63016,23.94296],[120.63639,23.93772],[120.63766,23.93543],[120.63549,23.93744],[120.63278,23.93564],[120.63214,23.93287],[120.63094,23.93215],[120.63041,23.93259],[120.62972,23.93117],[120.62385,23.93084],[120.61547,23.93399],[120.6097,23.93466],[120.60699,23.93382],[120.6025,23.93561],[120.60009,23.93518],[120.59835,23.93472],[120.59811,23.93382],[120.59284,23.93321],[120.59339,23.93058],[120.59236,23.92804],[120.58969,23.92494],[120.58114,23.92326],[120.57894,23.92758],[120.57671,23.93615],[120.57538,23.93329],[120.5674,23.93443],[120.56731,23.93515],[120.56571,23.93517],[120.5654,23.93661],[120.5642,23.93644],[120.56349,23.93846],[120.56151,23.93798],[120.56079,23.94524],[120.56206,23.94627],[120.56306,23.94576],[120.56586,23.95062],[120.56324,23.95287],[120.56322,23.95744],[120.56145,23.95901],[120.55787,23.95862],[120.55078,23.9622],[120.54761,23.96283],[120.54477,23.96543],[120.54401,23.96841],[120.54525,23.97117],[120.5466,23.97193],[120.54696,23.97528],[120.54951,23.97477],[120.54892,23.97645],[120.5505,23.97762],[120.55378,23.9781],[120.5559,23.97931],[120.56275,23.98019],[120.56257,23.97249],[120.56803,23.9731],[120.56924,23.97431],[120.57123,23.97383],[120.57593,23.97567],[120.57816,23.97551],[120.57592,23.97862],[120.58789,23.98058],[120.58953,23.97981],[120.59338,23.98287],[120.60155,23.98678],[120.60477,23.99009],[120.60762,23.99007]]]}},{"type":"Feature","properties":{"code":"10007010","name":"彰化縣彰化市"},"geometry":{"type":"Polygon","coordinates":[[[120.5568,24.11262],[120.57275,24.10829],[120.57692,24.10962],[120.58352,24.10955],[120.58836,24.10623],[120.59508,24.10487],[120.59996,24.10518],[120.6029,24.10289],[120.60803,24.10272],[120.60891,24.10208],[120.61249,24.10257],[120.61236,24.09986],[120.6149,24.08999],[120.61494,24.08504],[120.617,24.07942],[120.61967,24.07304],[120.62372,24.0717],[120.62535,24.06895],[120.62569,24.05703],[120.62343,24.05212],[120.6245,24.04824],[120.6258,24.04672],[120.62073,24.04586],[120.6162,24.04331],[120.60609,24.04361],[120.59283,24.03779],[120.59209,24.04134],[120.58704,24.04496],[120.58689,24.04603],[120.58811,24.04712],[120.5852,24.04993],[120.5849,24.05129],[120.58069,24.05175],[120.57814,24.05439],[120.57662,24.05344],[120.57516,24.0544],[120.57385,24.05407],[120.57255,24.05633],[120.56668,24.05513],[120.56405,24.05362],[120.56324,24.05198],[120.56114,24.05146],[120.55816,24.04936],[120.55626,24.04936],[120.55454,24.051],[120.55221,24.0507],[120.55019,24.054],[120.54873,24.05472],[120.54529,24.05392],[120.53427,24.05435],[120.53323,24.05186],[120.52949,24.05193],[120.52258,24.05254],[120.52265,24.05353],[120.52037,24.05439],[120.51921,24.05614],[120.51733,24.05214],[120.51482,24.05247],[120.51107,24.05496],[120.50658,24.05126],[120.5055,24.05248],[120.5069,24.05368],[120.50685,24.05489],[120.50463,24.05702],[120.50388,24.05955],[120.50423,24.06102],[120.50659,24.06102],[120.50662,24.06712],[120.50391,24.06886],[120.50286,24.07123],[120.50367,24.0729],[120.49981,24.0763],[120.50061,24.07817],[120.5027,24.0788],[120.50924,24.07783],[120.50969,24.0815],[120.51373,24.08127],[120.51745,24.07973],[120.51505,24.08403],[120.51278,24.08624],[120.51555,24.08631],[120.51849,24.08375],[120.52199,24.08394],[120.52444,24.08613],[120.52561,24.09017],[120.53295,24.09053],[120.53293,24.09159],[120.53521,24.09162],[120.53514,24.09315],[120.53749,24.09286],[120.54048,24.09397],[120.54196,24.09505],[120.54113,24.09773],[120.54165,24.1009],[120.54321,24.10152],[120.54389,24.10393],[120.54503,24.10335],[120.54467,24.1045],[120.5459,24.10948],[120.54791,24.10881],[120.5496,24.11393],[120.5568,24.11262]]]}},{"type":"Feature","properties":{"code":"10007030","name":"彰化縣和美鎮"},"geometry":{"type":"Polygon","coordinates":[[[120.52457,24.15215],[120.52587,24.14819],[120.52525,24.14427],[120.52329,24.14095],[120.52355,24.13968],[120.53268,24.12643],[120.54092,24.12366],[120.54523,24.11662],[120.5496,24.11393],[120.54791,24.10881],[120.54591,24.1095],[120.54467,24.1045],[120.54504,24.10337],[120.54389,24.10393],[120.54321,24.10152],[120.54168,24.10094],[120.54118,24.09976],[120.54196,24.09505],[120.54048,24.09397],[120.53749,24.09286],[120.53514,24.09315],[120.53521,24.09162],[120.53293,24.09159],[120.53295,24.09053],[120.52561,24.09017],[120.52444,24.08613],[120.52199,24.08394],[120.51849,24.08375],[120.51555,24.08631],[120.51278,24.08624],[120.51505,24.08403],[120.51745,24.07973],[120.51373,24.08127],[120.50969,24.0815],[120.50924,24.07783],[120.50235,24.0788],[120.50061,24.07817],[120.49981,24.0763],[120.4982,24.07778],[120.49277,24.07723],[120.49016,24.07896],[120.48854,24.08114],[120.48963,24.08757],[120.49131,24.08925],[120.49041,24.09054],[120.48855,24.0909],[120.48785,24.09341],[120.48861,24.09422],[120.48655,24.09484],[120.48604,24.09765],[120.48486,24.09765],[120.48445,24.09897],[120.4806,24.09874],[120.47862,24.09983],[120.4774,24.10233],[120.47871,24.10317],[120.4796,24.10233],[120.48035,24.10314],[120.47891,24.10328],[120.47918,24.10489],[120.47793,24.10539],[120.47872,24.1059],[120.4784,24.10696],[120.47927,24.10733],[120.47875,24.11035],[120.48083,24.11157],[120.48046,24.11256],[120.48261,24.11621],[120.4827,24.11776],[120.48337,24.11888],[120.48464,24.11903],[120.48663,24.12306],[120.48325,24.12712],[120.48176,24.13566],[120.48198,24.14018],[120.48394,24.14222],[120.48577,24.14163],[120.48648,24.13819],[120.50133,24.13202],[120.50368,24.13573],[120.50628,24.14799],[120.50241,24.14856],[120.50147,24.14953],[120.50159,24.15082],[120.50374,24.15169],[120.50955,24.15215],[120.50931,24.15511],[120.51312,24.15706],[120.51656,24.16033],[120.51971,24.16148],[120.52457,24.15215]]]}},{"type":"Feature","properties":{"code":"10007040","name":"彰化縣線西鄉"},"geometry":{"type":"Polygon","coordinates":[[[120.45503,24.14573],[120.45572,24.14732],[120.4591,24.14678],[120.46561,24.14819],[120.46659,24.14567],[120.46865,24.14362],[120.46837,24.14272],[120.47425,24.14105],[120.47476,24.1427],[120.47635,24.14145],[120.48202,24.1402],[120.48176,24.13566],[120.48325,24.12712],[120.48663,24.12306],[120.48464,24.11903],[120.48337,24.11888],[120.4827,24.11776],[120.48261,24.11621],[120.48046,24.11256],[120.48083,24.11157],[120.47875,24.11035],[120.47927,24.10733],[120.4784,24.10696],[120.47872,24.1059],[120.47793,24.10539],[120.47918,24.10489],[120.47891,24.10328],[120.48039,24.10349],[120.4796,24.10233],[120.47871,24.10317],[120.47648,24.1023],[120.4747,24.10263],[120.4721,24.105],[120.46939,24.1061],[120.46736,24.106],[120.46688,24.10805],[120.46267,24.10865],[120.46297,24.10937],[120.46461,24.10877],[120.46633,24.10922],[120.46332,24.1156],[120.45685,24.11951],[120.4565,24.12206],[120.45223,24.12655],[120.44395,24.12657],[120.44144,24.12521],[120.4363,24.12408],[120.43327,24.12495],[120.42961,24.12398],[120.39844,24.12367],[120.40114,24.12897],[120.3997,24.13306],[120.40083,24.13692],[120.40264,24.13868],[120.40712,24.13956],[120.40901,24.14266],[120.41024,24.1476],[120.4127,24.15111],[120.41279,24.15223],[120.41173,24.15331],[120.40821,24.1543],[120.40835,24.15571],[120.415,24.15756],[120.41639,24.17048],[120.41833,24.17367],[120.42117,24.17563],[120.42337,24.17613],[120.42474,24.17759],[120.43275,24.16585],[120.44059,24.15699],[120.43966,24.15592],[120.45105,24.14686],[120.45503,24.14573]]]}},{"type":"Feature","properties":{"code":"10007050","name":"彰化縣伸港鄉"},"geometry":{"type":"Polygon","coordinates":[[[120.45656,24.20718],[120.50439,24.19114],[120.50811,24.18716],[120.51971,24.16148],[120.51656,24.16033],[120.51312,24.15706],[120.50931,24.15511],[120.50955,24.15215],[120.50374,24.15169],[120.50155,24.15076],[120.50147,24.14953],[120.50241,24.14856],[120.50628,24.14799],[120.50368,24.13573],[120.5015,24.13212],[120.48648,24.13819],[120.48637,24.14056],[120.4855,24.14173],[120.48394,24.14222],[120.48202,24.1402],[120.47635,24.14145],[120.47476,24.1427],[120.47425,24.14105],[120.46837,24.14272],[120.46865,24.14362],[120.46659,24.14567],[120.46561,24.14819],[120.4591,24.14678],[120.45572,24.14732],[120.45549,24.14562],[120.45154,24.14656],[120.43966,24.15592],[120.44059,24.15699],[120.43275,24.16585],[120.42474,24.17759],[120.42616,24.17969],[120.42439,24.18186],[120.42471,24.1833],[120.42974,24.18451],[120.43271,24.18665],[120.43916,24.18573],[120.44235,24.18849],[120.44396,24.18894],[120.45656,24.20718]]]}},{"type":"Feature","properties":{"code":"10007070","name":"彰化縣秀水鄉"},"geometry":{"type":"Polygon","coordinates":[[[120.49786,24.0778],[120.5036,24.07301],[120.50304,24.07048],[120.50445,24.06829],[120.50662,24.06712],[120.50659,24.06102],[120.50423,24.06102],[120.50388,24.05955],[120.50463,24.05702],[120.50693,24.05459],[120.50557,24.05231],[120.50667,24.05125],[120.51107,24.05496],[120.51482,24.05247],[120.51742,24.05218],[120.5206,24.0444],[120.52064,24.03606],[120.52172,24.03554],[120.52135,24.03367],[120.52387,24.03065],[120.52411,24.02769],[120.52562,24.02592],[120.52602,24.02361],[120.52503,24.02334],[120.52503,24.02075],[120.52627,24.02044],[120.52646,24.01862],[120.5284,24.0191],[120.5292,24.01743],[120.53167,24.01799],[120.53517,24.01177],[120.52878,24.01095],[120.52957,24.00947],[120.52849,24.00656],[120.52551,24.00785],[120.52704,24.00397],[120.52665,24.00107],[120.52382,24.00112],[120.52365,23.99897],[120.52108,23.99882],[120.52134,23.99623],[120.51735,23.99589],[120.51746,23.99533],[120.51641,23.99513],[120.51687,23.99351],[120.51415,23.99278],[120.51297,23.99262],[120.51172,23.99368],[120.51042,23.99291],[120.50909,23.99319],[120.50823,23.99141],[120.50583,23.9908],[120.5011,23.99176],[120.50301,23.99229],[120.50339,23.99328],[120.5016,23.99383],[120.49938,23.99587],[120.49533,24.00144],[120.49448,24.00555],[120.49493,24.00634],[120.49604,24.00565],[120.49357,24.00921],[120.49745,24.01086],[120.49576,24.01226],[120.49407,24.01165],[120.49573,24.01548],[120.4897,24.02052],[120.48225,24.02471],[120.48046,24.02655],[120.48396,24.02789],[120.49003,24.02802],[120.49001,24.02912],[120.49167,24.02896],[120.488,24.03332],[120.48488,24.03516],[120.48546,24.03607],[120.48286,24.04009],[120.4856,24.04119],[120.48504,24.04254],[120.48404,24.0421],[120.4839,24.0439],[120.48919,24.04429],[120.48903,24.04702],[120.48369,24.04672],[120.48356,24.04937],[120.48201,24.04924],[120.48163,24.05409],[120.47973,24.054],[120.47899,24.05494],[120.47848,24.05701],[120.48079,24.05779],[120.48176,24.05738],[120.48172,24.06836],[120.47954,24.07092],[120.47949,24.07225],[120.48243,24.07227],[120.48966,24.07468],[120.49084,24.0743],[120.49277,24.07723],[120.49786,24.0778]]]}},{"type":"Feature","properties":{"code":"10007080","name":"彰化縣花壇鄉"},"geometry":{"type":"Polygon","coordinates":[[[120.57263,24.05603],[120.57385,24.05407],[120.57516,24.0544],[120.57662,24.05344],[120.57814,24.05439],[120.58069,24.05175],[120.58475,24.0514],[120.58538,24.0497],[120.58802,24.04727],[120.58689,24.04603],[120.58704,24.04496],[120.59209,24.04134],[120.59291,24.03747],[120.59196,24.03561],[120.59518,24.03277],[120.59541,24.02454],[120.59723,24.02322],[120.59763,24.02107],[120.59972,24.01837],[120.60073,24.01543],[120.6051,24.00959],[120.60279,24.01044],[120.5972,24.00952],[120.59375,24.01113],[120.59286,24.01009],[120.59014,24.01049],[120.58807,24.00863],[120.58529,24.00944],[120.57872,24.00563],[120.55514,24.002],[120.55213,24.00776],[120.54597,24.00809],[120.54188,24.01183],[120.53741,24.01352],[120.53484,24.01284],[120.53163,24.01802],[120.52929,24.01741],[120.5284,24.0191],[120.52646,24.01862],[120.52627,24.02044],[120.52489,24.02124],[120.52551,24.02156],[120.52503,24.02334],[120.52602,24.02361],[120.52562,24.02592],[120.52411,24.02769],[120.52387,24.03065],[120.52135,24.03367],[120.52172,24.03554],[120.52064,24.03606],[120.5206,24.0444],[120.5174,24.05203],[120.51911,24.05613],[120.52037,24.05439],[120.52265,24.05353],[120.52258,24.05254],[120.52949,24.05193],[120.53323,24.05186],[120.53427,24.05435],[120.54529,24.05392],[120.54873,24.05472],[120.55019,24.054],[120.55215,24.05074],[120.55454,24.051],[120.55629,24.04935],[120.55816,24.04936],[120.56114,24.05146],[120.56324,24.05198],[120.56405,24.05362],[120.56668,24.05513],[120.56931,24.05517],[120.57086,24.05629],[120.57263,24.05603]]]}},{"type":"Feature","properties":{"code":"10007090","name":"彰化縣芬園鄉"},"geometry":{"type":"Polygon","coordinates":[[[120.62579,24.04614],[120.62602,24.04162],[120.62763,24.04039],[120.62811,24.03835],[120.62423,24.03337],[120.62418,24.03161],[120.62532,24.03008],[120.62866,24.02962],[120.63615,24.03105],[120.63754,24.02853],[120.64464,24.02588],[120.64626,24.02702],[120.64461,24.03344],[120.64516,24.0343],[120.6464,24.03402],[120.65175,24.02853],[120.65579,24.03066],[120.66091,24.02589],[120.66349,24.02497],[120.66478,24.02329],[120.67865,24.01403],[120.67599,24.01071],[120.67071,24.01063],[120.67009,24.00996],[120.6737,24.00808],[120.67258,24.00585],[120.66359,24.0081],[120.64942,24.00808],[120.64602,24.00916],[120.64339,24.00831],[120.64247,24.00896],[120.64035,24.00573],[120.63809,24.0074],[120.6382,24.00376],[120.63612,23.99841],[120.63683,23.99451],[120.64533,23.98962],[120.64968,23.9855],[120.6502,23.98398],[120.64632,23.97327],[120.64696,23.97153],[120.64686,23.96339],[120.64443,23.96229],[120.64266,23.95827],[120.63776,23.95349],[120.63541,23.95225],[120.63434,23.954],[120.63113,23.9563],[120.62966,23.95611],[120.62965,23.95776],[120.62856,23.95863],[120.62542,23.95927],[120.62876,23.95968],[120.62681,23.96213],[120.62867,23.96132],[120.62826,23.96272],[120.62456,23.96461],[120.62435,23.96531],[120.62516,23.96528],[120.6233,23.96772],[120.62151,23.96778],[120.62333,23.96828],[120.62311,23.96939],[120.62461,23.96813],[120.62246,23.97189],[120.61983,23.97444],[120.62106,23.97461],[120.61949,23.97612],[120.61969,23.97876],[120.61715,23.98022],[120.61732,23.98168],[120.61599,23.98237],[120.61621,23.98354],[120.61442,23.98427],[120.61295,23.98334],[120.61302,23.98445],[120.61138,23.9858],[120.61108,23.98731],[120.60994,23.98686],[120.61169,23.98376],[120.6094,23.98652],[120.60975,23.98578],[120.6092,23.98564],[120.6077,23.98644],[120.60839,23.98988],[120.61082,23.9906],[120.61036,23.99192],[120.60887,23.99178],[120.60799,23.9937],[120.60995,23.99302],[120.61141,23.99433],[120.61046,23.99566],[120.6101,23.99487],[120.60929,23.99539],[120.60962,23.99685],[120.60863,23.99808],[120.60619,23.99916],[120.60921,23.99857],[120.60928,23.99929],[120.60631,24.00409],[120.60354,24.00628],[120.60406,24.0075],[120.60302,24.00853],[120.60448,24.00865],[120.60497,24.01027],[120.6008,24.01531],[120.59972,24.01837],[120.59763,24.02107],[120.59723,24.02322],[120.59545,24.02446],[120.59518,24.03277],[120.59195,24.03565],[120.59283,24.03779],[120.60609,24.04361],[120.6162,24.04331],[120.62073,24.04586],[120.6258,24.04672],[120.62579,24.04614]]]}},{"type":"Feature","properties":{"code":"10007110","name":"彰化縣溪湖鎮"},"geometry":{"type":"Polygon","coordinates":[[[120.47298,23.98358],[120.4761,23.98114],[120.47813,23.97777],[120.47851,23.98022],[120.47855,23.97945],[120.47926,23.97946],[120.47929,23.97759],[120.48315,23.97756],[120.48505,23.97457],[120.48501,23.97325],[120.49712,23.97238],[120.49697,23.97419],[120.49986,23.97447],[120.5003,23.97339],[120.50445,23.97339],[120.50473,23.97437],[120.50585,23.97442],[120.50815,23.97677],[120.51023,23.97749],[120.51249,23.97752],[120.5147,23.97585],[120.51401,23.97482],[120.5125,23.97505],[120.51102,23.97379],[120.51052,23.96941],[120.51532,23.96531],[120.5157,23.95801],[120.51478,23.956],[120.51356,23.95615],[120.51234,23.95395],[120.512,23.95055],[120.51305,23.9487],[120.51317,23.94499],[120.50842,23.93772],[120.50815,23.93497],[120.50712,23.9351],[120.50295,23.93218],[120.50165,23.93242],[120.501,23.92885],[120.49898,23.92997],[120.49579,23.92942],[120.49505,23.92694],[120.49395,23.92704],[120.49455,23.92512],[120.49375,23.92502],[120.49386,23.92383],[120.49074,23.92381],[120.49026,23.9205],[120.48479,23.9203],[120.48394,23.91956],[120.48223,23.92066],[120.47703,23.92112],[120.4756,23.92215],[120.47432,23.9218],[120.46703,23.93163],[120.46057,23.93542],[120.45559,23.94005],[120.45148,23.9497],[120.4459,23.95884],[120.44835,23.96035],[120.44748,23.96599],[120.45139,23.96511],[120.45371,23.96199],[120.45583,23.96119],[120.4623,23.96478],[120.46546,23.9683],[120.46622,23.98139],[120.46884,23.98359],[120.47298,23.98358]]]}},{"type":"Feature","properties":{"code":"10007130","name":"彰化縣大村鄉"},"geometry":{"type":"Polygon","coordinates":[[[120.53741,24.01352],[120.54188,24.01183],[120.54597,24.00809],[120.55213,24.00776],[120.55514,24.002],[120.57872,24.00563],[120.58529,24.00944],[120.58807,24.00863],[120.59014,24.01049],[120.59286,24.01009],[120.59375,24.01113],[120.599,24.00936],[120.60431,24.01024],[120.60496,24.00921],[120.60295,24.0083],[120.60404,24.00757],[120.6035,24.00639],[120.60631,24.00409],[120.60928,23.99929],[120.60921,23.99857],[120.60614,23.99929],[120.60863,23.99808],[120.60962,23.99685],[120.60929,23.99539],[120.6101,23.99487],[120.61046,23.99566],[120.61141,23.99433],[120.60995,23.99302],[120.60799,23.9937],[120.60887,23.99178],[120.61036,23.99192],[120.61082,23.9906],[120.60477,23.99009],[120.60155,23.98678],[120.59338,23.98287],[120.58953,23.97981],[120.58789,23.98058],[120.57592,23.97862],[120.57816,23.97551],[120.57593,23.97567],[120.57123,23.97383],[120.56924,23.97431],[120.56784,23.97306],[120.56257,23.97249],[120.5626,23.98022],[120.5559,23.97931],[120.55378,23.9781],[120.5505,23.97762],[120.54892,23.97645],[120.54943,23.97475],[120.5447,23.97631],[120.54149,23.97136],[120.53996,23.97096],[120.53665,23.97197],[120.53443,23.97385],[120.53318,23.97726],[120.53185,23.97818],[120.53028,23.97741],[120.52651,23.97796],[120.52185,23.97718],[120.51973,23.97822],[120.51435,23.97793],[120.51399,23.97906],[120.50811,23.98327],[120.50557,23.98684],[120.50531,23.98741],[120.50674,23.98788],[120.50736,23.98906],[120.50568,23.99079],[120.50823,23.99141],[120.50909,23.99319],[120.51042,23.99291],[120.51172,23.99368],[120.51297,23.99262],[120.51415,23.99278],[120.51687,23.99351],[120.51641,23.99513],[120.51746,23.99533],[120.51735,23.99589],[120.52134,23.99623],[120.52108,23.99882],[120.52365,23.99897],[120.52382,24.00112],[120.52665,24.00107],[120.52704,24.00397],[120.52551,24.00785],[120.52849,24.00656],[120.52957,24.00947],[120.52878,24.01095],[120.5351,24.01164],[120.5346,24.01269],[120.53741,24.01352]]]}},{"type":"Feature","properties":{"code":"10007140","name":"彰化縣埔鹽鄉"},"geometry":{"type":"Polygon","coordinates":[[[120.4443,24.0239],[120.44715,24.02368],[120.44969,24.0209],[120.45189,24.02115],[120.45198,24.01902],[120.45607,24.01655],[120.45914,24.01646],[120.45954,24.01441],[120.46198,24.01275],[120.47235,24.01306],[120.47572,24.01195],[120.48002,24.01229],[120.48247,24.01095],[120.48614,24.01105],[120.4919,24.00943],[120.49459,24.00587],[120.49459,24.00354],[120.49671,23.99928],[120.5016,23.99383],[120.50339,23.99328],[120.50301,23.99229],[120.5011,23.99176],[120.50487,23.99119],[120.50733,23.98934],[120.50693,23.98805],[120.50528,23.9873],[120.50954,23.98138],[120.51197,23.9798],[120.51224,23.97755],[120.50836,23.9769],[120.50585,23.97442],[120.50473,23.97437],[120.50445,23.97339],[120.5003,23.97339],[120.49986,23.97447],[120.49697,23.97419],[120.49712,23.97238],[120.48586,23.9731],[120.48501,23.97325],[120.48505,23.97457],[120.48315,23.97756],[120.47929,23.97759],[120.47926,23.97946],[120.47855,23.97945],[120.47851,23.98022],[120.47813,23.97777],[120.4761,23.98114],[120.47319,23.98346],[120.46884,23.98359],[120.46687,23.98238],[120.46579,23.98033],[120.46588,23.9727],[120.46495,23.96751],[120.4623,23.96478],[120.45585,23.96119],[120.45371,23.96199],[120.45139,23.96511],[120.44748,23.96599],[120.44835,23.96035],[120.4459,23.95884],[120.44063,23.96721],[120.43815,23.96865],[120.42957,23.97101],[120.42915,23.97269],[120.42434,23.97649],[120.42332,23.97816],[120.42414,23.97982],[120.4222,23.98117],[120.42177,23.98342],[120.41757,23.98824],[120.4118,23.99782],[120.41793,23.99692],[120.42494,23.99367],[120.42546,23.99856],[120.42354,23.99872],[120.42385,24.00053],[120.42582,24.00033],[120.42638,24.00501],[120.42903,24.00479],[120.42992,24.00872],[120.42696,24.01111],[120.42779,24.01366],[120.4351,24.01929],[120.43545,24.02287],[120.44178,24.02401],[120.4423,24.02657],[120.4443,24.0239]]]}},{"type":"Feature","properties":{"code":"10007150","name":"彰化縣埔心鄉"},"geometry":{"type":"Polygon","coordinates":[[[120.51349,23.97918],[120.51448,23.97789],[120.51973,23.97822],[120.52185,23.97718],[120.52651,23.97796],[120.53028,23.97741],[120.53185,23.97818],[120.53318,23.97726],[120.53443,23.97385],[120.53665,23.97197],[120.53971,23.97098],[120.54149,23.97136],[120.5447,23.97631],[120.54718,23.9755],[120.5466,23.97193],[120.54525,23.97117],[120.54401,23.96841],[120.54498,23.96515],[120.54761,23.96283],[120.55078,23.9622],[120.55787,23.95862],[120.56162,23.95894],[120.56331,23.95724],[120.56348,23.95235],[120.56586,23.95062],[120.56306,23.94576],[120.56206,23.94627],[120.56079,23.94524],[120.56151,23.93798],[120.55793,23.93777],[120.55588,23.93676],[120.55182,23.93296],[120.54432,23.93338],[120.54305,23.9343],[120.54388,23.93172],[120.53717,23.92943],[120.53545,23.92986],[120.53412,23.93162],[120.53236,23.93656],[120.5282,23.93763],[120.52087,23.93624],[120.5188,23.93764],[120.51734,23.93648],[120.51627,23.93532],[120.51919,23.93153],[120.51939,23.9294],[120.51623,23.9315],[120.51164,23.92964],[120.51032,23.93091],[120.50756,23.9317],[120.50877,23.93367],[120.50794,23.9357],[120.50828,23.93743],[120.51317,23.94499],[120.51305,23.9487],[120.512,23.95055],[120.51234,23.95395],[120.51356,23.95615],[120.51478,23.956],[120.51576,23.9583],[120.51529,23.96541],[120.51052,23.96909],[120.51102,23.97379],[120.5125,23.97505],[120.51401,23.97482],[120.5147,23.97585],[120.51224,23.97755],[120.51197,23.9798],[120.5088,23.98258],[120.51349,23.97918]]]}},{"type":"Feature","properties":{"code":"10007160","name":"彰化縣永靖鄉"},"geometry":{"type":"Polygon","coordinates":[[[120.56381,23.93752],[120.5642,23.93644],[120.5654,23.93661],[120.56571,23.93517],[120.56731,23.93515],[120.5674,23.93443],[120.57538,23.93329],[120.57382,23.92903],[120.57121,23.92707],[120.57637,23.92324],[120.57517,23.92212],[120.57718,23.91678],[120.57709,23.91458],[120.57068,23.91431],[120.56621,23.91196],[120.56906,23.90487],[120.55677,23.90202],[120.55727,23.8984],[120.55636,23.89832],[120.55499,23.90561],[120.55393,23.90551],[120.55312,23.90745],[120.54888,23.90647],[120.5462,23.90702],[120.54712,23.90176],[120.54019,23.90082],[120.53793,23.90182],[120.53874,23.90743],[120.5362,23.90818],[120.53184,23.91212],[120.52452,23.91442],[120.524,23.91341],[120.51937,23.91399],[120.5155,23.91335],[120.51297,23.91518],[120.51099,23.91557],[120.51138,23.91736],[120.50486,23.91956],[120.50263,23.92152],[120.50184,23.92345],[120.50069,23.92337],[120.49719,23.92539],[120.49455,23.92512],[120.49393,23.92693],[120.49505,23.92694],[120.49591,23.92948],[120.49898,23.92997],[120.501,23.92885],[120.50165,23.93242],[120.50295,23.93218],[120.50724,23.93516],[120.50824,23.93489],[120.50877,23.93367],[120.5073,23.93196],[120.51032,23.93091],[120.51112,23.92981],[120.51623,23.9315],[120.51939,23.9294],[120.51919,23.93153],[120.51627,23.93532],[120.5188,23.93764],[120.52087,23.93624],[120.52796,23.93763],[120.53236,23.93656],[120.53412,23.93162],[120.53545,23.92986],[120.53717,23.92943],[120.54388,23.93172],[120.54305,23.9343],[120.54432,23.93338],[120.55182,23.93296],[120.55482,23.93611],[120.55783,23.93774],[120.56349,23.93846],[120.56381,23.93752]]]}},{"type":"Feature","properties":{"code":"10007180","name":"彰化縣二水鄉"},"geometry":{"type":"Polygon","coordinates":[[[120.62641,23.84089],[120.62805,23.8385],[120.62906,23.83868],[120.62823,23.83785],[120.62556,23.83765],[120.62492,23.83659],[120.62998,23.83735],[120.62827,23.83582],[120.63106,23.83564],[120.62911,23.8344],[120.63365,23.83409],[120.62813,23.83197],[120.62424,23.83175],[120.62296,23.83036],[120.62374,23.82935],[120.63051,23.83243],[120.63042,23.83119],[120.63339,23.83296],[120.63705,23.83279],[120.63845,23.83141],[120.63435,23.83111],[120.6372,23.83056],[120.63678,23.83],[120.63819,23.82892],[120.63677,23.82804],[120.63602,23.82848],[120.63604,23.82792],[120.63945,23.82742],[120.63773,23.82638],[120.63991,23.82575],[120.64001,23.82511],[120.63386,23.82584],[120.63919,23.82456],[120.63782,23.8237],[120.63874,23.82263],[120.63776,23.82178],[120.6396,23.82208],[120.64048,23.8214],[120.63993,23.82033],[120.64459,23.81755],[120.64798,23.81664],[120.65112,23.81246],[120.65561,23.81281],[120.65865,23.81453],[120.66245,23.81537],[120.66505,23.81504],[120.66473,23.81631],[120.66759,23.8166],[120.67189,23.81941],[120.6744,23.82006],[120.67622,23.81936],[120.67877,23.81655],[120.67798,23.81408],[120.67898,23.80594],[120.68246,23.80608],[120.68341,23.80542],[120.6839,23.80135],[120.67861,23.80121],[120.67453,23.79951],[120.66417,23.79229],[120.65814,23.79104],[120.64181,23.78561],[120.63502,23.78677],[120.63313,23.78889],[120.63024,23.78979],[120.61509,23.79136],[120.59278,23.79103],[120.58696,23.79191],[120.58364,23.79327],[120.58363,23.79824],[120.58186,23.80264],[120.58314,23.80523],[120.58704,23.80813],[120.58991,23.81178],[120.59207,23.81154],[120.5922,23.81235],[120.59485,23.81254],[120.59567,23.81377],[120.59864,23.81509],[120.6028,23.8199],[120.6038,23.81878],[120.60434,23.81943],[120.60191,23.82327],[120.60149,23.82583],[120.60028,23.82588],[120.60008,23.83002],[120.59799,23.83123],[120.5983,23.83491],[120.59529,23.83921],[120.59692,23.83768],[120.59848,23.83804],[120.60111,23.83706],[120.60284,23.83852],[120.60554,23.83485],[120.6105,23.83858],[120.61556,23.84061],[120.61677,23.84014],[120.61634,23.83942],[120.61744,23.83876],[120.61718,23.83762],[120.6186,23.83947],[120.61845,23.84038],[120.62098,23.84171],[120.62214,23.84085],[120.62094,23.84021],[120.62094,23.83936],[120.62301,23.83997],[120.6221,23.83867],[120.62603,23.84191],[120.62641,23.84089]]]}},{"type":"Feature","properties":{"code":"10007200","name":"彰化縣二林鎮"},"geometry":{"type":"Polygon","coordinates":[[[120.40925,23.99876],[120.41342,23.99536],[120.41757,23.98824],[120.42177,23.98342],[120.4222,23.98117],[120.42422,23.97968],[120.42355,23.97744],[120.42915,23.97269],[120.42932,23.97121],[120.43815,23.96865],[120.4419,23.96585],[120.45121,23.95021],[120.45559,23.94005],[120.46057,23.93542],[120.46551,23.93298],[120.46671,23.93145],[120.45976,23.92728],[120.45901,23.92915],[120.454,23.93019],[120.44585,23.93035],[120.44553,23.91889],[120.44655,23.91875],[120.44749,23.91565],[120.44576,23.90926],[120.44737,23.909],[120.44695,23.90822],[120.44373,23.90811],[120.44389,23.901],[120.44168,23.9006],[120.4411,23.89466],[120.44347,23.89432],[120.44445,23.89241],[120.44687,23.89169],[120.4459,23.88933],[120.44806,23.88594],[120.44499,23.88506],[120.44613,23.88422],[120.44705,23.8801],[120.44805,23.87916],[120.44757,23.876],[120.44666,23.87512],[120.44512,23.87581],[120.44346,23.87453],[120.43802,23.87619],[120.43544,23.87606],[120.42991,23.88029],[120.42895,23.87887],[120.42822,23.87928],[120.42582,23.87828],[120.42094,23.88578],[120.41302,23.88611],[120.41245,23.89038],[120.41124,23.89148],[120.4076,23.88684],[120.40411,23.88678],[120.40129,23.88505],[120.40305,23.8804],[120.40261,23.8773],[120.40056,23.87743],[120.40029,23.87573],[120.40352,23.87485],[120.40372,23.87366],[120.4028,23.87004],[120.3997,23.86966],[120.39975,23.86406],[120.38945,23.86394],[120.38848,23.86282],[120.38417,23.86346],[120.38348,23.86212],[120.37858,23.86347],[120.37811,23.86259],[120.37128,23.86331],[120.36833,23.85372],[120.36722,23.85518],[120.36552,23.8532],[120.36383,23.85516],[120.36082,23.85663],[120.35807,23.8548],[120.35643,23.85489],[120.35516,23.85613],[120.3559,23.85779],[120.35485,23.8595],[120.353,23.85868],[120.35181,23.85964],[120.34916,23.85866],[120.34946,23.86058],[120.34851,23.86074],[120.35042,23.86623],[120.34632,23.86743],[120.34665,23.86834],[120.34152,23.86988],[120.34538,23.88364],[120.34599,23.88357],[120.35001,23.89223],[120.34905,23.89296],[120.3496,23.89708],[120.35448,23.89554],[120.35326,23.89996],[120.35375,23.90119],[120.36194,23.90039],[120.36046,23.90615],[120.36308,23.90728],[120.36142,23.90964],[120.36105,23.9144],[120.36355,23.91379],[120.36415,23.91448],[120.36539,23.91835],[120.36371,23.91925],[120.36451,23.92148],[120.36624,23.92051],[120.36864,23.92272],[120.37566,23.92301],[120.37684,23.9246],[120.38143,23.92564],[120.38307,23.93196],[120.38166,23.93892],[120.38191,23.94721],[120.38044,23.94758],[120.38051,23.94847],[120.38306,23.94761],[120.38305,23.9485],[120.38422,23.94833],[120.3842,23.94749],[120.38545,23.9472],[120.38581,23.94534],[120.38683,23.9453],[120.39151,23.9531],[120.3967,23.95087],[120.39697,23.9528],[120.39803,23.95273],[120.39841,23.95769],[120.40186,23.95788],[120.40004,23.96001],[120.39966,23.96356],[120.40199,23.96712],[120.40274,23.971],[120.40148,23.97348],[120.40273,23.97854],[120.40186,23.98322],[120.40329,23.98624],[120.40752,23.98925],[120.40569,23.99144],[120.40925,23.99876]]]}},{"type":"Feature","properties":{"code":"10007220","name":"彰化縣埤頭鄉"},"geometry":{"type":"Polygon","coordinates":[[[120.47006,23.92748],[120.47515,23.92116],[120.47555,23.91879],[120.47393,23.91321],[120.48195,23.90416],[120.49005,23.8998],[120.4903,23.89825],[120.49729,23.89708],[120.49989,23.89519],[120.50045,23.89311],[120.49912,23.88989],[120.49969,23.88248],[120.50175,23.88011],[120.50251,23.87528],[120.50732,23.87108],[120.50731,23.87019],[120.50054,23.86729],[120.49419,23.86636],[120.48606,23.86775],[120.48571,23.85944],[120.48651,23.85785],[120.48618,23.8564],[120.48804,23.85412],[120.48243,23.85032],[120.48058,23.85127],[120.4806,23.85582],[120.48211,23.85842],[120.47523,23.85753],[120.47561,23.84777],[120.47109,23.84196],[120.46882,23.83409],[120.46951,23.83265],[120.46759,23.83054],[120.46771,23.82897],[120.46422,23.82537],[120.45781,23.83824],[120.4551,23.83873],[120.44456,23.85037],[120.44368,23.85527],[120.44738,23.85592],[120.44611,23.86094],[120.44476,23.86242],[120.44474,23.86472],[120.44213,23.86891],[120.44245,23.87102],[120.44354,23.87196],[120.44211,23.87459],[120.44346,23.87453],[120.44522,23.87583],[120.44732,23.87543],[120.44805,23.87916],[120.44705,23.8801],[120.44613,23.88422],[120.44499,23.88506],[120.44807,23.88621],[120.4459,23.88933],[120.44685,23.89172],[120.44445,23.89241],[120.44347,23.89432],[120.4411,23.89466],[120.44129,23.89856],[120.44168,23.9006],[120.44389,23.901],[120.44373,23.90811],[120.44695,23.90822],[120.44737,23.909],[120.44576,23.90926],[120.44749,23.91565],[120.44655,23.91875],[120.44553,23.91889],[120.44585,23.93035],[120.454,23.93019],[120.45901,23.92915],[120.45976,23.92728],[120.46703,23.93163],[120.47006,23.92748]]]}},{"type":"Feature","properties":{"code":"10007230","name":"彰化縣芳苑鄉"},"geometry":{"type":"Polygon","coordinates":[[[120.37939,24.0277],[120.38152,24.02658],[120.3856,24.01988],[120.38561,24.01705],[120.38761,24.01596],[120.38819,24.01106],[120.3906,24.01033],[120.3901,24.00725],[120.39825,24.00309],[120.40398,24.00295],[120.40512,24.00228],[120.406,23.99979],[120.40883,23.99869],[120.40569,23.99144],[120.40752,23.98925],[120.40329,23.98624],[120.40186,23.98322],[120.40273,23.97854],[120.40148,23.97348],[120.40274,23.971],[120.40199,23.96712],[120.39966,23.96356],[120.40004,23.96001],[120.40186,23.95788],[120.39841,23.95769],[120.39803,23.95273],[120.39697,23.9528],[120.3967,23.95087],[120.39151,23.9531],[120.38683,23.9453],[120.38581,23.94534],[120.38545,23.9472],[120.3842,23.94749],[120.38422,23.94833],[120.38305,23.9485],[120.38306,23.94761],[120.38051,23.94847],[120.38044,23.94758],[120.38191,23.94721],[120.38166,23.93892],[120.38307,23.93196],[120.38143,23.92564],[120.37684,23.9246],[120.37566,23.92301],[120.36864,23.92272],[120.36624,23.92051],[120.36451,23.92148],[120.36371,23.91925],[120.36539,23.91835],[120.36415,23.91448],[120.36355,23.91379],[120.36105,23.9144],[120.36142,23.90964],[120.36308,23.90728],[120.36046,23.90615],[120.36199,23.90049],[120.35375,23.90119],[120.35326,23.89996],[120.35448,23.89554],[120.3496,23.89708],[120.34905,23.89296],[120.35001,23.89223],[120.34599,23.88357],[120.34538,23.88364],[120.34359,23.87767],[120.33945,23.87866],[120.33919,23.87771],[120.33425,23.87844],[120.33087,23.87964],[120.32816,23.87823],[120.32637,23.87887],[120.3251,23.87784],[120.32386,23.87815],[120.32425,23.87927],[120.32307,23.87911],[120.32326,23.87966],[120.32225,23.87997],[120.32261,23.88097],[120.32169,23.88123],[120.32214,23.88249],[120.32118,23.88279],[120.32194,23.88491],[120.32072,23.88454],[120.32221,23.88872],[120.32385,23.88824],[120.32413,23.88906],[120.31841,23.89086],[120.31898,23.89348],[120.31219,23.8946],[120.31045,23.88872],[120.30735,23.89014],[120.30703,23.8893],[120.30611,23.88957],[120.30662,23.89316],[120.29974,23.89529],[120.29957,23.89474],[120.29743,23.89529],[120.28659,23.90068],[120.27249,23.90946],[120.26065,23.91835],[120.26105,23.91973],[120.26518,23.92374],[120.26914,23.93059],[120.27881,23.93359],[120.28162,23.94345],[120.28033,23.9484],[120.28283,23.95451],[120.28615,23.95711],[120.29026,23.95822],[120.29463,23.96321],[120.30771,23.97314],[120.30838,23.97526],[120.30874,23.9871],[120.31187,23.98977],[120.31646,23.99923],[120.32002,24.00334],[120.32994,24.01147],[120.33414,24.01394],[120.33529,24.01574],[120.3378,24.03129],[120.34092,24.03642],[120.34185,24.04789],[120.3741,24.03769],[120.37758,24.02979],[120.37939,24.0277]]]}},{"type":"Feature","properties":{"code":"10007240","name":"彰化縣大城鄉"},"geometry":{"type":"Polygon","coordinates":[[[120.29743,23.89539],[120.30662,23.89316],[120.30611,23.88957],[120.30703,23.8893],[120.30735,23.89014],[120.31043,23.88871],[120.31219,23.8946],[120.31898,23.89348],[120.31841,23.89086],[120.32413,23.88906],[120.32385,23.88824],[120.32221,23.88872],[120.32072,23.88454],[120.32194,23.88491],[120.32118,23.88279],[120.32214,23.88249],[120.32169,23.88123],[120.32261,23.88097],[120.32225,23.87997],[120.32326,23.87966],[120.32307,23.87911],[120.32425,23.87927],[120.32386,23.87815],[120.3251,23.87784],[120.32637,23.87887],[120.32816,23.87823],[120.33087,23.87964],[120.33425,23.87844],[120.33919,23.87771],[120.33945,23.87866],[120.34359,23.87767],[120.34152,23.86988],[120.34665,23.86834],[120.34632,23.86743],[120.35042,23.86623],[120.34851,23.86074],[120.34946,23.86058],[120.34925,23.85855],[120.35181,23.85964],[120.353,23.85868],[120.35485,23.8595],[120.3559,23.85779],[120.35516,23.85613],[120.35643,23.85489],[120.35807,23.8548],[120.36045,23.85663],[120.36294,23.85575],[120.3663,23.85213],[120.36565,23.84714],[120.37002,23.84459],[120.37774,23.84465],[120.3777,23.8422],[120.37071,23.84002],[120.37517,23.82861],[120.37032,23.82856],[120.35814,23.82281],[120.33314,23.82229],[120.3164,23.82006],[120.30813,23.8203],[120.25606,23.83382],[120.24919,23.8375],[120.24032,23.84416],[120.22995,23.85442],[120.22036,23.86622],[120.2243,23.8703],[120.2262,23.87414],[120.22615,23.87688],[120.23533,23.88526],[120.23955,23.88769],[120.24715,23.88844],[120.25523,23.89419],[120.25774,23.89933],[120.25562,23.90337],[120.25624,23.90789],[120.26089,23.91504],[120.26065,23.91835],[120.27907,23.90512],[120.29743,23.89539]]]}},{"type":"Feature","properties":{"code":"10007250","name":"彰化縣竹塘鄉"},"geometry":{"type":"Polygon","coordinates":[[[120.41299,23.88676],[120.41302,23.88611],[120.42094,23.88578],[120.42582,23.87828],[120.42822,23.87928],[120.42895,23.87887],[120.42991,23.88029],[120.43544,23.87606],[120.43802,23.87619],[120.44211,23.87459],[120.443,23.87344],[120.44354,23.87183],[120.44245,23.87102],[120.4421,23.86903],[120.44474,23.86472],[120.44476,23.86242],[120.44611,23.86094],[120.44738,23.85592],[120.44368,23.85527],[120.44456,23.85037],[120.4551,23.83873],[120.45781,23.83824],[120.45884,23.83511],[120.4548,23.83092],[120.45534,23.81666],[120.45197,23.81728],[120.44336,23.82266],[120.43953,23.82687],[120.43311,23.83015],[120.42526,23.83025],[120.41791,23.82687],[120.41034,23.82638],[120.37517,23.82861],[120.37071,23.84002],[120.3777,23.8422],[120.37774,23.84465],[120.37002,23.84459],[120.36562,23.84719],[120.3664,23.85174],[120.36552,23.8532],[120.36722,23.85518],[120.36842,23.85386],[120.37118,23.86319],[120.37811,23.86259],[120.37858,23.86347],[120.38348,23.86212],[120.38417,23.86346],[120.38848,23.86282],[120.38945,23.86394],[120.39975,23.86406],[120.3997,23.86966],[120.4028,23.87004],[120.40372,23.87366],[120.40352,23.87485],[120.40029,23.87573],[120.40056,23.87743],[120.40261,23.8773],[120.40305,23.8804],[120.40129,23.88505],[120.40411,23.88678],[120.4076,23.88684],[120.41124,23.89148],[120.41245,23.89038],[120.41299,23.88676]]]}},{"type":"Feature","properties":{"code":"10007260","name":"彰化縣溪州鄉"},"geometry":{"type":"Polygon","coordinates":[[[120.50826,23.87077],[120.51393,23.87013],[120.51049,23.86593],[120.51251,23.86376],[120.51632,23.86457],[120.51861,23.86414],[120.52335,23.85813],[120.52184,23.85445],[120.52693,23.84974],[120.53223,23.84311],[120.53546,23.84155],[120.53112,23.85248],[120.53877,23.85209],[120.54215,23.8509],[120.54363,23.84845],[120.54804,23.84608],[120.55572,23.84418],[120.55985,23.84096],[120.56277,23.84327],[120.57224,23.83302],[120.57264,23.83509],[120.58072,23.82614],[120.58314,23.82808],[120.59172,23.82019],[120.59596,23.81928],[120.60183,23.82058],[120.6028,23.8199],[120.5981,23.81467],[120.59573,23.81381],[120.5948,23.81252],[120.5922,23.81235],[120.59216,23.81156],[120.58994,23.8118],[120.58704,23.80813],[120.58305,23.80511],[120.58186,23.80264],[120.58363,23.79824],[120.58364,23.79327],[120.57386,23.79626],[120.56029,23.79815],[120.55801,23.79949],[120.55122,23.80113],[120.53518,23.80127],[120.52793,23.79906],[120.50957,23.80027],[120.49841,23.80361],[120.48317,23.80657],[120.45534,23.81666],[120.45483,23.83107],[120.45884,23.83511],[120.46422,23.82537],[120.46625,23.82704],[120.46772,23.82899],[120.46759,23.83054],[120.46946,23.83249],[120.46882,23.83409],[120.47109,23.84196],[120.47561,23.84777],[120.47523,23.85753],[120.48211,23.85842],[120.4806,23.85582],[120.48058,23.85127],[120.48243,23.85032],[120.48804,23.85412],[120.48618,23.8564],[120.48651,23.85785],[120.48571,23.85944],[120.48606,23.86775],[120.49419,23.86636],[120.50074,23.86735],[120.50384,23.86923],[120.50505,23.86884],[120.50727,23.87001],[120.50732,23.87108],[120.50826,23.87077]]]}},{"type":"Feature","properties":{"code":"10007020","name":"彰化縣鹿港鎮"},"geometry":{"type":"Polygon","coordinates":[[[120.44634,24.1265],[120.45272,24.12631],[120.45663,24.12186],[120.45685,24.11951],[120.46332,24.1156],[120.46633,24.10922],[120.46461,24.10877],[120.46297,24.10937],[120.46267,24.10865],[120.46677,24.1081],[120.46744,24.10595],[120.46939,24.1061],[120.4721,24.105],[120.47386,24.10296],[120.47741,24.10246],[120.47862,24.09983],[120.4806,24.09874],[120.48445,24.09897],[120.48486,24.09765],[120.48604,24.09765],[120.48655,24.09484],[120.48861,24.09422],[120.48785,24.09341],[120.48859,24.09083],[120.4912,24.08971],[120.49104,24.08856],[120.48963,24.08757],[120.48845,24.08204],[120.49016,24.07896],[120.49274,24.07741],[120.49089,24.07433],[120.48955,24.07466],[120.48243,24.07227],[120.47949,24.07225],[120.47954,24.07092],[120.48172,24.06836],[120.48176,24.05738],[120.48079,24.05779],[120.47848,24.05701],[120.4803,24.05332],[120.47892,24.04653],[120.47191,24.04824],[120.46821,24.05008],[120.46716,24.05183],[120.46507,24.05135],[120.46311,24.05227],[120.45262,24.05234],[120.44781,24.05367],[120.44156,24.054],[120.4407,24.05301],[120.43853,24.0537],[120.43968,24.04907],[120.4414,24.04859],[120.43996,24.04602],[120.44344,24.04448],[120.44497,24.0423],[120.44504,24.04026],[120.44353,24.04035],[120.44235,24.04226],[120.44055,24.04286],[120.43928,24.04513],[120.43358,24.04825],[120.42842,24.05615],[120.42431,24.05544],[120.42087,24.05328],[120.41891,24.05478],[120.41893,24.05661],[120.4171,24.05665],[120.41056,24.05992],[120.40469,24.05756],[120.37447,24.05723],[120.34244,24.05381],[120.34122,24.05744],[120.33957,24.05937],[120.34209,24.06013],[120.34526,24.06678],[120.34777,24.06962],[120.35131,24.07187],[120.35919,24.07428],[120.36117,24.07629],[120.36337,24.08085],[120.37545,24.08302],[120.38417,24.08767],[120.38635,24.09704],[120.38183,24.09686],[120.38002,24.09449],[120.38026,24.09271],[120.37955,24.09429],[120.38828,24.10601],[120.3879,24.10645],[120.38843,24.10619],[120.38941,24.10752],[120.38899,24.10794],[120.38954,24.10768],[120.39015,24.10935],[120.39683,24.11749],[120.39844,24.12367],[120.42961,24.12398],[120.43327,24.12495],[120.4363,24.12408],[120.44144,24.12521],[120.44365,24.1265],[120.44634,24.1265]]]}},{"type":"Feature","properties":{"code":"10007060","name":"彰化縣福興鄉"},"geometry":{"type":"Polygon","coordinates":[[[120.41501,24.05783],[120.4171,24.05665],[120.41893,24.05661],[120.41891,24.05478],[120.42087,24.05328],[120.42431,24.05544],[120.42842,24.05615],[120.43364,24.04819],[120.43928,24.04513],[120.44066,24.04274],[120.44235,24.04226],[120.4434,24.04039],[120.44494,24.04017],[120.44497,24.0423],[120.44344,24.04448],[120.43996,24.04602],[120.4414,24.04859],[120.43968,24.04907],[120.43853,24.0537],[120.4407,24.05301],[120.44156,24.054],[120.44781,24.05367],[120.45262,24.05234],[120.46311,24.05227],[120.46507,24.05135],[120.46716,24.05183],[120.46821,24.05008],[120.47191,24.04824],[120.47884,24.04652],[120.47976,24.04837],[120.4803,24.05332],[120.47973,24.054],[120.48163,24.05409],[120.48201,24.04924],[120.48356,24.04937],[120.48369,24.04672],[120.48903,24.04702],[120.48919,24.04429],[120.4839,24.0439],[120.48404,24.0421],[120.48504,24.04254],[120.4856,24.04119],[120.48285,24.04014],[120.48546,24.03607],[120.48488,24.03516],[120.488,24.03332],[120.49167,24.02896],[120.49001,24.02912],[120.49003,24.02802],[120.48396,24.02789],[120.48047,24.02648],[120.48225,24.02471],[120.4897,24.02052],[120.49573,24.01548],[120.49407,24.01165],[120.49576,24.01226],[120.49745,24.01086],[120.49357,24.00914],[120.49602,24.00546],[120.49493,24.00634],[120.49459,24.00587],[120.49175,24.00952],[120.48635,24.01101],[120.48247,24.01095],[120.48002,24.01229],[120.47483,24.01206],[120.47253,24.01305],[120.46182,24.01281],[120.45951,24.01445],[120.45914,24.01646],[120.45625,24.01649],[120.4544,24.01742],[120.45198,24.01902],[120.45189,24.02115],[120.44913,24.02119],[120.44689,24.02381],[120.44481,24.02338],[120.4423,24.02657],[120.44178,24.02401],[120.43545,24.02287],[120.4351,24.01929],[120.42769,24.01348],[120.42696,24.01111],[120.42992,24.00872],[120.42903,24.00479],[120.42638,24.00501],[120.42582,24.00033],[120.42385,24.00053],[120.42354,23.99872],[120.42546,23.99856],[120.42494,23.99367],[120.41729,23.99707],[120.41197,23.99797],[120.41257,23.9964],[120.41022,23.99836],[120.406,23.99979],[120.40512,24.00228],[120.40398,24.00295],[120.39825,24.00309],[120.3901,24.00725],[120.3906,24.01033],[120.38819,24.01106],[120.38761,24.01596],[120.38561,24.01705],[120.3856,24.01988],[120.38152,24.02658],[120.37894,24.02789],[120.37758,24.02979],[120.3741,24.03769],[120.34185,24.04789],[120.34244,24.05381],[120.37447,24.05723],[120.40469,24.05756],[120.41047,24.05992],[120.41501,24.05783]]]}},{"type":"Feature","properties":{"code":"10007190","name":"彰化縣北斗鎮"},"geometry":{"type":"Polygon","coordinates":[[[120.50163,23.89393],[120.50893,23.89315],[120.51527,23.89036],[120.51813,23.88826],[120.51988,23.88801],[120.52107,23.88434],[120.52521,23.88254],[120.53726,23.8852],[120.54107,23.88468],[120.54469,23.88286],[120.54669,23.87916],[120.54818,23.87068],[120.55499,23.86993],[120.55475,23.86491],[120.5618,23.86045],[120.56307,23.85789],[120.57169,23.85146],[120.57318,23.85176],[120.56844,23.84647],[120.55837,23.84885],[120.56277,23.84327],[120.55985,23.84096],[120.55572,23.84418],[120.54811,23.84605],[120.54382,23.84833],[120.54204,23.85096],[120.53855,23.85215],[120.53112,23.85248],[120.53546,23.84155],[120.53223,23.84311],[120.52693,23.84974],[120.52184,23.85445],[120.52335,23.85813],[120.51861,23.86414],[120.51632,23.86457],[120.51251,23.86376],[120.51049,23.86593],[120.51393,23.87013],[120.50761,23.87093],[120.50251,23.87528],[120.50175,23.88011],[120.49969,23.88248],[120.49913,23.88949],[120.50045,23.89311],[120.50001,23.89494],[120.50163,23.89393]]]}},{"type":"Feature","properties":{"code":"10007210","name":"彰化縣田尾鄉"},"geometry":{"type":"Polygon","coordinates":[[[120.49825,23.92508],[120.50069,23.92337],[120.50184,23.92345],[120.50263,23.92152],[120.50555,23.91909],[120.51138,23.91736],[120.51099,23.91557],[120.51297,23.91518],[120.5155,23.91335],[120.51937,23.91399],[120.524,23.91341],[120.52452,23.91442],[120.53184,23.91212],[120.5362,23.90818],[120.53874,23.90743],[120.53793,23.90182],[120.54019,23.90082],[120.54712,23.90176],[120.5462,23.90702],[120.54733,23.90717],[120.54853,23.90645],[120.55137,23.9075],[120.55337,23.90727],[120.55393,23.90551],[120.55499,23.90561],[120.55636,23.89832],[120.55727,23.8984],[120.55677,23.90202],[120.56449,23.90356],[120.56616,23.89381],[120.56873,23.88687],[120.57062,23.88465],[120.56604,23.88619],[120.56001,23.88597],[120.55958,23.88394],[120.56077,23.88338],[120.56071,23.88262],[120.5579,23.88127],[120.55641,23.8743],[120.5521,23.87652],[120.55175,23.87324],[120.55307,23.87127],[120.55468,23.871],[120.55542,23.86988],[120.54827,23.87066],[120.54659,23.87948],[120.54518,23.88246],[120.54312,23.88375],[120.53726,23.8852],[120.52521,23.88254],[120.52107,23.88434],[120.51987,23.88802],[120.51813,23.88826],[120.51156,23.89211],[120.50391,23.89412],[120.50163,23.89393],[120.49729,23.89708],[120.4903,23.89825],[120.49005,23.8998],[120.48234,23.90374],[120.47393,23.91321],[120.4756,23.91924],[120.47489,23.922],[120.48223,23.92066],[120.48394,23.91956],[120.48479,23.9203],[120.49026,23.9205],[120.49078,23.92387],[120.49386,23.92383],[120.49381,23.92507],[120.49825,23.92508]]]}}]}