{"type":"FeatureCollection","source":"https://data.gov.tw/dataset/7441 鄉鎮市區界線(TWD97經緯度)","agency":"內政部國土測繪中心","license":"政府資料開放授權條款第1版","generatedBy":"scripts/build-geo.py","features":[{"type":"Feature","properties":{"code":"10004110","name":"新竹縣峨眉鄉"},"geometry":{"type":"Polygon","coordinates":[[[120.99605,24.71493],[120.99808,24.71555],[120.99874,24.71473],[121.00246,24.71457],[121.00475,24.71316],[121.00669,24.71038],[121.00948,24.71103],[121.00999,24.70802],[121.01155,24.70603],[121.01358,24.70799],[121.01499,24.7079],[121.01588,24.70961],[121.01753,24.70977],[121.01842,24.71114],[121.02506,24.7105],[121.02841,24.70751],[121.03055,24.70887],[121.03321,24.70906],[121.03705,24.71068],[121.03793,24.70919],[121.03729,24.70724],[121.03869,24.70704],[121.0407,24.70431],[121.04202,24.70417],[121.04136,24.70285],[121.04017,24.70248],[121.03952,24.69946],[121.0365,24.6973],[121.03699,24.69567],[121.03936,24.69405],[121.03902,24.69083],[121.03859,24.69018],[121.03605,24.69022],[121.03391,24.68685],[121.03424,24.68571],[121.03662,24.68511],[121.03867,24.68221],[121.03793,24.68119],[121.03791,24.67764],[121.03712,24.67685],[121.03679,24.67362],[121.03472,24.67201],[121.03602,24.66953],[121.03798,24.66739],[121.04061,24.66878],[121.04332,24.66815],[121.04472,24.66905],[121.04647,24.66711],[121.04443,24.66162],[121.04314,24.66057],[121.04329,24.65903],[121.04127,24.65314],[121.03876,24.64961],[121.04008,24.64606],[121.04159,24.64486],[121.04678,24.64333],[121.04914,24.64062],[121.04823,24.63889],[121.04876,24.63494],[121.04679,24.63352],[121.04561,24.62967],[121.04365,24.62849],[121.04314,24.62725],[121.04054,24.62697],[121.03901,24.62965],[121.03728,24.62964],[121.03346,24.63206],[121.02938,24.63287],[121.02576,24.63612],[121.02544,24.64121],[121.02351,24.64182],[121.0184,24.64075],[121.01439,24.64085],[121.0106,24.64374],[121.00821,24.64432],[121.00896,24.64757],[121.00811,24.6505],[121.01068,24.65233],[121.01028,24.65621],[121.006,24.65526],[121.00402,24.65638],[121.00008,24.65472],[120.99724,24.65461],[120.99622,24.65534],[120.99551,24.65724],[120.99614,24.65802],[120.99509,24.6593],[120.99168,24.65954],[120.99064,24.66039],[120.99065,24.66479],[120.98908,24.66303],[120.98692,24.66367],[120.98525,24.66681],[120.98319,24.66719],[120.9832,24.66981],[120.98175,24.67178],[120.97931,24.67372],[120.97702,24.67365],[120.97648,24.67618],[120.97752,24.67829],[120.97557,24.68456],[120.9727,24.68585],[120.97058,24.68421],[120.96736,24.68444],[120.96441,24.68362],[120.96675,24.68611],[120.96517,24.68811],[120.96643,24.68916],[120.96638,24.69117],[120.97019,24.6941],[120.97188,24.69677],[120.974,24.69694],[120.97362,24.70116],[120.97219,24.70346],[120.97318,24.70451],[120.97583,24.70494],[120.97665,24.70626],[120.97456,24.70856],[120.97583,24.70949],[120.97379,24.71187],[120.97648,24.71304],[120.97613,24.71393],[120.97687,24.71433],[120.97686,24.71639],[120.9777,24.71731],[120.97861,24.7144],[120.98147,24.71395],[120.98512,24.71083],[120.98682,24.71146],[120.98706,24.71326],[120.99309,24.71791],[120.99376,24.71637],[120.99605,24.71493]]]}},{"type":"Feature","properties":{"code":"10004020","name":"新竹縣竹東鎮"},"geometry":{"type":"Polygon","coordinates":[[[121.03075,24.80042],[121.03393,24.80014],[121.03897,24.79824],[121.03998,24.79701],[121.04747,24.79443],[121.05231,24.79101],[121.05809,24.78931],[121.06003,24.78796],[121.06183,24.78569],[121.06249,24.78028],[121.0677,24.7782],[121.07021,24.77596],[121.0707,24.77454],[121.07391,24.77392],[121.07807,24.76674],[121.08089,24.76468],[121.08266,24.75993],[121.08454,24.75731],[121.08274,24.75741],[121.08287,24.75673],[121.09271,24.74898],[121.10128,24.7464],[121.10446,24.74427],[121.10717,24.73062],[121.1011,24.71367],[121.09998,24.70947],[121.10011,24.70525],[121.0982,24.70183],[121.0993,24.69881],[121.10425,24.69764],[121.10535,24.69433],[121.10326,24.68926],[121.10366,24.68357],[121.0996,24.67499],[121.10135,24.67229],[121.10383,24.67132],[121.10542,24.6663],[121.11256,24.66922],[121.11738,24.66853],[121.12305,24.6653],[121.12404,24.66263],[121.12434,24.65585],[121.12679,24.65406],[121.12866,24.65139],[121.12552,24.64823],[121.12406,24.64524],[121.1218,24.64525],[121.11612,24.64828],[121.11394,24.65119],[121.11055,24.64948],[121.10821,24.64521],[121.10159,24.64132],[121.09979,24.64188],[121.09838,24.64],[121.09598,24.64164],[121.09529,24.64558],[121.09186,24.64784],[121.09216,24.65184],[121.08873,24.65453],[121.0894,24.65555],[121.08777,24.65939],[121.08738,24.66285],[121.08588,24.66497],[121.08723,24.6673],[121.08608,24.6688],[121.08655,24.67284],[121.08497,24.67625],[121.08643,24.67955],[121.08921,24.68107],[121.08952,24.68369],[121.09404,24.68707],[121.09366,24.69068],[121.09162,24.69256],[121.09005,24.69562],[121.09014,24.69898],[121.08922,24.70026],[121.08741,24.70064],[121.08759,24.70299],[121.08385,24.70393],[121.08399,24.70499],[121.08589,24.70646],[121.08422,24.70725],[121.08466,24.70955],[121.08258,24.71174],[121.08229,24.71359],[121.08013,24.71296],[121.07602,24.71453],[121.07506,24.71381],[121.07076,24.71641],[121.06899,24.72208],[121.07171,24.72388],[121.07274,24.72595],[121.07185,24.7263],[121.07194,24.72704],[121.07372,24.72813],[121.0742,24.73057],[121.0719,24.72983],[121.07041,24.73129],[121.06957,24.73081],[121.06951,24.73378],[121.06789,24.73786],[121.06663,24.73879],[121.06597,24.73822],[121.0644,24.7397],[121.06435,24.74114],[121.06316,24.7421],[121.06291,24.74565],[121.05362,24.74971],[121.05231,24.75263],[121.05118,24.75282],[121.04976,24.75509],[121.04633,24.75257],[121.04315,24.75279],[121.04116,24.75141],[121.03918,24.75267],[121.03708,24.75014],[121.0369,24.7487],[121.03557,24.7478],[121.02916,24.75428],[121.02861,24.75625],[121.02632,24.75765],[121.02827,24.75835],[121.03052,24.76115],[121.03241,24.76169],[121.03353,24.76397],[121.02989,24.76647],[121.02927,24.7709],[121.03038,24.77204],[121.02816,24.77316],[121.0297,24.77701],[121.02766,24.77705],[121.02795,24.77881],[121.02614,24.77888],[121.02491,24.78007],[121.02675,24.7809],[121.02752,24.78271],[121.02301,24.78519],[121.02509,24.78639],[121.02415,24.78974],[121.0232,24.79069],[121.02179,24.7905],[121.02063,24.79426],[121.02314,24.79614],[121.02061,24.79881],[121.02574,24.79904],[121.02119,24.80204],[121.03075,24.80042]]]}},{"type":"Feature","properties":{"code":"10004030","name":"新竹縣新埔鎮"},"geometry":{"type":"Polygon","coordinates":[[[121.14107,24.88145],[121.14247,24.88174],[121.14466,24.8802],[121.14855,24.88125],[121.1522,24.88022],[121.15577,24.88062],[121.15787,24.87731],[121.1581,24.87466],[121.15621,24.87444],[121.15945,24.86873],[121.16079,24.86314],[121.15988,24.86244],[121.16138,24.85947],[121.16007,24.85846],[121.15925,24.85902],[121.16023,24.8578],[121.15907,24.85792],[121.15647,24.85585],[121.1563,24.85362],[121.15706,24.85243],[121.15595,24.85194],[121.15554,24.84991],[121.15361,24.84872],[121.15284,24.84616],[121.14913,24.84401],[121.14461,24.84307],[121.14849,24.84247],[121.15039,24.83711],[121.14816,24.83746],[121.14576,24.83627],[121.14293,24.83769],[121.13539,24.83669],[121.13464,24.83738],[121.12815,24.83721],[121.12613,24.83629],[121.12503,24.83448],[121.12349,24.83465],[121.11872,24.83131],[121.11693,24.83303],[121.11615,24.83186],[121.11455,24.83139],[121.10741,24.83378],[121.1031,24.83169],[121.10566,24.83186],[121.10743,24.82893],[121.10814,24.829],[121.10889,24.82568],[121.10675,24.82134],[121.10852,24.81924],[121.10875,24.81724],[121.11304,24.81694],[121.11251,24.81535],[121.10988,24.81402],[121.1134,24.8049],[121.11059,24.79808],[121.10955,24.79244],[121.10267,24.79279],[121.10007,24.79412],[121.09855,24.79381],[121.09666,24.79509],[121.09487,24.79413],[121.0931,24.79421],[121.09081,24.79138],[121.08833,24.79237],[121.08456,24.79131],[121.08437,24.79292],[121.08273,24.79365],[121.08241,24.79542],[121.08053,24.79595],[121.08014,24.79762],[121.08112,24.79914],[121.08042,24.80029],[121.07816,24.80182],[121.07538,24.80196],[121.07403,24.80301],[121.07273,24.80941],[121.06374,24.81434],[121.05877,24.81445],[121.05827,24.81553],[121.05564,24.81612],[121.05489,24.8167],[121.05596,24.81674],[121.05585,24.81756],[121.05348,24.81772],[121.05557,24.81802],[121.05412,24.81942],[121.04137,24.82187],[121.03966,24.82303],[121.03642,24.82761],[121.03183,24.82816],[121.0274,24.83172],[121.02667,24.83444],[121.02761,24.84094],[121.02425,24.8422],[121.02163,24.84926],[121.01361,24.85071],[121.01655,24.85421],[121.02717,24.85274],[121.02901,24.85412],[121.03151,24.8547],[121.03372,24.85438],[121.0358,24.85264],[121.03854,24.85228],[121.03884,24.85127],[121.0427,24.85142],[121.04378,24.85029],[121.04493,24.85265],[121.05343,24.85909],[121.05385,24.85755],[121.05764,24.85846],[121.06106,24.86057],[121.06369,24.86011],[121.0652,24.86156],[121.07026,24.86377],[121.07402,24.8636],[121.07424,24.86254],[121.07844,24.86381],[121.08028,24.86309],[121.08212,24.86383],[121.08347,24.86553],[121.08782,24.86492],[121.08965,24.86847],[121.09522,24.86915],[121.10065,24.86865],[121.10128,24.87053],[121.10371,24.86917],[121.10444,24.87121],[121.10713,24.87221],[121.10996,24.87207],[121.11199,24.8696],[121.11327,24.87186],[121.11245,24.87509],[121.11498,24.87641],[121.11777,24.87526],[121.12099,24.87531],[121.12204,24.88026],[121.12398,24.87993],[121.12815,24.88095],[121.12964,24.87969],[121.13331,24.87961],[121.13559,24.87799],[121.13768,24.88174],[121.13918,24.88244],[121.14107,24.88145]]]}},{"type":"Feature","properties":{"code":"10004040","name":"新竹縣關西鎮"},"geometry":{"type":"Polygon","coordinates":[[[121.1518,24.84384],[121.15442,24.84406],[121.15474,24.8423],[121.1559,24.84212],[121.15642,24.84068],[121.15946,24.83864],[121.16011,24.83736],[121.16645,24.83621],[121.1688,24.83398],[121.16992,24.83481],[121.17624,24.8321],[121.17375,24.82765],[121.17684,24.82729],[121.18591,24.82382],[121.19648,24.81784],[121.19886,24.81493],[121.19975,24.8152],[121.19934,24.81613],[121.20065,24.81773],[121.20331,24.81731],[121.20225,24.81649],[121.20297,24.81614],[121.20315,24.81457],[121.20586,24.81265],[121.2029,24.81031],[121.20467,24.80725],[121.20805,24.80716],[121.20954,24.80948],[121.2149,24.81197],[121.21704,24.81242],[121.21959,24.81179],[121.21872,24.80865],[121.21994,24.80744],[121.21963,24.80408],[121.22086,24.80299],[121.22161,24.79938],[121.22849,24.80291],[121.23824,24.80465],[121.2415,24.80629],[121.24344,24.80869],[121.24542,24.80696],[121.24744,24.80349],[121.24767,24.80138],[121.24662,24.80007],[121.24773,24.79672],[121.25037,24.79567],[121.25214,24.79395],[121.25761,24.79283],[121.25956,24.79371],[121.26047,24.79297],[121.26117,24.78996],[121.26043,24.78792],[121.25848,24.78587],[121.26001,24.78196],[121.26486,24.78138],[121.26603,24.77979],[121.26798,24.77993],[121.2706,24.77835],[121.27138,24.77712],[121.2713,24.77482],[121.27355,24.77459],[121.27691,24.77113],[121.28482,24.77027],[121.28755,24.76868],[121.29173,24.76805],[121.29271,24.76738],[121.29307,24.76538],[121.29153,24.76506],[121.28657,24.75963],[121.28425,24.7586],[121.27887,24.75916],[121.27102,24.75784],[121.26901,24.75848],[121.26553,24.75793],[121.2588,24.75118],[121.25459,24.7483],[121.2529,24.74547],[121.25006,24.74559],[121.24817,24.74428],[121.24394,24.74696],[121.236,24.74274],[121.22559,24.74119],[121.21849,24.73748],[121.21685,24.73744],[121.21118,24.72963],[121.20996,24.72953],[121.20821,24.72746],[121.20454,24.72532],[121.20083,24.72759],[121.1999,24.72962],[121.19626,24.73162],[121.19596,24.73346],[121.19682,24.73462],[121.19686,24.7367],[121.19539,24.73951],[121.19696,24.74141],[121.19678,24.74345],[121.19111,24.74411],[121.18725,24.74011],[121.18494,24.73911],[121.17998,24.74136],[121.17845,24.74389],[121.17936,24.74677],[121.17802,24.74612],[121.17347,24.74694],[121.17352,24.74818],[121.17201,24.74938],[121.17174,24.75263],[121.16961,24.75188],[121.1657,24.75336],[121.16435,24.75488],[121.154,24.75689],[121.15242,24.75861],[121.15132,24.75818],[121.14991,24.76049],[121.14852,24.75977],[121.14762,24.76117],[121.14671,24.76081],[121.14512,24.7639],[121.14273,24.76554],[121.14203,24.76494],[121.13963,24.76592],[121.1377,24.76542],[121.13581,24.76665],[121.133,24.76538],[121.12985,24.76661],[121.12707,24.76567],[121.12561,24.76704],[121.11876,24.7666],[121.11767,24.77555],[121.11606,24.77723],[121.11443,24.77721],[121.11556,24.78039],[121.112,24.78432],[121.11219,24.78661],[121.1101,24.78838],[121.10904,24.79098],[121.10892,24.79241],[121.10994,24.79274],[121.10967,24.79477],[121.11064,24.79824],[121.1134,24.8049],[121.10988,24.81402],[121.11251,24.81535],[121.11304,24.81694],[121.10875,24.81724],[121.10852,24.81924],[121.10675,24.82134],[121.10889,24.82568],[121.10814,24.829],[121.10743,24.82893],[121.10566,24.83186],[121.10309,24.83167],[121.10741,24.83378],[121.11455,24.83139],[121.11615,24.83186],[121.11693,24.83303],[121.11872,24.83131],[121.12349,24.83465],[121.12503,24.83448],[121.12613,24.83629],[121.12815,24.83721],[121.13464,24.83738],[121.13539,24.83669],[121.14293,24.83769],[121.14576,24.83627],[121.14816,24.83746],[121.15039,24.83711],[121.14849,24.84247],[121.1446,24.84304],[121.14997,24.84436],[121.1518,24.84384]]]}},{"type":"Feature","properties":{"code":"10004050","name":"新竹縣湖口鄉"},"geometry":{"type":"Polygon","coordinates":[[[121.05053,24.93862],[121.05334,24.93788],[121.05545,24.93624],[121.05834,24.93684],[121.05856,24.93516],[121.05766,24.93312],[121.05832,24.93221],[121.05757,24.93045],[121.05837,24.93008],[121.06096,24.92348],[121.0601,24.92068],[121.06087,24.92029],[121.06039,24.91839],[121.05824,24.9139],[121.05813,24.91041],[121.05918,24.90805],[121.05784,24.90555],[121.06062,24.90368],[121.06245,24.9046],[121.0691,24.90278],[121.07055,24.90185],[121.07111,24.89948],[121.07384,24.8999],[121.08064,24.89835],[121.08345,24.89885],[121.08943,24.89538],[121.09128,24.89336],[121.10131,24.89515],[121.10908,24.89774],[121.11007,24.89621],[121.11103,24.89127],[121.10932,24.88752],[121.10777,24.88607],[121.11356,24.88253],[121.12204,24.88026],[121.12116,24.87547],[121.11777,24.87526],[121.11516,24.87641],[121.11298,24.87561],[121.11222,24.87464],[121.11327,24.87186],[121.11199,24.8696],[121.10996,24.87207],[121.10713,24.87221],[121.10444,24.87121],[121.10371,24.86917],[121.10128,24.87053],[121.10065,24.86865],[121.09522,24.86915],[121.08965,24.86847],[121.08782,24.86492],[121.08347,24.86553],[121.08212,24.86383],[121.08028,24.86309],[121.07844,24.86381],[121.07424,24.86254],[121.07402,24.8636],[121.07026,24.86377],[121.0652,24.86156],[121.06369,24.86011],[121.06106,24.86057],[121.05764,24.85846],[121.05385,24.85755],[121.05343,24.85909],[121.04493,24.85265],[121.04378,24.85029],[121.0427,24.85142],[121.03884,24.85127],[121.03854,24.85228],[121.0358,24.85264],[121.03372,24.85438],[121.03151,24.8547],[121.02901,24.85412],[121.02717,24.85274],[121.01655,24.85421],[121.01361,24.85071],[121.01153,24.85415],[121.00214,24.85734],[120.99403,24.86181],[120.99265,24.86475],[120.99926,24.87134],[120.99871,24.87186],[121.0056,24.87786],[121.00628,24.8793],[121.01045,24.88228],[121.01003,24.88321],[121.01114,24.88227],[121.01595,24.8871],[121.01908,24.8887],[121.01826,24.88957],[121.02048,24.89491],[121.02033,24.89728],[121.02147,24.90082],[121.02302,24.9029],[121.02275,24.90379],[121.02555,24.91171],[121.02764,24.91498],[121.02799,24.91731],[121.03138,24.91872],[121.03584,24.92665],[121.04263,24.93548],[121.04457,24.94131],[121.04624,24.94241],[121.04795,24.94126],[121.04838,24.93959],[121.05053,24.93862]]]}},{"type":"Feature","properties":{"code":"10004070","name":"新竹縣芎林鄉"},"geometry":{"type":"Polygon","coordinates":[[[121.05708,24.81492],[121.06374,24.81434],[121.07273,24.80941],[121.07403,24.80301],[121.07538,24.80196],[121.07816,24.80182],[121.08042,24.80029],[121.08112,24.79914],[121.08014,24.79762],[121.08053,24.79595],[121.08241,24.79542],[121.08273,24.79365],[121.08437,24.79292],[121.08462,24.79128],[121.08833,24.79237],[121.09081,24.79138],[121.0931,24.79421],[121.09487,24.79413],[121.09666,24.79509],[121.09855,24.79381],[121.10007,24.79412],[121.10267,24.79279],[121.10892,24.79241],[121.1101,24.78838],[121.11219,24.78661],[121.112,24.78432],[121.11556,24.78039],[121.11443,24.77721],[121.11606,24.77723],[121.11767,24.77555],[121.11876,24.7666],[121.12561,24.76704],[121.12707,24.76567],[121.12985,24.76661],[121.133,24.76538],[121.13581,24.76665],[121.1377,24.76542],[121.13963,24.76592],[121.14203,24.76494],[121.14269,24.76555],[121.14512,24.7639],[121.14671,24.76081],[121.14762,24.76117],[121.14852,24.75977],[121.14991,24.76049],[121.15136,24.75815],[121.15259,24.7585],[121.15303,24.75793],[121.15176,24.75225],[121.14997,24.75068],[121.14943,24.74894],[121.15083,24.74617],[121.14909,24.74305],[121.14685,24.74162],[121.14685,24.73919],[121.14792,24.73847],[121.14567,24.73468],[121.14349,24.73526],[121.14319,24.73231],[121.1422,24.73284],[121.14177,24.7318],[121.138,24.7317],[121.13722,24.73085],[121.13481,24.7324],[121.12972,24.73031],[121.12727,24.73094],[121.12728,24.7298],[121.12315,24.73132],[121.12147,24.72908],[121.12601,24.72617],[121.12418,24.72298],[121.12107,24.72504],[121.11538,24.72613],[121.1079,24.73073],[121.10638,24.73332],[121.10413,24.74471],[121.1006,24.74666],[121.09287,24.74889],[121.08559,24.75425],[121.08262,24.757],[121.08454,24.75731],[121.08266,24.75993],[121.08089,24.76468],[121.07807,24.76674],[121.07434,24.77351],[121.07063,24.77458],[121.07021,24.77596],[121.0677,24.7782],[121.06243,24.78036],[121.06147,24.78648],[121.06306,24.78613],[121.06538,24.7839],[121.06648,24.78456],[121.06663,24.78582],[121.06344,24.78967],[121.05956,24.79075],[121.06025,24.79135],[121.06048,24.79403],[121.05831,24.79668],[121.05936,24.79964],[121.0605,24.80001],[121.062,24.80251],[121.06181,24.80424],[121.05983,24.80685],[121.05579,24.80904],[121.05218,24.81411],[121.05708,24.81492]]]}},{"type":"Feature","properties":{"code":"10004080","name":"新竹縣橫山鄉"},"geometry":{"type":"Polygon","coordinates":[[[121.15423,24.75684],[121.16435,24.75488],[121.1657,24.75336],[121.16961,24.75188],[121.17174,24.75263],[121.17201,24.74938],[121.17352,24.74818],[121.17347,24.74694],[121.17802,24.74612],[121.17936,24.74677],[121.17845,24.74389],[121.17998,24.74136],[121.18494,24.73911],[121.18725,24.74011],[121.19111,24.74411],[121.19678,24.74345],[121.19696,24.74141],[121.19539,24.73951],[121.19686,24.7367],[121.19682,24.73462],[121.19596,24.73346],[121.19626,24.73162],[121.1999,24.72962],[121.20058,24.72783],[121.20368,24.72573],[121.20317,24.72223],[121.20155,24.72038],[121.19946,24.71972],[121.19821,24.71515],[121.19395,24.71307],[121.19186,24.71034],[121.1945,24.70894],[121.19499,24.70714],[121.18895,24.69823],[121.18316,24.69701],[121.17672,24.69709],[121.17004,24.69383],[121.16664,24.69333],[121.16435,24.68957],[121.16412,24.68508],[121.15761,24.68141],[121.15586,24.67739],[121.15192,24.67195],[121.14572,24.66735],[121.14441,24.66715],[121.14313,24.66517],[121.13897,24.6657],[121.13742,24.66426],[121.13541,24.66386],[121.13148,24.65898],[121.13038,24.65647],[121.12858,24.65601],[121.12709,24.65374],[121.12434,24.65585],[121.12395,24.66324],[121.1227,24.66568],[121.11738,24.66853],[121.11237,24.66923],[121.10542,24.6663],[121.10383,24.67132],[121.10135,24.67229],[121.09965,24.6748],[121.10366,24.68357],[121.10326,24.68926],[121.10535,24.69433],[121.10411,24.69777],[121.10026,24.69835],[121.09857,24.69974],[121.09829,24.70275],[121.10012,24.7053],[121.10004,24.70978],[121.1071,24.73028],[121.10681,24.7322],[121.10967,24.72933],[121.11347,24.72711],[121.11668,24.72558],[121.12159,24.72485],[121.12418,24.72298],[121.12601,24.72617],[121.12147,24.72908],[121.12315,24.73132],[121.12728,24.7298],[121.12727,24.73094],[121.12972,24.73031],[121.13481,24.7324],[121.13719,24.73085],[121.138,24.7317],[121.14177,24.7318],[121.1422,24.73284],[121.14316,24.73229],[121.14349,24.73526],[121.14553,24.73457],[121.14789,24.73837],[121.14685,24.73919],[121.1468,24.7415],[121.14909,24.74305],[121.15083,24.74617],[121.14943,24.74894],[121.14997,24.75068],[121.15176,24.75225],[121.15249,24.75712],[121.15302,24.7579],[121.15423,24.75684]]]}},{"type":"Feature","properties":{"code":"10004090","name":"新竹縣北埔鄉"},"geometry":{"type":"Polygon","coordinates":[[[121.07102,24.73032],[121.0719,24.72983],[121.07399,24.73072],[121.07426,24.7301],[121.07372,24.72813],[121.07194,24.72704],[121.07185,24.7263],[121.07274,24.72595],[121.07171,24.72388],[121.069,24.72212],[121.07076,24.71641],[121.07506,24.71381],[121.07602,24.71453],[121.08013,24.71296],[121.08229,24.71359],[121.08258,24.71174],[121.08466,24.70955],[121.08422,24.70725],[121.08589,24.70646],[121.08399,24.70499],[121.08385,24.70393],[121.08759,24.70299],[121.08741,24.70064],[121.08922,24.70026],[121.09014,24.69898],[121.09005,24.69562],[121.09162,24.69256],[121.09366,24.69068],[121.09407,24.68712],[121.08952,24.68369],[121.08921,24.68107],[121.08638,24.67949],[121.08496,24.67596],[121.08655,24.67284],[121.08607,24.66886],[121.08723,24.66719],[121.08587,24.66504],[121.08738,24.66285],[121.08777,24.65939],[121.0894,24.65555],[121.08873,24.65453],[121.09216,24.65184],[121.09186,24.64784],[121.09576,24.64501],[121.09592,24.64175],[121.09673,24.64133],[121.09067,24.63743],[121.09085,24.63586],[121.08867,24.63256],[121.08674,24.63248],[121.08527,24.63086],[121.08291,24.6303],[121.07686,24.62288],[121.07369,24.62089],[121.07153,24.61396],[121.06793,24.61498],[121.06234,24.62183],[121.05535,24.61789],[121.05332,24.61545],[121.05157,24.61514],[121.05169,24.61736],[121.04826,24.61983],[121.04593,24.62409],[121.04314,24.62725],[121.04365,24.62849],[121.04561,24.62967],[121.04679,24.63352],[121.04876,24.63494],[121.04823,24.63889],[121.04914,24.64062],[121.04678,24.64333],[121.04159,24.64486],[121.04008,24.64606],[121.03875,24.64935],[121.03944,24.65139],[121.04127,24.65314],[121.04329,24.65903],[121.04314,24.66057],[121.04443,24.66162],[121.04647,24.66711],[121.04472,24.66905],[121.04332,24.66815],[121.04061,24.66878],[121.03793,24.66741],[121.03471,24.67196],[121.03679,24.67362],[121.03712,24.67685],[121.03791,24.67764],[121.03793,24.68119],[121.03867,24.68221],[121.03662,24.68511],[121.03424,24.68571],[121.03391,24.68685],[121.03605,24.69022],[121.03887,24.69051],[121.03936,24.69405],[121.03699,24.69567],[121.0365,24.6973],[121.03952,24.69946],[121.04017,24.70248],[121.04203,24.70407],[121.0407,24.70431],[121.03864,24.70708],[121.03729,24.70724],[121.03793,24.70919],[121.03678,24.71145],[121.03928,24.71218],[121.0398,24.71468],[121.04266,24.71757],[121.04523,24.71758],[121.04607,24.71655],[121.04765,24.71658],[121.0492,24.71968],[121.05061,24.71986],[121.05036,24.72111],[121.05274,24.72332],[121.05383,24.72344],[121.05382,24.72434],[121.05587,24.72594],[121.05868,24.73017],[121.06199,24.73085],[121.06689,24.72945],[121.07036,24.73131],[121.07102,24.73032]]]}},{"type":"Feature","properties":{"code":"10004130","name":"新竹縣五峰鄉"},"geometry":{"type":"Polygon","coordinates":[[[121.1518,24.67192],[121.15467,24.66961],[121.15466,24.66764],[121.15593,24.66689],[121.15866,24.6683],[121.16305,24.66784],[121.16924,24.66872],[121.17025,24.66213],[121.17567,24.66036],[121.17967,24.66099],[121.18265,24.65968],[121.18393,24.65613],[121.18772,24.65257],[121.18987,24.64623],[121.18926,24.64368],[121.18559,24.63804],[121.18576,24.63391],[121.195,24.62715],[121.19987,24.6219],[121.20653,24.61885],[121.2082,24.61757],[121.20907,24.61538],[121.21215,24.61376],[121.21251,24.60755],[121.22045,24.59966],[121.21778,24.59496],[121.21179,24.59341],[121.20718,24.58662],[121.20087,24.58601],[121.19751,24.57947],[121.19789,24.57624],[121.1961,24.57037],[121.19722,24.56902],[121.19761,24.56652],[121.19469,24.56219],[121.19299,24.55617],[121.1963,24.5537],[121.19733,24.55065],[121.20108,24.54598],[121.20063,24.54377],[121.19826,24.54335],[121.19584,24.54002],[121.19803,24.53709],[121.20146,24.53537],[121.20205,24.53429],[121.20122,24.53021],[121.20171,24.52793],[121.20013,24.52556],[121.20051,24.52468],[121.20215,24.52462],[121.20414,24.52176],[121.2018,24.51644],[121.20201,24.51422],[121.20317,24.51249],[121.20025,24.51129],[121.19529,24.50704],[121.19162,24.50747],[121.18671,24.50536],[121.18319,24.50793],[121.17942,24.50798],[121.1774,24.50744],[121.17469,24.50484],[121.17058,24.50412],[121.16914,24.50259],[121.16142,24.50358],[121.15502,24.5068],[121.15059,24.50609],[121.14609,24.50969],[121.14503,24.51192],[121.137,24.50665],[121.12966,24.5067],[121.12324,24.51024],[121.12096,24.50842],[121.11715,24.50844],[121.11433,24.5071],[121.10904,24.50104],[121.10533,24.50061],[121.10246,24.49825],[121.10034,24.49823],[121.09808,24.49642],[121.09048,24.49783],[121.08556,24.50131],[121.07892,24.49907],[121.07522,24.49943],[121.07189,24.49838],[121.07211,24.50337],[121.07032,24.50608],[121.0681,24.507],[121.06932,24.50933],[121.06852,24.51646],[121.06669,24.52078],[121.06693,24.52255],[121.07218,24.52635],[121.0783,24.5289],[121.07867,24.5325],[121.0778,24.53424],[121.08004,24.53769],[121.08054,24.54096],[121.07623,24.5438],[121.07347,24.54942],[121.06999,24.55058],[121.06302,24.55489],[121.06211,24.5562],[121.0582,24.55791],[121.05843,24.56063],[121.0614,24.56],[121.06263,24.55743],[121.06798,24.56213],[121.07059,24.56336],[121.07274,24.57278],[121.07473,24.57673],[121.07526,24.58067],[121.07874,24.58375],[121.0795,24.5881],[121.0831,24.58999],[121.0828,24.59483],[121.08128,24.60057],[121.07568,24.6037],[121.07526,24.60574],[121.07609,24.60891],[121.07533,24.61162],[121.0738,24.6132],[121.07153,24.61396],[121.07329,24.62032],[121.07686,24.62288],[121.08291,24.6303],[121.08527,24.63086],[121.08674,24.63248],[121.08867,24.63256],[121.09085,24.63586],[121.09064,24.63739],[121.09298,24.63929],[121.09618,24.64127],[121.09838,24.64],[121.09979,24.64188],[121.10159,24.64132],[121.10409,24.64255],[121.10511,24.64394],[121.10878,24.64564],[121.11027,24.64914],[121.11201,24.65047],[121.11403,24.6512],[121.11612,24.64828],[121.1218,24.64525],[121.12406,24.64524],[121.12552,24.64823],[121.12865,24.65127],[121.12709,24.65374],[121.12858,24.65601],[121.13038,24.65647],[121.13533,24.6638],[121.13742,24.66426],[121.13897,24.6657],[121.14313,24.66517],[121.14441,24.66715],[121.14572,24.66735],[121.1518,24.67192]]]}},{"type":"Feature","properties":{"code":"10004010","name":"新竹縣竹北市"},"geometry":{"type":"Polygon","coordinates":[[[120.95371,24.88151],[120.95668,24.88049],[120.96287,24.88015],[120.96856,24.87557],[120.96885,24.874],[120.9706,24.87508],[120.97232,24.87366],[120.97425,24.87345],[120.97506,24.8716],[120.97636,24.87103],[120.97654,24.86969],[120.97913,24.86792],[120.97955,24.86555],[120.98267,24.86303],[120.98322,24.86158],[120.98411,24.86149],[120.98593,24.86355],[120.9901,24.86184],[120.99265,24.86475],[120.99414,24.86173],[121.00214,24.85734],[121.01153,24.85415],[121.01467,24.8501],[121.01767,24.85044],[121.02158,24.84932],[121.02425,24.8422],[121.02761,24.84094],[121.02667,24.83444],[121.02743,24.83166],[121.03198,24.82806],[121.03642,24.82761],[121.04099,24.82207],[121.05412,24.81942],[121.05557,24.81802],[121.05353,24.81766],[121.05585,24.81756],[121.056,24.8168],[121.05511,24.81645],[121.0589,24.81507],[121.05232,24.8145],[121.05224,24.81373],[121.05596,24.80887],[121.05983,24.80685],[121.06176,24.80437],[121.062,24.80251],[121.0605,24.80001],[121.05936,24.79964],[121.0583,24.79662],[121.06048,24.79403],[121.06025,24.79135],[121.05956,24.79075],[121.06357,24.78957],[121.06627,24.78653],[121.06648,24.78456],[121.06538,24.7839],[121.05821,24.78925],[121.05275,24.7908],[121.04788,24.79424],[121.04126,24.79639],[121.03555,24.79962],[121.02119,24.80204],[121.01821,24.8073],[121.01514,24.80856],[121.00828,24.81621],[121.00477,24.81902],[121.00039,24.82206],[120.99248,24.8235],[120.9878,24.82548],[120.98543,24.82939],[120.98353,24.83075],[120.98146,24.83123],[120.97827,24.82974],[120.97503,24.82991],[120.96832,24.83244],[120.96264,24.83255],[120.95529,24.83436],[120.94482,24.84107],[120.94316,24.8465],[120.94045,24.84996],[120.93567,24.85223],[120.93127,24.85262],[120.92523,24.85481],[120.92695,24.8554],[120.92782,24.85954],[120.93304,24.86133],[120.93926,24.86718],[120.9426,24.87152],[120.94674,24.88017],[120.95371,24.88151]]]}},{"type":"Feature","properties":{"code":"10004060","name":"新竹縣新豐鄉"},"geometry":{"type":"Polygon","coordinates":[[[121.04012,24.94393],[121.04063,24.94326],[121.04239,24.94416],[121.04629,24.94355],[121.04624,24.94241],[121.04457,24.94131],[121.04263,24.93548],[121.03584,24.92665],[121.03138,24.91872],[121.02799,24.91731],[121.02764,24.91498],[121.02555,24.91171],[121.02275,24.90379],[121.02302,24.9029],[121.02147,24.90082],[121.02033,24.89728],[121.02048,24.89491],[121.01826,24.88957],[121.01908,24.8887],[121.01595,24.8871],[121.01114,24.88227],[121.01003,24.88321],[121.01045,24.88228],[121.00628,24.8793],[121.0056,24.87786],[120.99871,24.87186],[120.99926,24.87134],[120.99012,24.86185],[120.98593,24.86355],[120.98411,24.86149],[120.98322,24.86158],[120.98267,24.86303],[120.97955,24.86555],[120.97913,24.86792],[120.97478,24.87194],[120.97455,24.87324],[120.97232,24.87366],[120.97068,24.87507],[120.96885,24.874],[120.96856,24.87557],[120.96297,24.88011],[120.95668,24.88049],[120.95366,24.88153],[120.94674,24.88017],[120.94736,24.88383],[120.95174,24.89066],[120.95261,24.89538],[120.95889,24.90286],[120.9645,24.91578],[120.96627,24.92184],[120.96967,24.92847],[120.98148,24.93965],[120.98738,24.93905],[120.99032,24.93566],[120.99241,24.93502],[120.99281,24.93728],[120.9942,24.93914],[120.99907,24.94092],[121.00293,24.94001],[121.00426,24.94312],[121.0071,24.94622],[121.00956,24.94425],[121.01194,24.9448],[121.01268,24.94314],[121.01571,24.94165],[121.01781,24.94177],[121.01937,24.94042],[121.02154,24.9414],[121.0258,24.94048],[121.02914,24.94523],[121.03076,24.9439],[121.03814,24.94638],[121.04012,24.94393]]]}},{"type":"Feature","properties":{"code":"10004100","name":"新竹縣寶山鄉"},"geometry":{"type":"Polygon","coordinates":[[[121.00184,24.77689],[121.00633,24.77442],[121.00971,24.77379],[121.0136,24.7709],[121.01702,24.76581],[121.01695,24.76486],[121.01834,24.7638],[121.02021,24.75685],[121.02738,24.75746],[121.02881,24.75603],[121.02916,24.75428],[121.03456,24.74824],[121.03564,24.7478],[121.03662,24.74839],[121.03722,24.75038],[121.03918,24.75267],[121.04125,24.75141],[121.04315,24.75279],[121.04664,24.75269],[121.04985,24.75503],[121.05118,24.75282],[121.05231,24.75263],[121.05362,24.74971],[121.06291,24.74565],[121.06316,24.7421],[121.06435,24.74114],[121.0644,24.7397],[121.06804,24.73752],[121.06951,24.73378],[121.06952,24.73053],[121.06689,24.72945],[121.06199,24.73085],[121.05868,24.73017],[121.05587,24.72594],[121.05382,24.72434],[121.05383,24.72344],[121.05274,24.72332],[121.05036,24.72111],[121.05061,24.71986],[121.0492,24.71968],[121.04765,24.71658],[121.04607,24.71655],[121.04523,24.71758],[121.04266,24.71757],[121.0398,24.71468],[121.03928,24.71218],[121.03685,24.71158],[121.03679,24.71029],[121.03055,24.70887],[121.02864,24.70752],[121.02506,24.7105],[121.01865,24.71117],[121.01726,24.70957],[121.01583,24.70957],[121.01499,24.7079],[121.01358,24.70799],[121.01151,24.70604],[121.00999,24.70802],[121.00948,24.71103],[121.00669,24.71038],[121.00475,24.71316],[121.00265,24.71448],[120.99874,24.71473],[120.99808,24.71555],[120.99589,24.71495],[120.99376,24.71637],[120.99312,24.71792],[120.98706,24.71326],[120.98701,24.71166],[120.98549,24.71079],[120.98314,24.71198],[120.98147,24.71395],[120.97861,24.7144],[120.97773,24.71733],[120.97686,24.71639],[120.97617,24.71273],[120.97368,24.71186],[120.97155,24.71243],[120.97039,24.71089],[120.96859,24.71121],[120.96622,24.70964],[120.96337,24.71148],[120.96229,24.71088],[120.96214,24.7095],[120.96064,24.70906],[120.95935,24.70666],[120.95679,24.70657],[120.95511,24.70457],[120.95341,24.70404],[120.95282,24.70468],[120.95335,24.70598],[120.95092,24.70774],[120.9498,24.7112],[120.94555,24.70987],[120.94512,24.70789],[120.94233,24.7073],[120.93635,24.71095],[120.93542,24.71256],[120.93603,24.71469],[120.93863,24.71661],[120.93829,24.7216],[120.93927,24.72542],[120.93783,24.72724],[120.93894,24.72768],[120.93801,24.72942],[120.93895,24.72976],[120.94062,24.72843],[120.94182,24.72856],[120.94233,24.73044],[120.93986,24.73274],[120.94171,24.73506],[120.94171,24.73708],[120.94321,24.73904],[120.94424,24.74436],[120.94588,24.7453],[120.94811,24.74523],[120.94893,24.74445],[120.95113,24.74451],[120.95398,24.74341],[120.95756,24.7453],[120.95745,24.74961],[120.95856,24.74921],[120.96146,24.75122],[120.96351,24.75551],[120.96435,24.75519],[120.96533,24.7562],[120.96633,24.75577],[120.96741,24.75646],[120.96755,24.76059],[120.96984,24.76516],[120.97099,24.76574],[120.97302,24.76422],[120.97442,24.765],[120.97495,24.76403],[120.97657,24.76441],[120.97713,24.76311],[120.97942,24.76329],[120.98197,24.76743],[120.98666,24.76842],[120.98838,24.76807],[120.98476,24.7759],[120.98584,24.77691],[120.98824,24.77742],[120.99028,24.77689],[120.99316,24.7806],[120.99598,24.77998],[121.00184,24.77689]]]}},{"type":"Feature","properties":{"code":"10004120","name":"新竹縣尖石鄉"},"geometry":{"type":"Polygon","coordinates":[[[121.29442,24.76381],[121.29809,24.76293],[121.30136,24.76315],[121.30414,24.75745],[121.30772,24.75498],[121.30511,24.7502],[121.30529,24.74628],[121.30119,24.74211],[121.3001,24.73744],[121.29818,24.7338],[121.29867,24.73071],[121.3054,24.72599],[121.30762,24.72018],[121.30641,24.71308],[121.30328,24.70839],[121.30226,24.70191],[121.29956,24.69659],[121.29984,24.69496],[121.3039,24.69292],[121.31285,24.69752],[121.31718,24.69814],[121.31874,24.69763],[121.32027,24.69579],[121.32417,24.69497],[121.32977,24.69097],[121.33858,24.67996],[121.33981,24.67187],[121.3392,24.66656],[121.34032,24.66638],[121.34367,24.66939],[121.34548,24.66644],[121.34899,24.66791],[121.35168,24.6661],[121.35352,24.6678],[121.35307,24.66039],[121.35382,24.65905],[121.35286,24.65621],[121.35352,24.65544],[121.35233,24.65405],[121.35301,24.64878],[121.3524,24.64354],[121.35593,24.64105],[121.35739,24.6376],[121.35782,24.63371],[121.36117,24.63375],[121.36642,24.63179],[121.3655,24.63067],[121.36306,24.62067],[121.36178,24.62066],[121.35882,24.61717],[121.35952,24.61377],[121.36131,24.61214],[121.3613,24.60988],[121.36418,24.60676],[121.36333,24.60313],[121.36692,24.59907],[121.37182,24.597],[121.37278,24.59375],[121.38304,24.58944],[121.38721,24.58656],[121.39372,24.5871],[121.39574,24.58893],[121.40305,24.59171],[121.40456,24.58775],[121.41033,24.57916],[121.41233,24.5734],[121.40766,24.57003],[121.40358,24.56871],[121.40131,24.56469],[121.40126,24.56201],[121.39836,24.56046],[121.39476,24.55591],[121.39544,24.55303],[121.39876,24.5482],[121.39675,24.53982],[121.39846,24.53626],[121.39886,24.53255],[121.40151,24.53022],[121.40142,24.52886],[121.39771,24.52481],[121.39286,24.52446],[121.39052,24.52293],[121.38853,24.5178],[121.38512,24.51682],[121.3854,24.5138],[121.38357,24.51022],[121.37929,24.50953],[121.37335,24.5099],[121.37252,24.50211],[121.37125,24.49836],[121.36385,24.49496],[121.36189,24.49078],[121.35775,24.48661],[121.35074,24.48434],[121.34632,24.48466],[121.34284,24.48226],[121.34007,24.47485],[121.33564,24.47204],[121.336,24.46737],[121.33088,24.46521],[121.3295,24.46255],[121.32645,24.46042],[121.32434,24.45762],[121.31964,24.44519],[121.31578,24.43928],[121.31305,24.43683],[121.31003,24.43622],[121.30558,24.4326],[121.29675,24.43303],[121.29429,24.43236],[121.29275,24.43092],[121.28433,24.43058],[121.27848,24.42932],[121.27153,24.42975],[121.27106,24.42796],[121.2699,24.42738],[121.26508,24.42865],[121.26082,24.42863],[121.25921,24.43054],[121.25998,24.43619],[121.25878,24.4382],[121.25874,24.44033],[121.26166,24.44422],[121.2609,24.4458],[121.2622,24.44803],[121.26127,24.44842],[121.26061,24.45141],[121.26264,24.45525],[121.25804,24.45746],[121.25809,24.46324],[121.24931,24.46587],[121.24448,24.46989],[121.2433,24.47729],[121.23472,24.48366],[121.23458,24.48787],[121.23343,24.48746],[121.22993,24.48891],[121.22894,24.49228],[121.22351,24.49439],[121.21867,24.49826],[121.21974,24.50077],[121.22097,24.50145],[121.22193,24.50482],[121.22364,24.50631],[121.21747,24.50965],[121.21764,24.5138],[121.21675,24.51505],[121.21478,24.51526],[121.20917,24.51145],[121.20667,24.51295],[121.20459,24.51216],[121.20317,24.51249],[121.20201,24.51422],[121.20194,24.51743],[121.20415,24.52158],[121.20215,24.52462],[121.20015,24.52533],[121.20171,24.52793],[121.20122,24.53021],[121.20211,24.53405],[121.20146,24.53537],[121.19803,24.53709],[121.19584,24.54002],[121.19826,24.54335],[121.20063,24.54377],[121.20108,24.54598],[121.19733,24.55065],[121.1963,24.5537],[121.19299,24.55617],[121.19469,24.56219],[121.19761,24.56652],[121.19722,24.56902],[121.1961,24.57037],[121.19789,24.57624],[121.19751,24.57947],[121.20087,24.58601],[121.20718,24.58662],[121.21179,24.59341],[121.21778,24.59496],[121.22045,24.59966],[121.21251,24.60755],[121.21215,24.61376],[121.20907,24.61538],[121.2082,24.61757],[121.20653,24.61885],[121.19987,24.6219],[121.195,24.62715],[121.18576,24.63391],[121.18559,24.63804],[121.18926,24.64368],[121.18987,24.64623],[121.18772,24.65257],[121.18393,24.65613],[121.18265,24.65968],[121.17967,24.66099],[121.17567,24.66036],[121.17025,24.66213],[121.16924,24.66872],[121.16305,24.66784],[121.15866,24.6683],[121.15593,24.66689],[121.15466,24.66764],[121.15467,24.66961],[121.15189,24.67192],[121.15586,24.67739],[121.15761,24.68141],[121.16412,24.68508],[121.16435,24.68957],[121.16664,24.69333],[121.17004,24.69383],[121.17672,24.69709],[121.18316,24.69701],[121.18895,24.69823],[121.19499,24.70714],[121.1945,24.70894],[121.19186,24.71034],[121.19395,24.71307],[121.19821,24.71515],[121.19937,24.71956],[121.20303,24.72192],[121.20376,24.72539],[121.20667,24.72628],[121.20996,24.72953],[121.21118,24.72963],[121.21685,24.73744],[121.21849,24.73748],[121.22559,24.74119],[121.236,24.74274],[121.24394,24.74696],[121.24817,24.74428],[121.25006,24.74559],[121.2529,24.74547],[121.25459,24.7483],[121.2588,24.75118],[121.26566,24.75799],[121.26901,24.75848],[121.27102,24.75784],[121.27887,24.75916],[121.28425,24.7586],[121.28657,24.75963],[121.29173,24.7652],[121.29307,24.76538],[121.29442,24.76381]]]}}]}