{"type":"FeatureCollection","source":"https://data.gov.tw/dataset/7441 鄉鎮市區界線(TWD97經緯度)","agency":"內政部國土測繪中心","license":"政府資料開放授權條款第1版","generatedBy":"scripts/build-geo.py","features":[{"type":"Feature","properties":{"code":"10009130","name":"雲林縣麥寮鄉"},"geometry":{"type":"Polygon","coordinates":[[[120.30198,23.81624],[120.3019,23.80634],[120.30069,23.80469],[120.29703,23.80485],[120.29398,23.79698],[120.29329,23.79275],[120.29385,23.79113],[120.29556,23.79005],[120.29532,23.78799],[120.29615,23.7873],[120.29465,23.78014],[120.29733,23.77733],[120.29983,23.77732],[120.30037,23.77822],[120.30309,23.77853],[120.30325,23.77741],[120.30591,23.77648],[120.30581,23.7704],[120.3068,23.76307],[120.2943,23.76363],[120.29497,23.76233],[120.29392,23.76241],[120.29331,23.76053],[120.29776,23.75984],[120.29719,23.758],[120.29801,23.75762],[120.29776,23.75658],[120.29877,23.75622],[120.29872,23.75504],[120.30069,23.75394],[120.2994,23.75212],[120.29844,23.7482],[120.29899,23.74093],[120.29046,23.74165],[120.28344,23.74123],[120.27921,23.73616],[120.27328,23.73418],[120.26435,23.73365],[120.25743,23.73592],[120.25115,23.73592],[120.24804,23.73753],[120.24416,23.7433],[120.2411,23.74618],[120.23888,23.75159],[120.23344,23.75649],[120.22799,23.75787],[120.22435,23.76161],[120.22222,23.76255],[120.21636,23.76307],[120.20775,23.76179],[120.20445,23.75994],[120.20117,23.75674],[120.16778,23.75696],[120.16919,23.75893],[120.16292,23.77247],[120.16289,23.77971],[120.16191,23.77971],[120.15676,23.78455],[120.16016,23.7867],[120.16507,23.79443],[120.17546,23.80314],[120.17566,23.80443],[120.17024,23.80549],[120.17043,23.80666],[120.17499,23.80582],[120.17802,23.80907],[120.18109,23.80979],[120.18255,23.81619],[120.18678,23.8164],[120.19169,23.81825],[120.19561,23.82308],[120.20151,23.82841],[120.20605,23.83428],[120.20835,23.84022],[120.2084,23.84192],[120.20452,23.8449],[120.20463,23.84766],[120.20521,23.84837],[120.21097,23.84918],[120.21432,23.85072],[120.21925,23.85847],[120.22036,23.86622],[120.23489,23.84919],[120.24229,23.84252],[120.25039,23.83676],[120.25606,23.83382],[120.30206,23.82188],[120.30198,23.81624]]]}},{"type":"Feature","properties":{"code":"10009010","name":"雲林縣斗六市"},"geometry":{"type":"Polygon","coordinates":[[[120.57202,23.74997],[120.57354,23.74824],[120.57492,23.74358],[120.57845,23.74242],[120.5801,23.74016],[120.58232,23.7393],[120.58223,23.7381],[120.58407,23.73809],[120.58497,23.73708],[120.5886,23.74246],[120.59118,23.73612],[120.59401,23.7317],[120.59784,23.72974],[120.60151,23.73004],[120.60125,23.72504],[120.60775,23.72651],[120.60991,23.72258],[120.61119,23.72173],[120.61288,23.72165],[120.61504,23.7198],[120.61841,23.71938],[120.6194,23.71816],[120.62091,23.71807],[120.62193,23.71648],[120.62614,23.71669],[120.62978,23.71498],[120.63118,23.71334],[120.64071,23.71424],[120.63899,23.71058],[120.6402,23.71],[120.63972,23.70878],[120.64143,23.70557],[120.64309,23.70531],[120.64567,23.70321],[120.64341,23.6997],[120.6466,23.69281],[120.64552,23.69008],[120.64571,23.68721],[120.64699,23.68657],[120.64625,23.68478],[120.64828,23.68286],[120.64756,23.67945],[120.64605,23.67713],[120.64693,23.67271],[120.64498,23.67171],[120.64427,23.66824],[120.64072,23.6681],[120.63864,23.66945],[120.63599,23.67298],[120.63341,23.67251],[120.63224,23.67311],[120.63274,23.67643],[120.62859,23.68221],[120.62982,23.68476],[120.62782,23.68448],[120.62449,23.68641],[120.62425,23.68814],[120.62279,23.68864],[120.6224,23.6906],[120.61988,23.69253],[120.61843,23.69576],[120.61653,23.69718],[120.61157,23.69665],[120.60957,23.69722],[120.60047,23.69594],[120.60007,23.69466],[120.59854,23.69397],[120.59589,23.69409],[120.59378,23.69568],[120.59202,23.69503],[120.59158,23.69586],[120.59003,23.69555],[120.58969,23.69637],[120.58731,23.69556],[120.58606,23.69649],[120.58235,23.69446],[120.57779,23.69566],[120.57906,23.68869],[120.57165,23.68547],[120.56994,23.69082],[120.56857,23.69194],[120.56405,23.69134],[120.55998,23.6882],[120.55739,23.68827],[120.55678,23.6875],[120.55897,23.68653],[120.55921,23.68411],[120.56322,23.68349],[120.56415,23.68204],[120.56388,23.68039],[120.56568,23.67928],[120.5653,23.67838],[120.5634,23.67872],[120.56219,23.67716],[120.55969,23.67291],[120.55988,23.67121],[120.55395,23.67118],[120.551,23.67279],[120.54577,23.6733],[120.54382,23.67268],[120.54066,23.67329],[120.53774,23.67506],[120.53643,23.67161],[120.53674,23.6688],[120.53858,23.6652],[120.54017,23.66485],[120.54063,23.66358],[120.54,23.66159],[120.54086,23.65927],[120.5402,23.65933],[120.53832,23.65514],[120.5368,23.6539],[120.53738,23.6527],[120.53642,23.65062],[120.52986,23.65257],[120.52993,23.65396],[120.52739,23.6548],[120.52365,23.65461],[120.52282,23.6558],[120.51528,23.65963],[120.51414,23.66112],[120.51401,23.66349],[120.51244,23.66307],[120.50978,23.66406],[120.50936,23.666],[120.50859,23.66637],[120.50915,23.6701],[120.50777,23.67152],[120.50616,23.67182],[120.50599,23.67437],[120.50749,23.67549],[120.5054,23.67695],[120.50492,23.6784],[120.50164,23.68015],[120.49936,23.68639],[120.50093,23.68711],[120.50093,23.68887],[120.50324,23.68988],[120.50173,23.69494],[120.49779,23.69663],[120.49535,23.70483],[120.49645,23.7053],[120.4963,23.70725],[120.4976,23.70791],[120.4967,23.70814],[120.49844,23.70862],[120.49735,23.7117],[120.49989,23.71244],[120.49961,23.71438],[120.49727,23.71687],[120.49783,23.71862],[120.49563,23.72021],[120.4981,23.72474],[120.49886,23.72324],[120.49999,23.72309],[120.50183,23.72537],[120.50334,23.72929],[120.50629,23.72936],[120.50798,23.73119],[120.51125,23.73076],[120.51788,23.7339],[120.52348,23.73303],[120.52436,23.73511],[120.52713,23.73554],[120.53015,23.73752],[120.53006,23.74025],[120.53405,23.74383],[120.53386,23.7449],[120.53625,23.74561],[120.53683,23.74669],[120.53887,23.74653],[120.5465,23.74971],[120.55352,23.75068],[120.55605,23.7547],[120.55931,23.75725],[120.56946,23.75989],[120.57129,23.75947],[120.57471,23.75466],[120.57153,23.75077],[120.57202,23.74997]]]}},{"type":"Feature","properties":{"code":"10009020","name":"雲林縣斗南鎮"},"geometry":{"type":"Polygon","coordinates":[[[120.49654,23.72181],[120.49563,23.72021],[120.49783,23.71862],[120.49727,23.71687],[120.49961,23.71438],[120.49989,23.71244],[120.49735,23.7117],[120.49844,23.70862],[120.4967,23.70814],[120.4976,23.70791],[120.4963,23.70725],[120.49645,23.7053],[120.49535,23.70483],[120.49779,23.69663],[120.50173,23.69494],[120.50324,23.68988],[120.50093,23.68887],[120.50093,23.68711],[120.49936,23.68639],[120.50164,23.68015],[120.50492,23.6784],[120.5054,23.67695],[120.50749,23.67549],[120.50599,23.67437],[120.50614,23.67192],[120.50777,23.67152],[120.50915,23.6701],[120.50859,23.66637],[120.50936,23.666],[120.5096,23.66432],[120.51186,23.66317],[120.51401,23.66349],[120.51414,23.66112],[120.51528,23.65963],[120.52282,23.6558],[120.52365,23.65461],[120.52739,23.6548],[120.52993,23.65396],[120.52986,23.65257],[120.53642,23.65062],[120.53602,23.64636],[120.53962,23.64131],[120.53502,23.64271],[120.52958,23.64311],[120.52924,23.64147],[120.52746,23.64113],[120.52662,23.63938],[120.52769,23.63864],[120.5259,23.63805],[120.51881,23.63857],[120.51727,23.63645],[120.51258,23.63733],[120.51569,23.63508],[120.51601,23.63331],[120.51336,23.634],[120.50922,23.6324],[120.5072,23.63491],[120.50594,23.63382],[120.50356,23.63528],[120.49786,23.63477],[120.49321,23.63313],[120.48873,23.6359],[120.48717,23.63416],[120.48787,23.63071],[120.48586,23.63063],[120.47926,23.63295],[120.47702,23.62954],[120.47399,23.63107],[120.46854,23.63027],[120.46822,23.63328],[120.47445,23.66239],[120.47164,23.66349],[120.47045,23.66617],[120.46678,23.66752],[120.46614,23.66482],[120.46271,23.66565],[120.4585,23.66484],[120.45904,23.66832],[120.45444,23.67247],[120.45101,23.67413],[120.4488,23.6737],[120.44887,23.67247],[120.44985,23.672],[120.44893,23.67023],[120.44945,23.66963],[120.44742,23.66876],[120.44615,23.66951],[120.44695,23.67086],[120.44673,23.67271],[120.44544,23.67378],[120.44467,23.67329],[120.44458,23.67042],[120.44298,23.66981],[120.44049,23.67182],[120.43804,23.67143],[120.43603,23.6722],[120.43337,23.67089],[120.42965,23.67081],[120.42851,23.67411],[120.422,23.6736],[120.42111,23.67559],[120.41678,23.67954],[120.42311,23.69001],[120.42683,23.68858],[120.44309,23.68793],[120.44394,23.68655],[120.44754,23.68633],[120.44711,23.68774],[120.45015,23.68753],[120.45084,23.68611],[120.45229,23.68603],[120.45318,23.69065],[120.4578,23.69093],[120.45663,23.69185],[120.45766,23.69312],[120.46164,23.69131],[120.46348,23.68944],[120.46469,23.69],[120.46321,23.69294],[120.46413,23.69416],[120.46211,23.69557],[120.46396,23.69779],[120.46362,23.69915],[120.46596,23.7003],[120.46785,23.70004],[120.46809,23.70101],[120.47057,23.70172],[120.47334,23.70482],[120.48024,23.70536],[120.48278,23.70853],[120.48123,23.71362],[120.48067,23.71345],[120.47907,23.71648],[120.48147,23.7202],[120.48562,23.72176],[120.4928,23.72218],[120.49803,23.72497],[120.49654,23.72181]]]}},{"type":"Feature","properties":{"code":"10009030","name":"雲林縣虎尾鎮"},"geometry":{"type":"Polygon","coordinates":[[[120.37831,23.74698],[120.38723,23.74604],[120.39476,23.74688],[120.40055,23.74491],[120.41337,23.74491],[120.42215,23.74336],[120.42585,23.73995],[120.42858,23.74001],[120.43042,23.73917],[120.43278,23.73956],[120.43886,23.73825],[120.45725,23.73822],[120.45655,23.7431],[120.46871,23.74272],[120.46887,23.74533],[120.46955,23.74573],[120.47345,23.74564],[120.47563,23.74379],[120.48696,23.7455],[120.49519,23.74502],[120.49303,23.73878],[120.5017,23.73215],[120.50334,23.72929],[120.50183,23.72537],[120.4999,23.72304],[120.49886,23.72324],[120.49803,23.72497],[120.4928,23.72218],[120.48562,23.72176],[120.48143,23.72016],[120.47907,23.71648],[120.48067,23.71345],[120.48123,23.71362],[120.48278,23.70853],[120.48024,23.70536],[120.47334,23.70482],[120.47057,23.70172],[120.46809,23.70101],[120.46785,23.70004],[120.46596,23.7003],[120.46362,23.69915],[120.46396,23.69779],[120.46211,23.69557],[120.46413,23.69416],[120.46321,23.69294],[120.46469,23.69],[120.46348,23.68944],[120.46164,23.69131],[120.45766,23.69312],[120.45663,23.69185],[120.4578,23.69093],[120.45318,23.69065],[120.45229,23.68603],[120.45084,23.68611],[120.45015,23.68753],[120.44711,23.68774],[120.44754,23.68633],[120.44394,23.68655],[120.44309,23.68793],[120.42683,23.68858],[120.42311,23.69001],[120.41194,23.67164],[120.40736,23.66861],[120.40586,23.67112],[120.40648,23.67221],[120.40467,23.67677],[120.40315,23.67858],[120.40392,23.68076],[120.39698,23.67952],[120.39466,23.6834],[120.39233,23.6819],[120.39433,23.68789],[120.39963,23.69642],[120.38416,23.69723],[120.38502,23.69596],[120.38451,23.69397],[120.37793,23.69432],[120.37676,23.69257],[120.37588,23.69422],[120.37494,23.6968],[120.37545,23.70298],[120.3763,23.70256],[120.37831,23.70616],[120.37872,23.71344],[120.36986,23.714],[120.37012,23.72461],[120.37069,23.73061],[120.3729,23.73429],[120.37783,23.73103],[120.38107,23.7316],[120.38209,23.73353],[120.382,23.73554],[120.37905,23.73983],[120.37691,23.74132],[120.37524,23.74621],[120.37831,23.74698]]]}},{"type":"Feature","properties":{"code":"10009040","name":"雲林縣西螺鎮"},"geometry":{"type":"Polygon","coordinates":[[[120.45074,23.81856],[120.45209,23.81722],[120.45812,23.81612],[120.47526,23.80903],[120.48317,23.80657],[120.49841,23.80361],[120.50874,23.80045],[120.51337,23.79998],[120.50042,23.78222],[120.49826,23.78425],[120.48518,23.78389],[120.48549,23.78228],[120.47722,23.78051],[120.47709,23.77829],[120.48024,23.77251],[120.48452,23.76885],[120.48078,23.76771],[120.48047,23.76624],[120.4796,23.75229],[120.4806,23.74458],[120.47563,23.74379],[120.47345,23.74564],[120.46955,23.74573],[120.46887,23.74533],[120.46871,23.74272],[120.45655,23.7431],[120.45725,23.73822],[120.43886,23.73825],[120.42568,23.74],[120.42222,23.74333],[120.41719,23.74407],[120.41665,23.74962],[120.42033,23.74681],[120.42211,23.74855],[120.42744,23.74907],[120.42669,23.7546],[120.43295,23.75489],[120.43432,23.75689],[120.42951,23.75796],[120.42986,23.75929],[120.42547,23.76033],[120.43112,23.76324],[120.43309,23.76738],[120.43104,23.77107],[120.43144,23.77222],[120.42303,23.77558],[120.42223,23.77812],[120.42631,23.78231],[120.42588,23.78362],[120.42922,23.78629],[120.42818,23.79181],[120.42882,23.79351],[120.42833,23.79909],[120.4297,23.79956],[120.43012,23.8085],[120.42883,23.80869],[120.42897,23.81048],[120.43018,23.81042],[120.43046,23.81429],[120.43402,23.8135],[120.43778,23.81791],[120.44325,23.81883],[120.44732,23.82071],[120.45074,23.81856]]]}},{"type":"Feature","properties":{"code":"10009050","name":"雲林縣土庫鎮"},"geometry":{"type":"Polygon","coordinates":[[[120.33938,23.74832],[120.34828,23.74512],[120.34914,23.74459],[120.34919,23.74329],[120.35069,23.74269],[120.35504,23.74397],[120.35857,23.74257],[120.36382,23.74298],[120.3752,23.74643],[120.37691,23.74132],[120.37905,23.73983],[120.38217,23.7352],[120.38101,23.73157],[120.37783,23.73103],[120.37295,23.73431],[120.37068,23.73056],[120.36986,23.714],[120.37872,23.71344],[120.37831,23.70616],[120.3763,23.70256],[120.37545,23.70298],[120.37494,23.6968],[120.37588,23.69422],[120.37676,23.69257],[120.37793,23.69432],[120.38451,23.69397],[120.38502,23.69596],[120.38416,23.69723],[120.39963,23.69642],[120.39433,23.68789],[120.39233,23.6819],[120.39466,23.6834],[120.39698,23.67952],[120.40392,23.68076],[120.40315,23.67858],[120.40467,23.67677],[120.40648,23.67221],[120.40586,23.67112],[120.40736,23.66861],[120.39853,23.66295],[120.38763,23.65143],[120.38226,23.65346],[120.37541,23.65355],[120.35555,23.64706],[120.3515,23.64713],[120.34557,23.64502],[120.34517,23.64583],[120.34342,23.64612],[120.34098,23.64383],[120.34212,23.64725],[120.34249,23.6533],[120.3412,23.65357],[120.34151,23.65645],[120.3438,23.66253],[120.34199,23.66566],[120.34327,23.67119],[120.3409,23.67115],[120.3408,23.67685],[120.33812,23.67685],[120.33806,23.67977],[120.339,23.68263],[120.34169,23.68215],[120.34314,23.68571],[120.3369,23.69122],[120.33365,23.69596],[120.33493,23.70413],[120.34062,23.70307],[120.3371,23.7106],[120.3429,23.71004],[120.3445,23.72067],[120.34827,23.72101],[120.34797,23.72832],[120.34893,23.72905],[120.35294,23.72936],[120.35204,23.73729],[120.35106,23.73816],[120.35003,23.73857],[120.34742,23.73766],[120.34664,23.736],[120.34433,23.73722],[120.339,23.73786],[120.33193,23.74264],[120.32966,23.74543],[120.33131,23.74807],[120.33938,23.74832]]]}},{"type":"Feature","properties":{"code":"10009060","name":"雲林縣北港鎮"},"geometry":{"type":"Polygon","coordinates":[[[120.27582,23.63426],[120.29197,23.63233],[120.29185,23.63106],[120.29814,23.63009],[120.29771,23.62794],[120.29862,23.62731],[120.29642,23.62054],[120.30187,23.62054],[120.30196,23.61655],[120.30498,23.61521],[120.30155,23.61241],[120.30762,23.6114],[120.30751,23.61056],[120.31286,23.61058],[120.31274,23.60745],[120.31956,23.60713],[120.31992,23.60475],[120.32878,23.60431],[120.32739,23.60289],[120.33226,23.6039],[120.33233,23.60149],[120.3361,23.60147],[120.33629,23.59639],[120.33528,23.59305],[120.33366,23.59179],[120.33312,23.5792],[120.3316,23.57745],[120.3258,23.57359],[120.32041,23.57239],[120.31156,23.57503],[120.30744,23.57465],[120.30645,23.57358],[120.30647,23.57206],[120.31024,23.56721],[120.31055,23.56445],[120.30655,23.56287],[120.2964,23.56463],[120.29167,23.56343],[120.28957,23.56175],[120.28908,23.55999],[120.29077,23.55054],[120.28283,23.5461],[120.27441,23.54386],[120.27432,23.54607],[120.27281,23.54937],[120.27371,23.55311],[120.27116,23.55356],[120.27109,23.55729],[120.27305,23.56369],[120.27566,23.56273],[120.27616,23.56796],[120.27683,23.56787],[120.27773,23.5701],[120.27236,23.57154],[120.27325,23.57283],[120.27078,23.57593],[120.26799,23.57692],[120.26608,23.57688],[120.26527,23.57605],[120.26498,23.5798],[120.26254,23.5799],[120.26255,23.58132],[120.26266,23.58551],[120.26514,23.58546],[120.26482,23.58727],[120.26751,23.58657],[120.2677,23.5905],[120.27062,23.59185],[120.26802,23.59693],[120.26876,23.59825],[120.26865,23.60164],[120.26936,23.6017],[120.27171,23.60914],[120.27079,23.60983],[120.26763,23.60976],[120.26797,23.61373],[120.26554,23.61434],[120.26542,23.61631],[120.26443,23.61658],[120.26418,23.61761],[120.26488,23.62268],[120.26741,23.63015],[120.26855,23.6293],[120.27281,23.62994],[120.27305,23.63441],[120.27582,23.63426]]]}},{"type":"Feature","properties":{"code":"10009070","name":"雲林縣古坑鄉"},"geometry":{"type":"Polygon","coordinates":[[[120.61665,23.6971],[120.61843,23.69576],[120.61988,23.69253],[120.6224,23.6906],[120.62279,23.68864],[120.62425,23.68814],[120.62449,23.68641],[120.62782,23.68448],[120.62982,23.68476],[120.62859,23.68221],[120.63274,23.67643],[120.63224,23.67311],[120.63341,23.67251],[120.63599,23.67298],[120.63864,23.66945],[120.64072,23.6681],[120.6445,23.66803],[120.64134,23.66566],[120.64036,23.66397],[120.64014,23.66114],[120.63685,23.65698],[120.63692,23.65543],[120.63497,23.65157],[120.6351,23.64971],[120.63635,23.64824],[120.63481,23.64701],[120.63521,23.64286],[120.63179,23.6402],[120.63165,23.63879],[120.62908,23.63516],[120.63017,23.63277],[120.62871,23.63001],[120.63106,23.62169],[120.6337,23.61913],[120.63537,23.61985],[120.63873,23.62474],[120.64387,23.62825],[120.64514,23.63098],[120.653,23.62951],[120.65362,23.62839],[120.65254,23.62456],[120.65292,23.62186],[120.65142,23.61614],[120.65835,23.61383],[120.6612,23.61047],[120.66451,23.61112],[120.66914,23.60934],[120.67778,23.61105],[120.68359,23.61087],[120.68547,23.61284],[120.68606,23.61821],[120.69132,23.62035],[120.6968,23.62001],[120.70227,23.61739],[120.70503,23.61727],[120.70688,23.61869],[120.71029,23.61916],[120.71407,23.62102],[120.7131,23.62791],[120.71605,23.62953],[120.71861,23.62989],[120.72309,23.62253],[120.72561,23.62172],[120.72681,23.62006],[120.73077,23.61808],[120.73101,23.61109],[120.72674,23.60742],[120.72455,23.60377],[120.72781,23.60138],[120.72875,23.59899],[120.73271,23.59717],[120.7299,23.59364],[120.73259,23.58969],[120.73234,23.58784],[120.73399,23.58421],[120.73216,23.57713],[120.73517,23.57503],[120.73616,23.57046],[120.73284,23.571],[120.7279,23.57033],[120.7245,23.57189],[120.71795,23.56904],[120.71657,23.56952],[120.71603,23.57108],[120.71009,23.57116],[120.7089,23.57571],[120.70466,23.57497],[120.70074,23.57608],[120.69402,23.5765],[120.68633,23.57488],[120.68207,23.57188],[120.67624,23.57071],[120.67489,23.57125],[120.67246,23.57656],[120.66996,23.57878],[120.66858,23.57778],[120.66569,23.57778],[120.66069,23.57629],[120.65806,23.57288],[120.65671,23.5724],[120.6507,23.57245],[120.64726,23.57669],[120.64415,23.57529],[120.64346,23.57571],[120.64348,23.57821],[120.64726,23.58039],[120.6492,23.58345],[120.64926,23.5857],[120.64739,23.58576],[120.64708,23.58748],[120.64912,23.59247],[120.64562,23.59353],[120.63678,23.59193],[120.63083,23.58995],[120.62474,23.59054],[120.6232,23.58998],[120.62296,23.58801],[120.619,23.58417],[120.61546,23.58532],[120.6102,23.58262],[120.60652,23.58421],[120.60031,23.58313],[120.59482,23.5854],[120.59109,23.58501],[120.58975,23.58572],[120.58592,23.5826],[120.5803,23.58227],[120.57674,23.58351],[120.57071,23.58804],[120.56709,23.58774],[120.56536,23.58948],[120.56309,23.58964],[120.56084,23.58859],[120.55786,23.58918],[120.55642,23.5929],[120.55192,23.59395],[120.53694,23.59473],[120.53304,23.59701],[120.53214,23.59884],[120.52952,23.59986],[120.52773,23.60321],[120.51809,23.61046],[120.51504,23.61519],[120.51026,23.61933],[120.50946,23.62175],[120.5077,23.62299],[120.5064,23.62609],[120.50755,23.63104],[120.50594,23.63382],[120.5072,23.63491],[120.50796,23.63321],[120.50932,23.63239],[120.51336,23.634],[120.51601,23.63331],[120.51569,23.63508],[120.51258,23.63733],[120.51727,23.63645],[120.51881,23.63857],[120.5259,23.63805],[120.52769,23.63864],[120.52662,23.63938],[120.52746,23.64113],[120.52924,23.64147],[120.52974,23.64315],[120.53502,23.64271],[120.53962,23.64131],[120.53685,23.64484],[120.53568,23.64769],[120.53651,23.65199],[120.53738,23.6527],[120.5368,23.6539],[120.53832,23.65514],[120.5402,23.65933],[120.54086,23.65927],[120.54,23.66159],[120.54063,23.66358],[120.54017,23.66485],[120.53858,23.6652],[120.53674,23.6688],[120.53643,23.67161],[120.53774,23.67506],[120.54066,23.67329],[120.54382,23.67268],[120.54577,23.6733],[120.551,23.67279],[120.55395,23.67118],[120.55988,23.67121],[120.55969,23.67291],[120.56219,23.67716],[120.5634,23.67872],[120.5653,23.67838],[120.56568,23.67928],[120.56388,23.68039],[120.56415,23.68204],[120.56322,23.68349],[120.55921,23.68411],[120.55897,23.68653],[120.55675,23.6876],[120.55779,23.68842],[120.55998,23.6882],[120.56405,23.69134],[120.56869,23.69189],[120.56994,23.69082],[120.57165,23.68547],[120.57906,23.68869],[120.57779,23.69566],[120.58235,23.69446],[120.58606,23.69649],[120.58731,23.69556],[120.58959,23.69638],[120.59018,23.69549],[120.59158,23.69586],[120.59202,23.69503],[120.59378,23.69568],[120.59589,23.69409],[120.59854,23.69397],[120.60007,23.69466],[120.60047,23.69594],[120.60957,23.69722],[120.61157,23.69665],[120.61665,23.6971]]]}},{"type":"Feature","properties":{"code":"10009080","name":"雲林縣大埤鄉"},"geometry":{"type":"Polygon","coordinates":[[[120.42252,23.67341],[120.42753,23.67449],[120.42854,23.67408],[120.42965,23.67081],[120.43337,23.67089],[120.43603,23.6722],[120.43804,23.67143],[120.44049,23.67182],[120.44298,23.66981],[120.44458,23.67042],[120.44467,23.67329],[120.4455,23.67377],[120.44667,23.67295],[120.44695,23.67086],[120.44609,23.66981],[120.44717,23.66873],[120.44945,23.66963],[120.44893,23.67023],[120.44985,23.672],[120.44887,23.67247],[120.4488,23.6737],[120.45095,23.67414],[120.45444,23.67247],[120.45904,23.66832],[120.4585,23.66484],[120.46271,23.66565],[120.46614,23.66482],[120.46678,23.66752],[120.47049,23.66614],[120.47164,23.66349],[120.47448,23.66233],[120.46822,23.63328],[120.46854,23.63027],[120.4604,23.62934],[120.45848,23.62767],[120.454,23.6263],[120.45105,23.62712],[120.45403,23.62946],[120.45303,23.63069],[120.44997,23.62942],[120.4445,23.63053],[120.44264,23.62889],[120.44113,23.62597],[120.43787,23.62653],[120.43529,23.62552],[120.43535,23.62439],[120.43712,23.62356],[120.43704,23.62191],[120.43362,23.62287],[120.43181,23.62156],[120.43034,23.61847],[120.42762,23.61934],[120.42538,23.61801],[120.4218,23.61962],[120.4207,23.62516],[120.41811,23.62398],[120.4158,23.62138],[120.41382,23.62241],[120.41423,23.62305],[120.41298,23.62395],[120.4096,23.62524],[120.40663,23.62518],[120.40641,23.63254],[120.40462,23.63419],[120.40089,23.63215],[120.40264,23.62694],[120.39448,23.62405],[120.3931,23.62422],[120.39225,23.62357],[120.39241,23.62239],[120.38605,23.6207],[120.38283,23.61469],[120.38338,23.61291],[120.38068,23.61172],[120.37999,23.61001],[120.37114,23.60949],[120.36812,23.60748],[120.36651,23.60781],[120.36898,23.61458],[120.37169,23.61628],[120.38183,23.63463],[120.38797,23.65202],[120.39853,23.66295],[120.41194,23.67164],[120.41678,23.67954],[120.42252,23.67341]]]}},{"type":"Feature","properties":{"code":"10009090","name":"雲林縣莿桐鄉"},"geometry":{"type":"Polygon","coordinates":[[[120.54688,23.80138],[120.5548,23.80034],[120.56029,23.79815],[120.57386,23.79626],[120.58696,23.79191],[120.59373,23.79109],[120.58812,23.7821],[120.586,23.78018],[120.58596,23.77912],[120.57873,23.77547],[120.5785,23.77354],[120.57643,23.77218],[120.57621,23.77058],[120.57094,23.76825],[120.57136,23.76051],[120.57076,23.75974],[120.55931,23.75725],[120.55605,23.7547],[120.55352,23.75068],[120.5465,23.74971],[120.53887,23.74653],[120.53683,23.74669],[120.53625,23.74561],[120.53386,23.7449],[120.53405,23.74383],[120.53015,23.74038],[120.53015,23.73752],[120.52713,23.73554],[120.52436,23.73511],[120.52348,23.73303],[120.51781,23.73389],[120.51125,23.73076],[120.50798,23.73119],[120.50629,23.72936],[120.50334,23.72929],[120.5017,23.73215],[120.49303,23.73878],[120.49519,23.74502],[120.48696,23.7455],[120.4806,23.74458],[120.4796,23.75229],[120.48047,23.76624],[120.48078,23.76771],[120.48452,23.76885],[120.48024,23.77251],[120.47709,23.77829],[120.47722,23.78051],[120.48549,23.78228],[120.48518,23.78389],[120.49826,23.78425],[120.50042,23.78222],[120.51337,23.79998],[120.52821,23.79907],[120.53491,23.80124],[120.54688,23.80138]]]}},{"type":"Feature","properties":{"code":"10009100","name":"雲林縣林內鄉"},"geometry":{"type":"Polygon","coordinates":[[[120.61626,23.79117],[120.63024,23.78979],[120.63313,23.78889],[120.63502,23.78677],[120.64037,23.78605],[120.64243,23.7817],[120.64848,23.77328],[120.6557,23.75502],[120.65436,23.74187],[120.65582,23.73499],[120.6546,23.73446],[120.6509,23.73617],[120.6463,23.73557],[120.64444,23.73658],[120.64207,23.73064],[120.64021,23.73072],[120.63971,23.72621],[120.64135,23.72453],[120.64094,23.72359],[120.64168,23.72228],[120.64041,23.71939],[120.64049,23.7153],[120.6393,23.71377],[120.6326,23.71392],[120.63118,23.71334],[120.62978,23.71498],[120.62614,23.71669],[120.62193,23.71648],[120.62091,23.71807],[120.6194,23.71816],[120.61841,23.71938],[120.61504,23.7198],[120.61288,23.72165],[120.60994,23.72254],[120.60775,23.72651],[120.60125,23.72504],[120.60151,23.73004],[120.59784,23.72974],[120.59401,23.7317],[120.59118,23.73612],[120.5886,23.74246],[120.58497,23.73708],[120.58407,23.73809],[120.58223,23.7381],[120.58232,23.7393],[120.5801,23.74016],[120.57845,23.74242],[120.57492,23.74358],[120.57354,23.74824],[120.57153,23.75077],[120.57471,23.75466],[120.57076,23.75974],[120.57136,23.76051],[120.57087,23.76815],[120.57621,23.77058],[120.57643,23.77218],[120.5785,23.77354],[120.57873,23.77547],[120.58596,23.77912],[120.586,23.78018],[120.58812,23.7821],[120.59373,23.79109],[120.61626,23.79117]]]}},{"type":"Feature","properties":{"code":"10009110","name":"雲林縣二崙鄉"},"geometry":{"type":"Polygon","coordinates":[[[120.43993,23.82653],[120.44336,23.82266],[120.44732,23.82071],[120.44325,23.81883],[120.43752,23.8178],[120.43402,23.8135],[120.4304,23.81421],[120.43018,23.81042],[120.42897,23.81048],[120.42883,23.80869],[120.43012,23.8085],[120.4297,23.79956],[120.42833,23.79909],[120.42882,23.79351],[120.42818,23.79181],[120.42922,23.78629],[120.42588,23.78362],[120.42631,23.78231],[120.42222,23.77823],[120.42303,23.77558],[120.43144,23.77222],[120.43104,23.77107],[120.43309,23.76738],[120.43112,23.76324],[120.42547,23.76033],[120.42986,23.75929],[120.42951,23.75796],[120.43432,23.75689],[120.43295,23.75489],[120.42669,23.7546],[120.42744,23.74907],[120.42211,23.74855],[120.42033,23.74681],[120.41665,23.74962],[120.41719,23.74407],[120.40806,23.7454],[120.40039,23.74493],[120.39476,23.74688],[120.38737,23.74606],[120.38865,23.75176],[120.38971,23.76344],[120.38448,23.76372],[120.38314,23.76624],[120.35754,23.77312],[120.35957,23.78204],[120.36209,23.78137],[120.36499,23.7792],[120.36749,23.78361],[120.36594,23.7861],[120.36192,23.78941],[120.3572,23.78971],[120.35106,23.79178],[120.35316,23.80379],[120.34901,23.80728],[120.35135,23.81426],[120.35058,23.82229],[120.36011,23.82326],[120.37032,23.82856],[120.3829,23.82856],[120.41034,23.82638],[120.41791,23.82687],[120.42496,23.83017],[120.4293,23.83029],[120.43388,23.82994],[120.43993,23.82653]]]}},{"type":"Feature","properties":{"code":"10009120","name":"雲林縣崙背鄉"},"geometry":{"type":"Polygon","coordinates":[[[120.33706,23.8222],[120.35058,23.82229],[120.35135,23.81426],[120.34901,23.80728],[120.35316,23.80379],[120.35106,23.79178],[120.3572,23.78971],[120.36192,23.78941],[120.36594,23.7861],[120.36747,23.78366],[120.36499,23.7792],[120.36209,23.78137],[120.35957,23.78204],[120.35761,23.77303],[120.38314,23.76624],[120.38448,23.76372],[120.38975,23.76339],[120.38737,23.74606],[120.37819,23.74697],[120.373,23.7462],[120.37049,23.74471],[120.36382,23.74298],[120.35857,23.74257],[120.35504,23.74397],[120.35069,23.74269],[120.34919,23.74329],[120.3488,23.74485],[120.34216,23.74757],[120.33938,23.74832],[120.33164,23.74809],[120.32966,23.74543],[120.32469,23.74506],[120.32111,23.74667],[120.31587,23.74609],[120.31178,23.74474],[120.31027,23.74238],[120.3065,23.74244],[120.29899,23.74093],[120.29844,23.7482],[120.2994,23.75212],[120.30069,23.75394],[120.29872,23.75504],[120.29877,23.75622],[120.29776,23.75658],[120.29801,23.75762],[120.29719,23.75794],[120.29776,23.75984],[120.29332,23.7606],[120.29392,23.76241],[120.29497,23.76233],[120.29434,23.76365],[120.3068,23.76307],[120.30581,23.7704],[120.30594,23.77635],[120.30325,23.77741],[120.30309,23.77853],[120.30037,23.77822],[120.29983,23.77732],[120.29733,23.77733],[120.29465,23.78014],[120.29615,23.7873],[120.29532,23.78799],[120.29556,23.79005],[120.29385,23.79113],[120.29329,23.79281],[120.29398,23.79698],[120.29703,23.80485],[120.30069,23.80469],[120.3019,23.80634],[120.30206,23.82188],[120.30813,23.8203],[120.3164,23.82006],[120.33706,23.8222]]]}},{"type":"Feature","properties":{"code":"10009140","name":"雲林縣東勢鄉"},"geometry":{"type":"Polygon","coordinates":[[[120.25132,23.73589],[120.25743,23.73592],[120.26456,23.73363],[120.27305,23.73414],[120.27921,23.73616],[120.28289,23.74104],[120.28949,23.74153],[120.28925,23.72868],[120.28901,23.72731],[120.28708,23.72521],[120.28709,23.71945],[120.2829,23.71786],[120.28237,23.71447],[120.28163,23.71368],[120.28015,23.71386],[120.27919,23.71029],[120.27972,23.70974],[120.27919,23.70726],[120.28,23.70712],[120.27861,23.70316],[120.27505,23.70392],[120.27444,23.70219],[120.2712,23.70273],[120.26891,23.69353],[120.27233,23.69119],[120.27719,23.69086],[120.27767,23.69382],[120.2867,23.6914],[120.28798,23.6856],[120.29374,23.68884],[120.29891,23.69022],[120.29741,23.68868],[120.29754,23.68694],[120.29952,23.68627],[120.30477,23.68733],[120.3064,23.68386],[120.30157,23.67858],[120.29237,23.67617],[120.29004,23.67672],[120.28565,23.67977],[120.28342,23.67946],[120.28146,23.67754],[120.27881,23.67211],[120.27662,23.67151],[120.27148,23.67221],[120.26575,23.66493],[120.26007,23.66157],[120.25641,23.65669],[120.24885,23.65806],[120.24178,23.65412],[120.23857,23.65362],[120.2265,23.65821],[120.21842,23.65801],[120.22239,23.67131],[120.22039,23.67373],[120.22172,23.67929],[120.2235,23.67915],[120.22429,23.6783],[120.2283,23.67879],[120.22954,23.68533],[120.2334,23.69588],[120.22506,23.70203],[120.2252,23.70372],[120.22736,23.70356],[120.22901,23.71011],[120.23144,23.71067],[120.23335,23.71744],[120.23738,23.71701],[120.23794,23.7194],[120.24005,23.71906],[120.24092,23.72296],[120.24246,23.72325],[120.2426,23.72758],[120.2419,23.72782],[120.24212,23.72891],[120.24096,23.72904],[120.24267,23.7328],[120.23747,23.73797],[120.23764,23.73924],[120.24271,23.74442],[120.24436,23.74304],[120.24728,23.73816],[120.25132,23.73589]]]}},{"type":"Feature","properties":{"code":"10009150","name":"雲林縣褒忠鄉"},"geometry":{"type":"Polygon","coordinates":[[[120.32254,23.74643],[120.32469,23.74506],[120.32974,23.74539],[120.33193,23.74264],[120.33937,23.73774],[120.34433,23.73722],[120.34657,23.736],[120.34742,23.73766],[120.35003,23.73857],[120.35204,23.73729],[120.35294,23.72936],[120.34893,23.72905],[120.34797,23.72832],[120.34827,23.72101],[120.3445,23.72067],[120.3429,23.71004],[120.3371,23.7106],[120.34062,23.70307],[120.33493,23.70413],[120.33364,23.69588],[120.33505,23.69467],[120.33489,23.69384],[120.33313,23.6951],[120.32855,23.69599],[120.32238,23.69513],[120.31418,23.69141],[120.31037,23.68844],[120.3064,23.68386],[120.30477,23.68733],[120.29952,23.68627],[120.29754,23.68694],[120.29741,23.68868],[120.29891,23.69022],[120.29374,23.68884],[120.28798,23.6856],[120.2867,23.6914],[120.27775,23.69382],[120.27719,23.69086],[120.27224,23.69121],[120.2694,23.69267],[120.26891,23.69448],[120.2712,23.70273],[120.27444,23.70219],[120.27505,23.70392],[120.27861,23.70316],[120.28,23.70712],[120.27919,23.70726],[120.27972,23.70967],[120.27919,23.71029],[120.28015,23.71386],[120.28163,23.71368],[120.28237,23.71447],[120.2829,23.71786],[120.28709,23.71945],[120.28708,23.72521],[120.28901,23.72731],[120.28925,23.72868],[120.28949,23.74153],[120.29714,23.74066],[120.30256,23.74119],[120.3065,23.74244],[120.31027,23.74238],[120.31178,23.74474],[120.31568,23.74606],[120.32254,23.74643]]]}},{"type":"Feature","properties":{"code":"10009170","name":"雲林縣元長鄉"},"geometry":{"type":"Polygon","coordinates":[[[120.33169,23.69534],[120.33401,23.69467],[120.34314,23.68571],[120.34169,23.68215],[120.339,23.68263],[120.33806,23.67977],[120.33812,23.67685],[120.3408,23.67685],[120.3409,23.67115],[120.34327,23.67119],[120.34199,23.66566],[120.3438,23.66253],[120.34151,23.65645],[120.3412,23.65357],[120.34249,23.6533],[120.34212,23.64725],[120.34102,23.64379],[120.34342,23.64612],[120.34517,23.64583],[120.34557,23.64502],[120.3515,23.64713],[120.35555,23.64706],[120.37541,23.65355],[120.38226,23.65346],[120.38763,23.65143],[120.38318,23.63748],[120.38047,23.63189],[120.37169,23.61628],[120.36883,23.61427],[120.36628,23.60726],[120.36571,23.60247],[120.35954,23.59539],[120.35532,23.59366],[120.3427,23.59187],[120.33551,23.59285],[120.33629,23.59639],[120.3361,23.60147],[120.33233,23.60149],[120.33226,23.6039],[120.32739,23.60289],[120.32878,23.60431],[120.31992,23.60475],[120.31956,23.60713],[120.31274,23.60745],[120.31286,23.61058],[120.30751,23.61056],[120.30762,23.6114],[120.30155,23.61241],[120.30498,23.61521],[120.30196,23.61655],[120.30187,23.62054],[120.29642,23.62054],[120.29862,23.62731],[120.29771,23.62794],[120.29814,23.63009],[120.29185,23.63106],[120.29197,23.63233],[120.28178,23.63386],[120.28214,23.63759],[120.27993,23.6375],[120.2796,23.63812],[120.28064,23.64794],[120.27843,23.64728],[120.27742,23.64779],[120.27846,23.65294],[120.27565,23.65293],[120.27458,23.66078],[120.27722,23.66513],[120.27758,23.67165],[120.27919,23.67245],[120.28146,23.67754],[120.28303,23.6792],[120.28565,23.67977],[120.29181,23.67614],[120.30097,23.67835],[120.31037,23.68844],[120.31456,23.69164],[120.32325,23.69534],[120.3285,23.69599],[120.33169,23.69534]]]}},{"type":"Feature","properties":{"code":"10009200","name":"雲林縣水林鄉"},"geometry":{"type":"Polygon","coordinates":[[[120.26057,23.63307],[120.26741,23.63015],[120.26488,23.62268],[120.26418,23.61761],[120.26443,23.61658],[120.26542,23.61631],[120.26554,23.61434],[120.26797,23.61373],[120.26767,23.60971],[120.27171,23.60924],[120.26936,23.6017],[120.26865,23.60164],[120.26876,23.59825],[120.26802,23.59693],[120.27062,23.59185],[120.2677,23.5905],[120.26751,23.58657],[120.26482,23.58727],[120.26514,23.58546],[120.26266,23.58551],[120.26254,23.5799],[120.26498,23.5798],[120.26527,23.57605],[120.26608,23.57688],[120.26799,23.57692],[120.27078,23.57593],[120.27325,23.57283],[120.27236,23.57154],[120.27773,23.5701],[120.27683,23.56787],[120.27616,23.56796],[120.27566,23.56273],[120.27305,23.56369],[120.27109,23.55729],[120.27116,23.55356],[120.27371,23.55311],[120.27281,23.54937],[120.27432,23.54607],[120.2743,23.54397],[120.27702,23.54404],[120.2752,23.5407],[120.27259,23.53148],[120.27032,23.53022],[120.26843,23.53028],[120.26345,23.53353],[120.26136,23.53634],[120.25811,23.54375],[120.2561,23.54609],[120.2489,23.54576],[120.24437,23.54429],[120.24209,23.54154],[120.24195,23.53916],[120.24405,23.53261],[120.24708,23.51527],[120.24478,23.51163],[120.24052,23.50841],[120.23522,23.50645],[120.22305,23.50432],[120.20667,23.5106],[120.20681,23.51158],[120.20627,23.51114],[120.20309,23.51205],[120.20284,23.51112],[120.20099,23.5114],[120.20128,23.51244],[120.19854,23.51304],[120.19459,23.5125],[120.18993,23.51004],[120.18755,23.5106],[120.1825,23.50984],[120.18466,23.51967],[120.1867,23.52273],[120.18843,23.52353],[120.19029,23.52595],[120.19083,23.52895],[120.19408,23.52909],[120.19908,23.52768],[120.19896,23.53024],[120.2005,23.53034],[120.20055,23.54225],[120.20301,23.54256],[120.20364,23.54716],[120.19781,23.54573],[120.19899,23.55106],[120.19863,23.55371],[120.20164,23.55607],[120.20598,23.56665],[120.20524,23.56814],[120.20166,23.56904],[120.19856,23.57118],[120.20019,23.57497],[120.19908,23.57697],[120.20071,23.57862],[120.20271,23.57926],[120.20856,23.57867],[120.21114,23.58029],[120.21185,23.58233],[120.21491,23.5828],[120.2145,23.58672],[120.21565,23.58827],[120.21511,23.58993],[120.21855,23.60024],[120.22625,23.60319],[120.22868,23.60839],[120.23346,23.60873],[120.24361,23.61685],[120.24754,23.61818],[120.25125,23.62357],[120.25163,23.62858],[120.25315,23.63057],[120.25329,23.63297],[120.25438,23.63243],[120.25459,23.63319],[120.25813,23.63364],[120.26057,23.63307]]]}},{"type":"Feature","properties":{"code":"10009160","name":"雲林縣臺西鄉"},"geometry":{"type":"Polygon","coordinates":[[[120.22375,23.76202],[120.22775,23.758],[120.23397,23.75612],[120.23986,23.75027],[120.24085,23.74668],[120.24271,23.74442],[120.23859,23.7408],[120.23742,23.7381],[120.24264,23.73289],[120.24096,23.72894],[120.24212,23.72891],[120.24294,23.72537],[120.24246,23.72325],[120.24092,23.72296],[120.24005,23.71906],[120.23794,23.7194],[120.23729,23.71698],[120.23335,23.71744],[120.23144,23.71067],[120.22901,23.71011],[120.22736,23.70356],[120.2252,23.70372],[120.22506,23.70203],[120.2334,23.69588],[120.22954,23.68533],[120.2283,23.67879],[120.22429,23.6783],[120.2235,23.67915],[120.22172,23.67929],[120.22039,23.67373],[120.22239,23.67131],[120.21842,23.65801],[120.20407,23.66119],[120.19396,23.6686],[120.19084,23.6696],[120.17889,23.68177],[120.1779,23.68448],[120.1795,23.6862],[120.18064,23.69041],[120.18648,23.69938],[120.18312,23.70173],[120.18092,23.70226],[120.1705,23.70171],[120.16158,23.69982],[120.15244,23.69565],[120.14102,23.68753],[120.14603,23.69271],[120.14637,23.69626],[120.14559,23.69988],[120.14721,23.70187],[120.14638,23.70311],[120.14692,23.70675],[120.14896,23.70817],[120.15271,23.71313],[120.15619,23.71546],[120.15583,23.71944],[120.16581,23.7419],[120.16681,23.75559],[120.16778,23.75696],[120.20117,23.75674],[120.20445,23.75994],[120.20813,23.76188],[120.21636,23.76307],[120.22375,23.76202]]]}},{"type":"Feature","properties":{"code":"10009180","name":"雲林縣四湖鄉"},"geometry":{"type":"Polygon","coordinates":[[[120.18312,23.70173],[120.18648,23.69938],[120.18035,23.68988],[120.1795,23.6862],[120.1779,23.68448],[120.17822,23.68274],[120.19084,23.6696],[120.19396,23.6686],[120.2045,23.66101],[120.21129,23.65987],[120.21475,23.65841],[120.2265,23.65821],[120.23711,23.65379],[120.24086,23.65386],[120.24885,23.65806],[120.25641,23.65669],[120.26007,23.66157],[120.26575,23.66493],[120.27148,23.67221],[120.27758,23.67165],[120.27722,23.66513],[120.27458,23.66078],[120.27565,23.65293],[120.27846,23.65294],[120.27742,23.64779],[120.27843,23.64728],[120.28064,23.64794],[120.2796,23.63812],[120.27993,23.6375],[120.28214,23.63759],[120.28178,23.63386],[120.27305,23.63441],[120.27281,23.62994],[120.26855,23.6293],[120.25925,23.63349],[120.25459,23.63319],[120.25438,23.63243],[120.25329,23.63297],[120.25315,23.63057],[120.25161,23.62848],[120.25179,23.62496],[120.24857,23.61922],[120.24737,23.61808],[120.24361,23.61685],[120.23346,23.60873],[120.22868,23.60839],[120.22677,23.60374],[120.22568,23.60282],[120.21867,23.60037],[120.21513,23.59001],[120.21552,23.58786],[120.21362,23.58665],[120.20953,23.58715],[120.20998,23.59019],[120.20335,23.59133],[120.19845,23.59538],[120.19998,23.59864],[120.20003,23.60051],[120.19878,23.60076],[120.19907,23.60184],[120.20052,23.60245],[120.20077,23.60373],[120.20188,23.60362],[120.20244,23.60484],[120.20312,23.60477],[120.20297,23.60855],[120.19948,23.61056],[120.2018,23.61712],[120.18559,23.62182],[120.17764,23.62197],[120.17943,23.62744],[120.17248,23.62633],[120.16519,23.62823],[120.16719,23.63518],[120.16095,23.63681],[120.15957,23.63626],[120.1574,23.63301],[120.15561,23.63244],[120.15527,23.62769],[120.14756,23.62326],[120.14535,23.61999],[120.14116,23.62083],[120.13719,23.62063],[120.13832,23.63178],[120.13752,23.63584],[120.13576,23.63615],[120.13445,23.63421],[120.13252,23.62721],[120.13019,23.62316],[120.12697,23.62152],[120.12354,23.62184],[120.11832,23.62663],[120.11512,23.63143],[120.11444,23.63441],[120.11633,23.63768],[120.12397,23.6432],[120.12547,23.64572],[120.1286,23.65446],[120.13523,23.66714],[120.13922,23.68423],[120.14102,23.68753],[120.15244,23.69565],[120.16158,23.69982],[120.1705,23.70171],[120.18092,23.70226],[120.18312,23.70173]]]}},{"type":"Feature","properties":{"code":"10009190","name":"雲林縣口湖鄉"},"geometry":{"type":"MultiPolygon","coordinates":[[[[120.08108,23.52412],[120.0877,23.52195],[120.08857,23.52032],[120.09159,23.51984],[120.09523,23.51545],[120.09496,23.51213],[120.09615,23.5116],[120.09599,23.51088],[120.09356,23.51064],[120.09182,23.5121],[120.09015,23.51138],[120.08741,23.51221],[120.08481,23.51152],[120.08257,23.51257],[120.08214,23.51186],[120.08304,23.51079],[120.08239,23.51037],[120.08249,23.50848],[120.07929,23.50896],[120.0766,23.50733],[120.07704,23.50584],[120.07487,23.50337],[120.07767,23.50206],[120.07537,23.50137],[120.07236,23.50196],[120.07106,23.50426],[120.06991,23.50376],[120.07106,23.50319],[120.07109,23.50202],[120.06914,23.50262],[120.06855,23.50125],[120.06688,23.5003],[120.07402,23.49888],[120.07405,23.49829],[120.07096,23.49728],[120.07,23.4987],[120.0664,23.49855],[120.06531,23.49637],[120.06975,23.49665],[120.06938,23.49522],[120.0721,23.49395],[120.06919,23.4933],[120.06927,23.49126],[120.06822,23.49014],[120.0667,23.49184],[120.06527,23.49193],[120.0654,23.49464],[120.0645,23.49445],[120.06369,23.49293],[120.06202,23.49316],[120.06239,23.49173],[120.05727,23.49153],[120.05544,23.49251],[120.05386,23.49228],[120.05581,23.49142],[120.05615,23.49024],[120.06279,23.48946],[120.06514,23.48719],[120.06322,23.4861],[120.06377,23.48277],[120.06026,23.48143],[120.06253,23.48048],[120.05883,23.47891],[120.05694,23.47886],[120.05589,23.47969],[120.05493,23.47883],[120.05369,23.47894],[120.05288,23.47963],[120.05353,23.4807],[120.05642,23.48109],[120.05831,23.48269],[120.0558,23.48416],[120.05692,23.48571],[120.05432,23.48806],[120.05268,23.48795],[120.05206,23.48706],[120.05354,23.48648],[120.05233,23.48557],[120.05354,23.48508],[120.05357,23.48336],[120.0523,23.48394],[120.05202,23.48133],[120.0495,23.47952],[120.04798,23.48021],[120.04897,23.47679],[120.04724,23.47869],[120.04671,23.47775],[120.04268,23.47684],[120.04203,23.47993],[120.0456,23.48423],[120.04573,23.48821],[120.04865,23.49197],[120.05067,23.49177],[120.05144,23.49251],[120.04961,23.49375],[120.04791,23.49357],[120.04726,23.49519],[120.04658,23.49398],[120.04503,23.49357],[120.04465,23.49151],[120.04573,23.49031],[120.04468,23.48919],[120.04396,23.48431],[120.04197,23.4838],[120.04241,23.48274],[120.04002,23.48045],[120.04094,23.47852],[120.03775,23.47824],[120.03831,23.48039],[120.03729,23.48079],[120.03701,23.48252],[120.03494,23.48301],[120.03664,23.47973],[120.03546,23.47905],[120.0358,23.47753],[120.03496,23.47736],[120.0336,23.47943],[120.02979,23.4796],[120.02851,23.47817],[120.02709,23.47785],[120.0273,23.47599],[120.02485,23.47525],[120.02591,23.47304],[120.02259,23.47046],[120.02302,23.46928],[120.02578,23.4686],[120.0241,23.46745],[120.02348,23.46573],[120.0254,23.46484],[120.02456,23.46387],[120.02468,23.46074],[120.02388,23.45954],[120.02211,23.46023],[120.02013,23.45871],[120.01917,23.45944],[120.01765,23.45869],[120.01539,23.45892],[120.0139,23.45998],[120.01524,23.46107],[120.01468,23.46231],[120.01642,23.46783],[120.01964,23.46858],[120.01803,23.46952],[120.0123,23.46783],[120.0127,23.46692],[120.00889,23.46386],[120.00757,23.46106],[120.01068,23.45796],[120.01238,23.45419],[120.01445,23.45279],[120.01603,23.44809],[120.02008,23.44407],[120.01847,23.44253],[120.02033,23.44203],[120.02091,23.4392],[120.02225,23.43852],[120.02032,23.4357],[120.01918,23.43628],[120.0172,23.44141],[120.01587,23.43987],[120.0142,23.44182],[120.01547,23.44382],[120.01386,23.44514],[120.01281,23.44479],[120.01296,23.44666],[120.01132,23.44933],[120.0081,23.45196],[120.0041,23.46094],[119.99696,23.46539],[120.00032,23.47294],[120.00174,23.47404],[120.00419,23.47421],[120.00825,23.4777],[120.00912,23.47764],[120.0094,23.47856],[120.01082,23.47864],[120.01017,23.4795],[120.0125,23.48048],[120.0129,23.48214],[120.01433,23.48193],[120.01637,23.48443],[120.02152,23.48689],[120.02394,23.48921],[120.02499,23.48898],[120.02543,23.49016],[120.02645,23.49021],[120.02769,23.49159],[120.03017,23.49218],[120.03107,23.49341],[120.03774,23.49628],[120.0403,23.4989],[120.04982,23.50521],[120.05211,23.50558],[120.05229,23.5071],[120.05799,23.50956],[120.06055,23.51211],[120.06232,23.51238],[120.0634,23.51484],[120.0669,23.5153],[120.06845,23.51751],[120.07102,23.51823],[120.07327,23.5207],[120.07888,23.5228],[120.07866,23.52431],[120.08003,23.52466],[120.08092,23.52629],[120.08161,23.52615],[120.08108,23.52412]]],[[[120.09942,23.54165],[120.10188,23.54074],[120.10281,23.53857],[120.10365,23.53862],[120.10527,23.53602],[120.10801,23.53398],[120.10714,23.53292],[120.1055,23.53404],[120.10308,23.53165],[120.10858,23.53198],[120.10898,23.53058],[120.11051,23.53069],[120.11163,23.52961],[120.10933,23.5292],[120.11029,23.52811],[120.10995,23.52722],[120.1042,23.52827],[120.10361,23.52919],[120.10184,23.52962],[120.09988,23.52945],[120.09883,23.52839],[120.09942,23.52721],[120.09818,23.52609],[120.09887,23.52551],[120.09825,23.52434],[120.09897,23.52322],[120.0976,23.52142],[120.09655,23.52142],[120.09499,23.52448],[120.09353,23.52563],[120.09299,23.52768],[120.09113,23.52777],[120.09091,23.5292],[120.0919,23.52935],[120.09115,23.5312],[120.09221,23.53181],[120.09264,23.53402],[120.09685,23.53927],[120.09638,23.54127],[120.09778,23.54061],[120.09852,23.54205],[120.09942,23.54165]]],[[[120.13242,23.54673],[120.1338,23.54761],[120.13474,23.54367],[120.13694,23.54292],[120.13592,23.54065],[120.13428,23.53924],[120.13413,23.53694],[120.1325,23.53591],[120.13201,23.53416],[120.13074,23.53324],[120.13011,23.53385],[120.12924,23.53252],[120.1275,23.53284],[120.12965,23.53095],[120.13258,23.53032],[120.1271,23.53017],[120.12564,23.53118],[120.12722,23.53393],[120.1261,23.53487],[120.12781,23.53599],[120.12675,23.53693],[120.12721,23.53788],[120.12898,23.53844],[120.12845,23.53934],[120.12665,23.53958],[120.12677,23.54141],[120.12869,23.54293],[120.12642,23.54307],[120.12611,23.54416],[120.1295,23.54411],[120.13021,23.54643],[120.12921,23.54703],[120.13046,23.54819],[120.13198,23.54819],[120.13242,23.54673]]],[[[120.13232,23.56316],[120.13058,23.56175],[120.13077,23.56043],[120.13242,23.55952],[120.13071,23.55954],[120.13168,23.55722],[120.12982,23.55504],[120.13063,23.55369],[120.12986,23.55116],[120.12855,23.55194],[120.12905,23.55303],[120.12783,23.55331],[120.12767,23.55727],[120.12539,23.55879],[120.12366,23.55649],[120.12257,23.55629],[120.12273,23.55531],[120.12388,23.55503],[120.12248,23.55431],[120.12301,23.55268],[120.12071,23.55219],[120.11947,23.55077],[120.11926,23.549],[120.11652,23.54951],[120.11506,23.54784],[120.11538,23.54603],[120.11404,23.54643],[120.11355,23.54578],[120.11249,23.54649],[120.1101,23.54569],[120.10939,23.54342],[120.11063,23.54182],[120.10917,23.54153],[120.10812,23.53964],[120.10573,23.54049],[120.10554,23.54264],[120.10367,23.54384],[120.10506,23.54797],[120.1112,23.55394],[120.11144,23.55535],[120.11474,23.5557],[120.11576,23.55662],[120.12145,23.55611],[120.12288,23.55697],[120.12191,23.55829],[120.1236,23.55956],[120.12448,23.56292],[120.12896,23.56387],[120.13142,23.5631],[120.13244,23.56436],[120.13304,23.56353],[120.13232,23.56316]]],[[[120.13038,23.56901],[120.12913,23.57173],[120.12729,23.57342],[120.13033,23.57666],[120.13058,23.57801],[120.13235,23.57896],[120.13252,23.57372],[120.13038,23.56901]]],[[[120.17242,23.62634],[120.17943,23.62744],[120.17764,23.62197],[120.18559,23.62182],[120.2018,23.61712],[120.19948,23.61056],[120.20297,23.60855],[120.20312,23.60477],[120.20244,23.60484],[120.20188,23.60362],[120.20077,23.60373],[120.20052,23.60245],[120.19907,23.60184],[120.19878,23.60076],[120.20003,23.60051],[120.19998,23.59864],[120.19845,23.59538],[120.20335,23.59133],[120.20998,23.59019],[120.20953,23.58715],[120.21449,23.58704],[120.21501,23.58318],[120.21408,23.58234],[120.21185,23.58233],[120.21114,23.58029],[120.20856,23.57867],[120.20271,23.57926],[120.20071,23.57862],[120.19905,23.57692],[120.20019,23.57497],[120.19856,23.57118],[120.20166,23.56904],[120.20524,23.56814],[120.20598,23.56665],[120.20164,23.55607],[120.19863,23.55371],[120.19899,23.55106],[120.19781,23.54573],[120.20364,23.54716],[120.20301,23.54256],[120.20055,23.54225],[120.2005,23.53034],[120.19896,23.53024],[120.19908,23.52768],[120.19408,23.52909],[120.19083,23.52895],[120.19029,23.52595],[120.18843,23.52353],[120.1867,23.52273],[120.18466,23.51967],[120.1825,23.50984],[120.18014,23.51016],[120.16659,23.51723],[120.16541,23.51721],[120.16456,23.51583],[120.15814,23.51592],[120.14585,23.52082],[120.14642,23.52378],[120.14513,23.52562],[120.14538,23.52646],[120.15028,23.53193],[120.14913,23.53362],[120.14863,23.53689],[120.14547,23.539],[120.14114,23.54539],[120.14048,23.54914],[120.13942,23.54951],[120.14039,23.55433],[120.14005,23.55881],[120.13767,23.56198],[120.1408,23.5623],[120.1415,23.56301],[120.14311,23.56765],[120.14345,23.57199],[120.14137,23.57198],[120.14058,23.57349],[120.14075,23.58379],[120.14152,23.59191],[120.14436,23.59414],[120.14481,23.59729],[120.14459,23.59817],[120.14187,23.59818],[120.14148,23.60152],[120.14044,23.59748],[120.13964,23.59849],[120.13996,23.61407],[120.13656,23.61471],[120.13581,23.6157],[120.13302,23.61569],[120.13347,23.6195],[120.1349,23.62033],[120.13999,23.62091],[120.14548,23.62003],[120.14756,23.62326],[120.1551,23.6275],[120.15561,23.63244],[120.1574,23.63301],[120.15957,23.63626],[120.16095,23.63681],[120.16724,23.63515],[120.16512,23.62828],[120.17242,23.62634]]]]}}]}