{"type":"FeatureCollection","source":"https://data.gov.tw/dataset/7441 鄉鎮市區界線(TWD97經緯度)","agency":"內政部國土測繪中心","license":"政府資料開放授權條款第1版","generatedBy":"scripts/build-geo.py","features":[{"type":"Feature","properties":{"code":"10005160","name":"苗栗縣三灣鄉"},"geometry":{"type":"Polygon","coordinates":[[[120.96225,24.67789],[120.96495,24.67624],[120.96542,24.67497],[120.96832,24.67529],[120.97164,24.67299],[120.97492,24.67398],[120.97985,24.67346],[120.9832,24.66981],[120.98319,24.66719],[120.98525,24.66681],[120.98677,24.66377],[120.98908,24.66303],[120.99066,24.66478],[120.99064,24.66039],[120.99168,24.65954],[120.99509,24.6593],[120.99614,24.65802],[120.99551,24.65724],[120.9961,24.65549],[120.99712,24.65466],[121.00017,24.65474],[121.00441,24.65642],[121.006,24.65526],[121.01021,24.65625],[121.01089,24.6545],[121.01068,24.65233],[121.00811,24.6505],[121.00896,24.64757],[121.00819,24.64439],[121.00636,24.64411],[121.00515,24.64169],[120.99977,24.64291],[120.99588,24.64034],[120.99059,24.64212],[120.98882,24.64127],[120.98686,24.63786],[120.97224,24.63941],[120.96512,24.64194],[120.96189,24.64214],[120.95484,24.64645],[120.94826,24.64649],[120.95031,24.64321],[120.9506,24.64095],[120.95217,24.63923],[120.95484,24.63902],[120.9549,24.63801],[120.95644,24.63715],[120.95649,24.63382],[120.95508,24.6313],[120.95638,24.63062],[120.95631,24.62959],[120.95855,24.62946],[120.95941,24.6272],[120.95927,24.62561],[120.95777,24.6236],[120.95912,24.61965],[120.95712,24.61775],[120.9575,24.61684],[120.96094,24.61686],[120.96393,24.61918],[120.96452,24.62135],[120.96845,24.62318],[120.97289,24.6215],[120.97415,24.61938],[120.97548,24.61869],[120.98,24.62076],[120.98148,24.61823],[120.98007,24.61723],[120.98315,24.61213],[120.98388,24.60615],[120.97976,24.5959],[120.97822,24.59415],[120.97792,24.58916],[120.97456,24.58326],[120.97198,24.58499],[120.96668,24.58675],[120.96586,24.58934],[120.96346,24.59171],[120.96191,24.59215],[120.96148,24.59344],[120.95936,24.59429],[120.95886,24.59583],[120.9577,24.59591],[120.956,24.59797],[120.95595,24.59999],[120.95394,24.59962],[120.94904,24.60125],[120.9489,24.60528],[120.9453,24.60713],[120.94063,24.60575],[120.93533,24.60797],[120.9287,24.60791],[120.92498,24.60374],[120.92067,24.60384],[120.92082,24.60264],[120.91925,24.60093],[120.91838,24.60284],[120.91579,24.60094],[120.91556,24.60324],[120.91734,24.60552],[120.91914,24.60535],[120.92004,24.60606],[120.91766,24.60661],[120.91751,24.60802],[120.91618,24.60669],[120.91346,24.60827],[120.91805,24.61079],[120.91466,24.61216],[120.91408,24.61478],[120.91304,24.61508],[120.91155,24.61777],[120.91587,24.61981],[120.91588,24.62161],[120.91408,24.62215],[120.9145,24.62427],[120.91153,24.62626],[120.91171,24.62741],[120.91059,24.62848],[120.90604,24.62575],[120.90297,24.62603],[120.90019,24.62471],[120.89659,24.62542],[120.89872,24.62709],[120.89937,24.629],[120.90392,24.63177],[120.90439,24.63585],[120.90878,24.6376],[120.9094,24.64106],[120.91278,24.6418],[120.91348,24.64409],[120.91155,24.64598],[120.9122,24.65152],[120.91061,24.65367],[120.91316,24.65567],[120.91673,24.65617],[120.91988,24.65793],[120.92,24.66114],[120.92084,24.66214],[120.92814,24.66298],[120.93081,24.66103],[120.93452,24.65994],[120.93585,24.65735],[120.93978,24.65751],[120.94102,24.65891],[120.94106,24.66168],[120.94252,24.66504],[120.94479,24.66609],[120.94271,24.66701],[120.94437,24.66728],[120.94564,24.66874],[120.94336,24.66964],[120.9431,24.67087],[120.94663,24.672],[120.94929,24.67538],[120.95055,24.67893],[120.95637,24.67788],[120.9587,24.67937],[120.96225,24.67789]]]}},{"type":"Feature","properties":{"code":"10005110","name":"苗栗縣南庄鄉"},"geometry":{"type":"Polygon","coordinates":[[[120.95086,24.64635],[120.95484,24.64645],[120.96189,24.64214],[120.96512,24.64194],[120.97224,24.63941],[120.9832,24.63874],[120.9864,24.63785],[120.98752,24.63833],[120.98882,24.64127],[120.99052,24.6421],[120.99649,24.64033],[120.99977,24.64291],[121.00506,24.64163],[121.00636,24.64411],[121.0075,24.64447],[121.0106,24.64374],[121.01439,24.64085],[121.0184,24.64075],[121.02363,24.64181],[121.02588,24.64045],[121.02516,24.63782],[121.02586,24.63596],[121.02938,24.63287],[121.03346,24.63206],[121.03728,24.62964],[121.03901,24.62965],[121.04054,24.62697],[121.04351,24.62704],[121.04826,24.61983],[121.05169,24.61736],[121.05157,24.61514],[121.05332,24.61545],[121.05535,24.61789],[121.06234,24.62183],[121.06793,24.61498],[121.07493,24.6123],[121.07609,24.60891],[121.07543,24.60424],[121.07636,24.60306],[121.08128,24.60057],[121.0828,24.59483],[121.08308,24.58992],[121.0795,24.5881],[121.07874,24.58375],[121.07526,24.58067],[121.07473,24.57673],[121.07274,24.57278],[121.07059,24.56336],[121.06798,24.56213],[121.06263,24.55743],[121.0614,24.56],[121.05843,24.56063],[121.0582,24.55791],[121.06211,24.5562],[121.06302,24.55489],[121.06999,24.55058],[121.07347,24.54942],[121.07623,24.5438],[121.08056,24.54086],[121.08004,24.53769],[121.0778,24.53424],[121.07867,24.5325],[121.07812,24.52866],[121.07218,24.52635],[121.06703,24.52298],[121.06669,24.52078],[121.06852,24.51646],[121.06932,24.50933],[121.0681,24.507],[121.07032,24.50608],[121.07215,24.50314],[121.07193,24.49848],[121.07028,24.49698],[121.06651,24.49513],[121.06482,24.49645],[121.06139,24.49703],[121.05819,24.50039],[121.05729,24.49804],[121.05518,24.49674],[121.05113,24.4974],[121.0478,24.4967],[121.0457,24.49505],[121.04051,24.49497],[121.03883,24.49339],[121.03582,24.49325],[121.03238,24.49181],[121.03017,24.49279],[121.02699,24.49262],[121.02563,24.49531],[121.02591,24.49885],[121.02362,24.50192],[121.02146,24.50252],[121.02072,24.50684],[121.01227,24.51079],[121.0065,24.50881],[121.00217,24.50567],[120.99843,24.50166],[120.99617,24.502],[120.99122,24.50095],[120.98808,24.50239],[120.97924,24.50185],[120.96564,24.50656],[120.95915,24.51252],[120.9575,24.51284],[120.95455,24.51692],[120.9531,24.51679],[120.95427,24.5189],[120.95444,24.52324],[120.95122,24.52456],[120.95157,24.52662],[120.94954,24.52755],[120.94898,24.5292],[120.95159,24.5306],[120.95176,24.5325],[120.95322,24.5333],[120.95367,24.53596],[120.95527,24.5386],[120.95549,24.53991],[120.95366,24.54236],[120.95585,24.54449],[120.95633,24.55137],[120.95918,24.553],[120.96035,24.5567],[120.96243,24.55892],[120.96288,24.56091],[120.96474,24.56197],[120.97009,24.56903],[120.96936,24.57122],[120.97061,24.57636],[120.97229,24.57804],[120.97472,24.58392],[120.97715,24.58727],[120.97822,24.59415],[120.97976,24.5959],[120.98151,24.60159],[120.98327,24.60387],[120.98389,24.60726],[120.98315,24.61213],[120.98007,24.61723],[120.98149,24.6182],[120.98,24.62076],[120.97548,24.61869],[120.97415,24.61938],[120.97289,24.6215],[120.9678,24.62309],[120.96452,24.62135],[120.96393,24.61918],[120.96094,24.61686],[120.95748,24.61686],[120.95712,24.61775],[120.95912,24.61965],[120.95777,24.6236],[120.9593,24.62568],[120.95937,24.62747],[120.95855,24.62946],[120.95631,24.62959],[120.95638,24.63062],[120.95508,24.6313],[120.95649,24.63382],[120.95627,24.63756],[120.9549,24.63801],[120.95484,24.63902],[120.95217,24.63923],[120.9506,24.64095],[120.9498,24.6444],[120.94824,24.64641],[120.95086,24.64635]]]}},{"type":"Feature","properties":{"code":"10005010","name":"苗栗縣苗栗市"},"geometry":{"type":"Polygon","coordinates":[[[120.80825,24.59909],[120.81534,24.59775],[120.82444,24.5972],[120.8321,24.59129],[120.8373,24.5903],[120.84371,24.58649],[120.84508,24.58383],[120.84515,24.57684],[120.84377,24.57317],[120.84329,24.56658],[120.84152,24.56055],[120.83713,24.55622],[120.83511,24.54931],[120.82973,24.54565],[120.82633,24.54092],[120.82168,24.53957],[120.8202,24.5381],[120.81939,24.53071],[120.81567,24.52951],[120.81283,24.52688],[120.80854,24.52605],[120.80963,24.53363],[120.80792,24.53368],[120.80486,24.53147],[120.80313,24.52679],[120.80106,24.52755],[120.79876,24.52545],[120.79728,24.52565],[120.79529,24.52306],[120.79487,24.52112],[120.79199,24.5205],[120.79043,24.51873],[120.78819,24.51894],[120.78754,24.5194],[120.78771,24.52197],[120.78911,24.52602],[120.7865,24.52909],[120.78438,24.52815],[120.78285,24.52907],[120.78458,24.53041],[120.78487,24.53174],[120.78324,24.53391],[120.78497,24.53745],[120.78749,24.53841],[120.78882,24.54204],[120.79058,24.54307],[120.79081,24.54502],[120.79216,24.54638],[120.79114,24.54961],[120.79184,24.55381],[120.78978,24.55506],[120.78952,24.55948],[120.78803,24.5611],[120.78714,24.56379],[120.78308,24.56459],[120.78201,24.56314],[120.78037,24.56733],[120.7784,24.56933],[120.77872,24.57126],[120.78018,24.57325],[120.7805,24.57614],[120.77987,24.57786],[120.78089,24.57961],[120.78043,24.58193],[120.78311,24.58607],[120.7845,24.5868],[120.78405,24.58801],[120.78728,24.58753],[120.79175,24.58916],[120.79547,24.58782],[120.79678,24.58905],[120.79755,24.58814],[120.79934,24.58822],[120.80223,24.59404],[120.80347,24.59385],[120.80713,24.59896],[120.80825,24.59909]]]}},{"type":"Feature","properties":{"code":"10005070","name":"苗栗縣卓蘭鎮"},"geometry":{"type":"Polygon","coordinates":[[[120.90683,24.36422],[120.9082,24.36423],[120.9082,24.36005],[120.90985,24.3556],[120.90825,24.34825],[120.90973,24.34823],[120.90687,24.34564],[120.90712,24.34384],[120.90545,24.33977],[120.90649,24.33802],[120.90613,24.3366],[120.91096,24.3366],[120.91111,24.33578],[120.90616,24.33143],[120.90749,24.33027],[120.9029,24.32743],[120.90521,24.32525],[120.90817,24.32024],[120.90969,24.31574],[120.91177,24.31439],[120.91423,24.30836],[120.91446,24.30428],[120.90982,24.29397],[120.90498,24.29228],[120.89158,24.29408],[120.87612,24.295],[120.86684,24.29307],[120.85652,24.28899],[120.8499,24.28851],[120.83652,24.28957],[120.83338,24.29057],[120.82531,24.29678],[120.81988,24.30333],[120.81757,24.30742],[120.8071,24.31536],[120.796,24.31638],[120.78784,24.31836],[120.78383,24.31835],[120.7784,24.32011],[120.77419,24.3259],[120.7723,24.32694],[120.77416,24.32858],[120.77519,24.33117],[120.77724,24.33118],[120.78125,24.33294],[120.78284,24.33225],[120.78441,24.33382],[120.77951,24.33784],[120.77896,24.33937],[120.77755,24.33879],[120.77598,24.33932],[120.78139,24.34472],[120.78454,24.34321],[120.7838,24.3419],[120.78442,24.34137],[120.78699,24.34218],[120.79059,24.34082],[120.79264,24.34313],[120.79436,24.34174],[120.7946,24.33955],[120.79608,24.3396],[120.79845,24.34115],[120.80112,24.33922],[120.8014,24.34109],[120.80466,24.34263],[120.80654,24.34279],[120.8072,24.3418],[120.80914,24.34269],[120.81026,24.3437],[120.80965,24.3456],[120.81257,24.34729],[120.81473,24.34579],[120.81201,24.34334],[120.81193,24.34173],[120.81276,24.34102],[120.81428,24.34116],[120.81529,24.34293],[120.81905,24.34426],[120.82173,24.34171],[120.82309,24.34138],[120.82572,24.34275],[120.83134,24.34341],[120.83367,24.34481],[120.83572,24.34745],[120.83683,24.34767],[120.8386,24.34586],[120.8403,24.34603],[120.84061,24.34675],[120.83949,24.34792],[120.8408,24.34784],[120.83985,24.35034],[120.84026,24.35239],[120.84127,24.35409],[120.84482,24.35491],[120.84511,24.35683],[120.84716,24.35831],[120.84737,24.3606],[120.85313,24.36154],[120.85503,24.35879],[120.85693,24.35934],[120.85769,24.35593],[120.85988,24.35492],[120.86272,24.35771],[120.86833,24.36027],[120.87198,24.3609],[120.874,24.36313],[120.87533,24.3607],[120.87865,24.36025],[120.88499,24.3638],[120.889,24.36297],[120.8913,24.36357],[120.89848,24.36276],[120.8995,24.36193],[120.90426,24.36501],[120.90683,24.36422]]]}},{"type":"Feature","properties":{"code":"10005080","name":"苗栗縣大湖鄉"},"geometry":{"type":"Polygon","coordinates":[[[120.87702,24.45417],[120.88336,24.4495],[120.88322,24.44824],[120.88497,24.44683],[120.88874,24.44507],[120.89276,24.44453],[120.8984,24.445],[120.90413,24.44711],[120.90505,24.44595],[120.90649,24.44626],[120.90996,24.44374],[120.91323,24.4365],[120.91212,24.43445],[120.91173,24.42879],[120.91062,24.42531],[120.90715,24.42333],[120.90815,24.42211],[120.90741,24.42033],[120.90802,24.41844],[120.90708,24.41661],[120.91153,24.4135],[120.91223,24.40769],[120.91769,24.40335],[120.91962,24.39823],[120.91899,24.39514],[120.91547,24.39097],[120.91428,24.38797],[120.915,24.38606],[120.91392,24.38088],[120.91481,24.37592],[120.91371,24.37429],[120.9137,24.36768],[120.91238,24.36488],[120.90693,24.36421],[120.90426,24.36501],[120.8995,24.36193],[120.89848,24.36276],[120.8913,24.36357],[120.889,24.36297],[120.88499,24.3638],[120.87865,24.36025],[120.87533,24.3607],[120.874,24.36313],[120.87198,24.3609],[120.86833,24.36027],[120.86272,24.35771],[120.85988,24.35492],[120.85769,24.35593],[120.85693,24.35934],[120.85503,24.35879],[120.85351,24.3612],[120.85231,24.36175],[120.8513,24.36096],[120.84719,24.36052],[120.84716,24.35831],[120.84511,24.35683],[120.84482,24.35491],[120.84123,24.35406],[120.83988,24.35135],[120.8408,24.34818],[120.83949,24.34792],[120.84061,24.34675],[120.8403,24.34603],[120.8386,24.34586],[120.83683,24.34767],[120.83539,24.34736],[120.83367,24.34481],[120.83053,24.34306],[120.82572,24.34275],[120.82268,24.34137],[120.8201,24.34395],[120.81871,24.34424],[120.81529,24.34293],[120.81446,24.34127],[120.81306,24.34089],[120.81193,24.34173],[120.81201,24.34334],[120.81473,24.34579],[120.81257,24.34729],[120.80965,24.3456],[120.81026,24.3437],[120.80914,24.34269],[120.8072,24.3418],[120.80654,24.34279],[120.80466,24.34263],[120.8014,24.34109],[120.80112,24.33922],[120.79845,24.34115],[120.79608,24.3396],[120.7946,24.33955],[120.79436,24.34174],[120.79264,24.34313],[120.79059,24.34082],[120.78699,24.34218],[120.78442,24.34137],[120.7838,24.3419],[120.78454,24.34321],[120.78165,24.34476],[120.77598,24.33932],[120.77548,24.34217],[120.77731,24.34481],[120.77666,24.34658],[120.77774,24.35022],[120.7796,24.35066],[120.78357,24.35341],[120.78498,24.35186],[120.78656,24.35327],[120.78768,24.353],[120.79542,24.35651],[120.80692,24.36675],[120.80696,24.37123],[120.81008,24.3734],[120.81098,24.37522],[120.81477,24.3748],[120.81864,24.37597],[120.8223,24.38302],[120.82261,24.38888],[120.82501,24.39091],[120.82522,24.39493],[120.83117,24.39607],[120.83526,24.40036],[120.83754,24.40165],[120.83719,24.40303],[120.83977,24.40474],[120.8407,24.40626],[120.84041,24.40819],[120.83818,24.4112],[120.83637,24.41178],[120.83609,24.41331],[120.83717,24.41583],[120.84005,24.41688],[120.84274,24.42184],[120.84298,24.42275],[120.84201,24.42405],[120.84318,24.42552],[120.83954,24.42624],[120.83905,24.4293],[120.84153,24.42968],[120.84611,24.43713],[120.85193,24.43924],[120.85361,24.43913],[120.85547,24.4407],[120.85605,24.44248],[120.85797,24.44378],[120.85783,24.44485],[120.86029,24.44595],[120.86043,24.44718],[120.86236,24.4481],[120.86414,24.45301],[120.86647,24.45366],[120.86691,24.45575],[120.87097,24.45626],[120.87118,24.45548],[120.87385,24.45415],[120.87417,24.4573],[120.87702,24.45417]]]}},{"type":"Feature","properties":{"code":"10005090","name":"苗栗縣公館鄉"},"geometry":{"type":"Polygon","coordinates":[[[120.84404,24.55968],[120.84503,24.55961],[120.84623,24.55591],[120.84534,24.55394],[120.8466,24.55117],[120.84566,24.54921],[120.84781,24.54653],[120.84996,24.54558],[120.85063,24.54598],[120.85271,24.54484],[120.85317,24.54372],[120.85558,24.54401],[120.85634,24.54147],[120.86049,24.5394],[120.86707,24.53849],[120.8728,24.54117],[120.87425,24.53902],[120.87636,24.54079],[120.88024,24.54085],[120.88123,24.54186],[120.8845,24.54272],[120.88547,24.54191],[120.88876,24.54397],[120.89228,24.54229],[120.89657,24.5416],[120.89947,24.54263],[120.90116,24.54132],[120.90354,24.54203],[120.90784,24.53775],[120.90551,24.5307],[120.90245,24.52559],[120.89908,24.52425],[120.89967,24.52184],[120.89532,24.51501],[120.89141,24.5135],[120.89164,24.51038],[120.8871,24.51193],[120.88435,24.50863],[120.88319,24.50909],[120.88224,24.50815],[120.87898,24.50437],[120.88027,24.50215],[120.87881,24.49885],[120.876,24.49643],[120.8755,24.49186],[120.87288,24.49045],[120.87247,24.48904],[120.87308,24.48738],[120.8716,24.48634],[120.87093,24.48241],[120.86934,24.47997],[120.86593,24.46964],[120.86652,24.46697],[120.8647,24.46429],[120.8685,24.46445],[120.87689,24.46688],[120.8777,24.46446],[120.87362,24.4562],[120.87388,24.45419],[120.87118,24.45548],[120.87097,24.45626],[120.86691,24.45575],[120.86647,24.45366],[120.86414,24.45301],[120.86236,24.4481],[120.86043,24.44718],[120.86029,24.44595],[120.85783,24.44485],[120.85797,24.44378],[120.85605,24.44248],[120.85547,24.4407],[120.85361,24.43913],[120.85193,24.43924],[120.84622,24.43719],[120.84499,24.43539],[120.84209,24.43859],[120.84487,24.44663],[120.84033,24.44866],[120.83926,24.4537],[120.8339,24.4576],[120.82968,24.45759],[120.82806,24.45866],[120.82783,24.46001],[120.82602,24.46146],[120.82608,24.46402],[120.81614,24.46855],[120.81407,24.47219],[120.81422,24.47341],[120.81263,24.47452],[120.8125,24.48317],[120.81121,24.4869],[120.81313,24.49499],[120.81091,24.50081],[120.81231,24.50266],[120.81209,24.50426],[120.81332,24.50666],[120.81351,24.51049],[120.81133,24.51325],[120.81167,24.51735],[120.81307,24.51871],[120.81312,24.52112],[120.81425,24.52255],[120.81283,24.52688],[120.81567,24.52951],[120.81939,24.53071],[120.82006,24.5378],[120.82082,24.5389],[120.82633,24.54092],[120.82973,24.54565],[120.83511,24.54931],[120.83713,24.55622],[120.83943,24.55885],[120.84152,24.56055],[120.84404,24.55968]]]}},{"type":"Feature","properties":{"code":"10005100","name":"苗栗縣銅鑼鄉"},"geometry":{"type":"Polygon","coordinates":[[[120.80882,24.53373],[120.80963,24.53358],[120.80851,24.52607],[120.81283,24.52688],[120.81426,24.52294],[120.81312,24.52112],[120.81313,24.51884],[120.81163,24.51721],[120.81138,24.51274],[120.81351,24.51039],[120.81321,24.50594],[120.81209,24.50426],[120.8124,24.50292],[120.81091,24.50081],[120.81313,24.49499],[120.81121,24.4869],[120.8125,24.48317],[120.81263,24.47452],[120.81422,24.47341],[120.81407,24.47219],[120.81614,24.46855],[120.82603,24.46406],[120.82602,24.46146],[120.82783,24.46001],[120.82806,24.45866],[120.82968,24.45759],[120.8339,24.4576],[120.83529,24.45604],[120.83787,24.45495],[120.84006,24.45205],[120.84033,24.44866],[120.84487,24.44663],[120.84209,24.43859],[120.84439,24.43665],[120.84491,24.43514],[120.84153,24.42968],[120.83883,24.42875],[120.8397,24.42611],[120.84318,24.42552],[120.84201,24.42405],[120.84298,24.42264],[120.84005,24.41688],[120.83717,24.41583],[120.83609,24.41331],[120.83637,24.41178],[120.83818,24.4112],[120.83993,24.4092],[120.84068,24.40618],[120.83719,24.40303],[120.83754,24.40165],[120.83526,24.40036],[120.83117,24.39607],[120.82522,24.39493],[120.82503,24.39098],[120.8239,24.38947],[120.8213,24.38847],[120.81888,24.38941],[120.81622,24.38804],[120.81326,24.38948],[120.81105,24.39352],[120.81171,24.39588],[120.81127,24.3969],[120.80686,24.40069],[120.80429,24.40144],[120.80331,24.40494],[120.80095,24.40673],[120.80166,24.40906],[120.79548,24.41183],[120.79212,24.41433],[120.78953,24.41481],[120.78602,24.4193],[120.78608,24.42058],[120.78747,24.42185],[120.78739,24.42494],[120.78902,24.43117],[120.78802,24.43405],[120.78329,24.43459],[120.78088,24.43613],[120.77621,24.43606],[120.77565,24.43784],[120.77355,24.43815],[120.76834,24.43576],[120.76319,24.43453],[120.75252,24.42894],[120.75118,24.42888],[120.75246,24.43341],[120.75215,24.43594],[120.75355,24.43703],[120.75305,24.43799],[120.75472,24.44105],[120.7553,24.44544],[120.75453,24.44779],[120.75607,24.45011],[120.75429,24.4524],[120.75431,24.4589],[120.75163,24.46374],[120.75124,24.46604],[120.75337,24.47087],[120.75628,24.4727],[120.75981,24.47885],[120.76249,24.4808],[120.7619,24.4848],[120.76318,24.4855],[120.76376,24.48947],[120.76609,24.49171],[120.76749,24.49478],[120.77224,24.50043],[120.77771,24.5026],[120.77862,24.50554],[120.77737,24.51182],[120.77962,24.51203],[120.78087,24.51109],[120.78328,24.51182],[120.78433,24.5134],[120.78512,24.5133],[120.7876,24.5155],[120.78754,24.5194],[120.79043,24.51873],[120.79199,24.5205],[120.79487,24.52112],[120.79529,24.52306],[120.7971,24.52552],[120.79876,24.52545],[120.80106,24.52755],[120.80313,24.52679],[120.80493,24.53157],[120.80882,24.53373]]]}},{"type":"Feature","properties":{"code":"10005120","name":"苗栗縣頭屋鄉"},"geometry":{"type":"Polygon","coordinates":[[[120.88214,24.60385],[120.8837,24.60397],[120.88483,24.60138],[120.88796,24.60252],[120.88889,24.6021],[120.89164,24.60358],[120.894,24.60232],[120.8947,24.60019],[120.89777,24.6007],[120.90025,24.59958],[120.90097,24.60021],[120.90251,24.59996],[120.90296,24.59771],[120.90404,24.59708],[120.90489,24.59479],[120.90719,24.59596],[120.90841,24.59569],[120.90897,24.59693],[120.91083,24.59715],[120.91245,24.59891],[120.91278,24.59561],[120.91652,24.5963],[120.91686,24.59456],[120.91872,24.5944],[120.92111,24.59709],[120.92219,24.59564],[120.92382,24.59616],[120.92564,24.59502],[120.92598,24.59348],[120.92897,24.59379],[120.92907,24.59247],[120.93088,24.59036],[120.93334,24.59161],[120.93686,24.58956],[120.93439,24.58476],[120.93416,24.58054],[120.93133,24.57957],[120.92242,24.56491],[120.91924,24.558],[120.91437,24.55923],[120.91036,24.55736],[120.906,24.55047],[120.90621,24.54686],[120.90349,24.54203],[120.90116,24.54132],[120.89947,24.54263],[120.89657,24.5416],[120.89228,24.54229],[120.88871,24.54397],[120.88547,24.54191],[120.8845,24.54272],[120.88123,24.54186],[120.88024,24.54085],[120.87636,24.54079],[120.87425,24.53902],[120.8728,24.54117],[120.86707,24.53849],[120.86049,24.5394],[120.85634,24.54147],[120.85558,24.54401],[120.85339,24.54365],[120.85063,24.54598],[120.84996,24.54558],[120.84793,24.54641],[120.84566,24.54921],[120.8466,24.55117],[120.84536,24.55377],[120.84623,24.55591],[120.84503,24.55961],[120.84151,24.56063],[120.84331,24.56668],[120.84378,24.57322],[120.84507,24.57547],[120.84508,24.58383],[120.84373,24.58647],[120.84466,24.58758],[120.84471,24.59079],[120.84023,24.59584],[120.83355,24.6006],[120.83678,24.60152],[120.83977,24.60105],[120.83976,24.60327],[120.84349,24.60368],[120.84585,24.60367],[120.85079,24.59999],[120.85234,24.60123],[120.85824,24.60031],[120.86018,24.60343],[120.86232,24.60243],[120.87102,24.60316],[120.8766,24.60201],[120.88035,24.60449],[120.88214,24.60385]]]}},{"type":"Feature","properties":{"code":"10005130","name":"苗栗縣三義鄉"},"geometry":{"type":"Polygon","coordinates":[[[120.77405,24.43801],[120.77565,24.43784],[120.77621,24.43606],[120.78088,24.43613],[120.78329,24.43459],[120.78824,24.43388],[120.78902,24.43117],[120.78739,24.42494],[120.78747,24.42185],[120.78604,24.42039],[120.7869,24.41799],[120.78953,24.41481],[120.79212,24.41433],[120.79548,24.41183],[120.80166,24.40906],[120.80095,24.40673],[120.80331,24.40494],[120.80429,24.40144],[120.80686,24.40069],[120.81147,24.39663],[120.81105,24.39352],[120.81337,24.38935],[120.81622,24.38804],[120.81888,24.38941],[120.8213,24.38847],[120.82269,24.38912],[120.82294,24.38714],[120.8223,24.38302],[120.81864,24.37597],[120.81477,24.3748],[120.81098,24.37522],[120.81008,24.3734],[120.80696,24.37123],[120.80692,24.36675],[120.79765,24.35906],[120.7967,24.35751],[120.79093,24.35428],[120.78934,24.3542],[120.78759,24.35297],[120.78656,24.35327],[120.78536,24.35196],[120.7836,24.35342],[120.7796,24.35066],[120.77774,24.35022],[120.77666,24.34658],[120.77731,24.34481],[120.77548,24.34217],[120.77594,24.3394],[120.77746,24.33879],[120.77896,24.33937],[120.77951,24.33784],[120.78444,24.33388],[120.78284,24.33225],[120.78125,24.33294],[120.77724,24.33118],[120.77528,24.33122],[120.77416,24.32858],[120.77232,24.32722],[120.77419,24.3259],[120.7777,24.32061],[120.77412,24.32131],[120.76709,24.32556],[120.763,24.32601],[120.75825,24.32878],[120.75224,24.33417],[120.74626,24.33802],[120.73061,24.35167],[120.72435,24.3541],[120.72692,24.36272],[120.72967,24.36448],[120.72906,24.36789],[120.7297,24.36929],[120.72878,24.37058],[120.72998,24.3735],[120.72871,24.3753],[120.72889,24.37667],[120.73112,24.37725],[120.73098,24.37889],[120.73275,24.37965],[120.73311,24.38281],[120.73451,24.38339],[120.73594,24.38642],[120.73741,24.38749],[120.73771,24.38917],[120.74744,24.40047],[120.7479,24.40375],[120.75144,24.40886],[120.75088,24.41063],[120.7489,24.41162],[120.74961,24.41317],[120.74822,24.41473],[120.74798,24.419],[120.75175,24.42225],[120.75211,24.42549],[120.75071,24.42668],[120.75129,24.4284],[120.76319,24.43453],[120.77405,24.43801]]]}},{"type":"Feature","properties":{"code":"10005140","name":"苗栗縣西湖鄉"},"geometry":{"type":"Polygon","coordinates":[[[120.76833,24.58138],[120.77014,24.58039],[120.77161,24.57508],[120.77374,24.57428],[120.77382,24.57325],[120.7755,24.57227],[120.77509,24.57138],[120.77576,24.57054],[120.77746,24.57023],[120.78031,24.56742],[120.78201,24.56314],[120.78308,24.56459],[120.7873,24.56359],[120.78803,24.5611],[120.78952,24.55948],[120.78978,24.55506],[120.79184,24.55381],[120.79114,24.54961],[120.79216,24.54638],[120.79081,24.54502],[120.79058,24.54307],[120.78882,24.54204],[120.78749,24.53841],[120.78497,24.53745],[120.78324,24.53391],[120.78487,24.53174],[120.78458,24.53041],[120.78285,24.52907],[120.78438,24.52815],[120.7865,24.52909],[120.78911,24.52602],[120.78771,24.52197],[120.78767,24.51563],[120.78319,24.51177],[120.78087,24.51109],[120.77962,24.51203],[120.77737,24.51182],[120.77862,24.50554],[120.77778,24.50272],[120.77164,24.49989],[120.76607,24.49272],[120.76609,24.49171],[120.76379,24.48953],[120.7633,24.48723],[120.76195,24.48961],[120.75888,24.49179],[120.75725,24.49138],[120.75598,24.4925],[120.75522,24.49538],[120.75651,24.49785],[120.75807,24.49868],[120.75827,24.5015],[120.7609,24.50349],[120.76133,24.50622],[120.75666,24.50459],[120.75532,24.50608],[120.75107,24.50705],[120.74959,24.50827],[120.74872,24.51064],[120.75005,24.51348],[120.74978,24.51704],[120.74656,24.51734],[120.74416,24.51975],[120.7456,24.52368],[120.74401,24.52365],[120.74283,24.52462],[120.74157,24.52893],[120.7392,24.53104],[120.73858,24.53288],[120.73964,24.53619],[120.73742,24.53858],[120.73486,24.53685],[120.734,24.53733],[120.7345,24.54011],[120.73396,24.54171],[120.73508,24.5438],[120.73427,24.54453],[120.73437,24.54624],[120.73319,24.54673],[120.7319,24.54592],[120.73139,24.54804],[120.73196,24.54893],[120.72972,24.5518],[120.72804,24.55271],[120.72595,24.55249],[120.7245,24.55378],[120.72719,24.558],[120.72704,24.56002],[120.7322,24.56813],[120.73423,24.56835],[120.73667,24.5699],[120.73699,24.57093],[120.73903,24.57118],[120.73986,24.57227],[120.73933,24.57307],[120.74104,24.57438],[120.74018,24.57506],[120.74445,24.5767],[120.74422,24.57871],[120.74718,24.57903],[120.74839,24.57806],[120.75297,24.58124],[120.75516,24.57977],[120.75824,24.57972],[120.76051,24.58092],[120.76427,24.57972],[120.76833,24.58138]]]}},{"type":"Feature","properties":{"code":"10005150","name":"苗栗縣造橋鄉"},"geometry":{"type":"Polygon","coordinates":[[[120.86447,24.66624],[120.8675,24.66503],[120.86764,24.65721],[120.86954,24.65256],[120.87103,24.65185],[120.87514,24.65304],[120.87502,24.64831],[120.87579,24.64753],[120.87833,24.64739],[120.87789,24.64578],[120.8756,24.64344],[120.87765,24.63983],[120.88051,24.64035],[120.8772,24.63792],[120.87825,24.63638],[120.88052,24.63811],[120.87814,24.63413],[120.88047,24.63178],[120.88692,24.62801],[120.88771,24.6263],[120.88918,24.62651],[120.89058,24.62541],[120.89309,24.6256],[120.89407,24.62912],[120.89544,24.62838],[120.89622,24.62576],[120.89819,24.62478],[120.90089,24.6248],[120.90297,24.62603],[120.90642,24.62585],[120.91059,24.62848],[120.91171,24.62741],[120.91153,24.62626],[120.9145,24.62427],[120.91408,24.62215],[120.91588,24.62161],[120.91587,24.61981],[120.91155,24.61777],[120.91304,24.61508],[120.91408,24.61478],[120.91466,24.61216],[120.91805,24.61079],[120.91346,24.60827],[120.91618,24.60669],[120.91751,24.60802],[120.91766,24.60661],[120.92004,24.60606],[120.91914,24.60535],[120.91734,24.60552],[120.91556,24.60324],[120.91573,24.60098],[120.91838,24.60284],[120.91925,24.60093],[120.92082,24.60264],[120.92067,24.60384],[120.92498,24.60374],[120.9285,24.60786],[120.93533,24.60797],[120.94057,24.60576],[120.9453,24.60713],[120.94876,24.60541],[120.94942,24.60348],[120.94871,24.60017],[120.94602,24.59814],[120.94491,24.59621],[120.94181,24.59591],[120.93686,24.58956],[120.93334,24.59161],[120.93088,24.59036],[120.92907,24.59247],[120.92897,24.59379],[120.92598,24.59348],[120.92556,24.5951],[120.92382,24.59616],[120.92219,24.59564],[120.92153,24.59707],[120.91867,24.59438],[120.91676,24.59463],[120.91652,24.5963],[120.91278,24.59561],[120.91265,24.5989],[120.91077,24.59712],[120.90955,24.59738],[120.90841,24.59569],[120.90727,24.59598],[120.90485,24.5948],[120.90404,24.59708],[120.90296,24.59771],[120.90272,24.59986],[120.90097,24.60021],[120.90019,24.59959],[120.89777,24.6007],[120.8947,24.60019],[120.894,24.60232],[120.89173,24.60357],[120.88889,24.6021],[120.88796,24.60252],[120.88496,24.60138],[120.8837,24.60397],[120.88049,24.60449],[120.87848,24.60384],[120.8766,24.60201],[120.87102,24.60316],[120.86232,24.60243],[120.86028,24.60344],[120.85824,24.60031],[120.85234,24.60123],[120.85046,24.59999],[120.84573,24.60371],[120.83967,24.60326],[120.83631,24.60449],[120.83473,24.60375],[120.83207,24.60697],[120.83522,24.6132],[120.83415,24.61489],[120.8318,24.6161],[120.83229,24.6174],[120.83026,24.62033],[120.82922,24.62537],[120.82263,24.62361],[120.82192,24.62454],[120.82063,24.62456],[120.82039,24.6276],[120.81905,24.63046],[120.81696,24.62917],[120.81578,24.62496],[120.81346,24.62646],[120.8148,24.62961],[120.81912,24.63495],[120.81968,24.63704],[120.81876,24.63828],[120.81905,24.63962],[120.82167,24.64147],[120.82278,24.64117],[120.82558,24.64375],[120.82751,24.64753],[120.82894,24.64807],[120.83132,24.6519],[120.83184,24.65419],[120.83549,24.65696],[120.84016,24.66574],[120.8449,24.66274],[120.85002,24.66222],[120.85807,24.6651],[120.86447,24.66624]]]}},{"type":"Feature","properties":{"code":"10005170","name":"苗栗縣獅潭鄉"},"geometry":{"type":"Polygon","coordinates":[[[120.95089,24.60084],[120.95394,24.59962],[120.95595,24.59999],[120.956,24.59797],[120.9577,24.59591],[120.95886,24.59583],[120.95936,24.59429],[120.96148,24.59344],[120.96191,24.59215],[120.96346,24.59171],[120.96586,24.58934],[120.96668,24.58675],[120.97198,24.58499],[120.97456,24.58326],[120.97245,24.57831],[120.9706,24.57633],[120.96936,24.57122],[120.97009,24.56903],[120.96474,24.56197],[120.96288,24.56091],[120.96243,24.55892],[120.96035,24.5567],[120.95918,24.553],[120.95633,24.55137],[120.95585,24.54449],[120.95366,24.54236],[120.95549,24.53991],[120.95527,24.5386],[120.95367,24.53596],[120.95322,24.5333],[120.95176,24.5325],[120.95159,24.5306],[120.94898,24.5292],[120.94954,24.52755],[120.95157,24.52662],[120.95122,24.52456],[120.95444,24.52324],[120.95427,24.5189],[120.9531,24.51679],[120.95455,24.51692],[120.9575,24.51284],[120.95915,24.51252],[120.96564,24.50656],[120.9627,24.50439],[120.95497,24.50481],[120.95387,24.50656],[120.94955,24.50653],[120.94668,24.50332],[120.94323,24.50342],[120.9396,24.49944],[120.9331,24.49676],[120.92976,24.4981],[120.92692,24.49624],[120.92121,24.49554],[120.91922,24.49024],[120.92041,24.48686],[120.92054,24.48251],[120.92192,24.48096],[120.9165,24.47389],[120.91637,24.46912],[120.91488,24.46759],[120.91651,24.46537],[120.91361,24.46229],[120.912,24.45909],[120.91094,24.45259],[120.90582,24.44785],[120.89916,24.44518],[120.89203,24.44456],[120.88666,24.44579],[120.88322,24.44824],[120.88336,24.4495],[120.87671,24.45436],[120.87417,24.4573],[120.8777,24.46446],[120.87689,24.46688],[120.8685,24.46445],[120.8647,24.46429],[120.86652,24.46697],[120.86593,24.46964],[120.86934,24.47997],[120.87093,24.48241],[120.8716,24.48634],[120.87308,24.48738],[120.87247,24.48904],[120.87288,24.49045],[120.8755,24.49186],[120.876,24.49643],[120.87881,24.49885],[120.88027,24.50215],[120.87903,24.50446],[120.88319,24.50909],[120.88435,24.50863],[120.88669,24.51181],[120.89164,24.51038],[120.89141,24.5135],[120.89532,24.51501],[120.89967,24.52184],[120.89908,24.52425],[120.90245,24.52559],[120.90551,24.5307],[120.90784,24.53775],[120.90595,24.53897],[120.90357,24.54266],[120.90598,24.54617],[120.906,24.55047],[120.90868,24.55521],[120.9098,24.5558],[120.91052,24.5575],[120.91418,24.5592],[120.91924,24.558],[120.92242,24.56491],[120.93133,24.57957],[120.93416,24.58054],[120.93442,24.58484],[120.93892,24.59262],[120.94181,24.59591],[120.945,24.59628],[120.94907,24.60124],[120.95089,24.60084]]]}},{"type":"Feature","properties":{"code":"10005020","name":"苗栗縣苑裡鎮"},"geometry":{"type":"Polygon","coordinates":[[[120.65814,24.44887],[120.66262,24.4513],[120.66717,24.45573],[120.67114,24.45543],[120.67855,24.45248],[120.68204,24.44971],[120.68216,24.44846],[120.68403,24.44825],[120.68458,24.44536],[120.69279,24.4415],[120.69396,24.4395],[120.69806,24.43952],[120.69941,24.43779],[120.70148,24.43749],[120.70247,24.43647],[120.70697,24.4365],[120.71127,24.43422],[120.71277,24.43165],[120.71265,24.42993],[120.71492,24.42863],[120.71544,24.42616],[120.71669,24.425],[120.71601,24.42347],[120.71631,24.42167],[120.71804,24.42201],[120.72103,24.4212],[120.72299,24.41674],[120.72525,24.41484],[120.72525,24.41388],[120.72617,24.4138],[120.72866,24.40929],[120.73249,24.40947],[120.73821,24.40719],[120.74185,24.40793],[120.74428,24.4071],[120.74635,24.40512],[120.74843,24.40469],[120.74744,24.40047],[120.73771,24.38917],[120.73741,24.38749],[120.73594,24.38642],[120.73451,24.38339],[120.73311,24.38281],[120.73275,24.37965],[120.73098,24.37889],[120.73112,24.37725],[120.72889,24.37667],[120.72871,24.3753],[120.72998,24.3735],[120.72878,24.37058],[120.7297,24.36929],[120.72906,24.36789],[120.72967,24.36448],[120.72692,24.36272],[120.72435,24.3541],[120.7073,24.35787],[120.70743,24.36173],[120.70341,24.3618],[120.69276,24.36714],[120.68995,24.37434],[120.68854,24.37497],[120.68575,24.3789],[120.6774,24.38403],[120.67865,24.38707],[120.67593,24.38837],[120.67315,24.39099],[120.67011,24.39196],[120.66748,24.39619],[120.66741,24.39783],[120.66425,24.40172],[120.65821,24.4066],[120.64884,24.40949],[120.64817,24.41132],[120.64597,24.41229],[120.64526,24.41457],[120.64334,24.41534],[120.6432,24.42171],[120.64029,24.42412],[120.63966,24.42777],[120.6321,24.43242],[120.6286,24.43804],[120.62186,24.44029],[120.6279,24.4457],[120.63136,24.44763],[120.63259,24.44977],[120.63879,24.45541],[120.63962,24.45667],[120.63961,24.46001],[120.64545,24.46434],[120.65562,24.46166],[120.65929,24.45973],[120.65732,24.45575],[120.66076,24.45327],[120.65814,24.44887]]]}},{"type":"Feature","properties":{"code":"10005030","name":"苗栗縣通霄鎮"},"geometry":{"type":"Polygon","coordinates":[[[120.71251,24.57349],[120.71266,24.57206],[120.71421,24.57102],[120.71618,24.5716],[120.71673,24.57299],[120.71884,24.57257],[120.71977,24.56681],[120.72704,24.56002],[120.72719,24.558],[120.7245,24.55378],[120.72595,24.55249],[120.72804,24.55271],[120.72972,24.5518],[120.73196,24.54893],[120.73139,24.54804],[120.7319,24.54592],[120.73319,24.54673],[120.73437,24.54624],[120.73427,24.54453],[120.73508,24.5438],[120.73396,24.54171],[120.7345,24.54011],[120.734,24.53733],[120.73486,24.53685],[120.73742,24.53858],[120.73964,24.53619],[120.73858,24.53288],[120.7392,24.53104],[120.74157,24.52893],[120.74283,24.52462],[120.74401,24.52365],[120.7456,24.52368],[120.74416,24.51975],[120.74656,24.51734],[120.74978,24.51704],[120.75005,24.51348],[120.74872,24.51064],[120.74959,24.50827],[120.75107,24.50705],[120.75532,24.50608],[120.75666,24.50459],[120.75964,24.50531],[120.76078,24.50654],[120.76157,24.50572],[120.76075,24.50326],[120.75827,24.5015],[120.75807,24.49868],[120.75651,24.49785],[120.75522,24.49538],[120.75598,24.4925],[120.75725,24.49138],[120.75888,24.49179],[120.76195,24.48961],[120.7633,24.48723],[120.76318,24.4855],[120.76189,24.48474],[120.76252,24.48086],[120.75981,24.47885],[120.75628,24.4727],[120.75343,24.47096],[120.75124,24.46607],[120.75163,24.46374],[120.75431,24.4589],[120.75429,24.4524],[120.75607,24.45011],[120.75453,24.44779],[120.7553,24.44544],[120.75472,24.44105],[120.75305,24.43799],[120.75355,24.43703],[120.75215,24.43594],[120.75246,24.43341],[120.75071,24.42673],[120.75211,24.42549],[120.75183,24.42249],[120.74798,24.419],[120.74822,24.41473],[120.74961,24.41317],[120.7489,24.41162],[120.75088,24.41063],[120.75145,24.40902],[120.74843,24.40469],[120.74635,24.40512],[120.74428,24.4071],[120.74185,24.40793],[120.73821,24.40719],[120.73249,24.40947],[120.72866,24.40929],[120.72617,24.4138],[120.72525,24.41388],[120.72525,24.41484],[120.72299,24.41674],[120.72103,24.4212],[120.71804,24.42201],[120.71631,24.42167],[120.71601,24.42347],[120.71669,24.425],[120.71544,24.42616],[120.71492,24.42863],[120.71265,24.42993],[120.71277,24.43165],[120.71127,24.43422],[120.70697,24.4365],[120.70247,24.43647],[120.70148,24.43749],[120.69941,24.43779],[120.69806,24.43952],[120.69396,24.4395],[120.69279,24.4415],[120.68458,24.44536],[120.68403,24.44825],[120.68216,24.44846],[120.68204,24.44971],[120.67855,24.45248],[120.67114,24.45543],[120.66717,24.45573],[120.66262,24.4513],[120.65818,24.44884],[120.6587,24.45077],[120.66076,24.45327],[120.65732,24.45575],[120.65929,24.45973],[120.65562,24.46166],[120.64545,24.46434],[120.65266,24.47074],[120.65849,24.4773],[120.66183,24.48378],[120.6654,24.48361],[120.66481,24.48434],[120.66504,24.48723],[120.6664,24.48804],[120.66557,24.48755],[120.6661,24.48885],[120.6653,24.48977],[120.66776,24.4934],[120.66844,24.49981],[120.67128,24.50211],[120.67427,24.50955],[120.67763,24.51452],[120.68468,24.52139],[120.68809,24.53047],[120.6883,24.53556],[120.69105,24.53904],[120.69337,24.54887],[120.69585,24.55117],[120.69545,24.55266],[120.69665,24.5534],[120.69824,24.55848],[120.70119,24.56153],[120.70203,24.569],[120.70455,24.57286],[120.71251,24.57349]]]}},{"type":"Feature","properties":{"code":"10005040","name":"苗栗縣竹南鎮"},"geometry":{"type":"Polygon","coordinates":[[[120.91198,24.73244],[120.91418,24.72706],[120.9138,24.7242],[120.9163,24.72138],[120.91367,24.71733],[120.91769,24.71622],[120.92059,24.71673],[120.92364,24.71455],[120.92512,24.71545],[120.92884,24.71529],[120.93031,24.71662],[120.93125,24.71453],[120.93427,24.71314],[120.92429,24.70462],[120.92146,24.70363],[120.91546,24.70486],[120.91161,24.70338],[120.90548,24.70261],[120.90282,24.70347],[120.90359,24.70415],[120.89879,24.70424],[120.90021,24.70513],[120.89682,24.70378],[120.89338,24.70407],[120.88593,24.70231],[120.88464,24.70055],[120.88456,24.69893],[120.88699,24.69968],[120.88792,24.69932],[120.88821,24.69807],[120.88495,24.69508],[120.8841,24.69306],[120.88674,24.69335],[120.88892,24.6918],[120.89129,24.69132],[120.89363,24.69291],[120.89384,24.69238],[120.89072,24.68895],[120.88693,24.68761],[120.88785,24.68599],[120.88249,24.68349],[120.88034,24.67975],[120.88088,24.67733],[120.88172,24.67689],[120.87983,24.67224],[120.87926,24.66927],[120.88029,24.66896],[120.87967,24.66509],[120.87818,24.66303],[120.8764,24.65368],[120.87618,24.64902],[120.87695,24.64787],[120.87569,24.64757],[120.87481,24.64874],[120.87514,24.65304],[120.8709,24.65184],[120.8693,24.65292],[120.86769,24.65691],[120.86708,24.66549],[120.86332,24.66619],[120.85784,24.66503],[120.85209,24.66253],[120.84608,24.66238],[120.84229,24.664],[120.83207,24.67146],[120.82436,24.67364],[120.83259,24.68241],[120.8404,24.68786],[120.84757,24.69593],[120.85617,24.7025],[120.85773,24.70667],[120.85794,24.71133],[120.86133,24.72165],[120.8648,24.72722],[120.87454,24.73832],[120.88104,24.73329],[120.88357,24.73453],[120.8848,24.73279],[120.88746,24.73387],[120.89104,24.73177],[120.89235,24.73316],[120.89379,24.73233],[120.89743,24.73346],[120.90587,24.74068],[120.90781,24.74107],[120.90867,24.74011],[120.90851,24.73651],[120.91198,24.73244]]]}},{"type":"Feature","properties":{"code":"10005060","name":"苗栗縣後龍鎮"},"geometry":{"type":"Polygon","coordinates":[[[120.82756,24.67271],[120.83207,24.67146],[120.84016,24.66574],[120.83549,24.65696],[120.83184,24.65419],[120.83132,24.6519],[120.82894,24.64807],[120.82751,24.64753],[120.82558,24.64375],[120.82278,24.64117],[120.82167,24.64147],[120.81923,24.6399],[120.81876,24.63828],[120.81968,24.63704],[120.81912,24.63495],[120.8148,24.62961],[120.81342,24.62658],[120.81578,24.62496],[120.81696,24.62917],[120.81905,24.63046],[120.82039,24.6276],[120.82063,24.62456],[120.82192,24.62454],[120.82263,24.62361],[120.82922,24.62537],[120.83026,24.62033],[120.83229,24.6174],[120.8318,24.6161],[120.83415,24.61489],[120.83522,24.6132],[120.83208,24.60693],[120.83478,24.60372],[120.83645,24.60448],[120.83976,24.60327],[120.84002,24.60247],[120.83977,24.60105],[120.83678,24.60152],[120.83356,24.60055],[120.84352,24.59286],[120.84473,24.59059],[120.84466,24.58758],[120.84373,24.58647],[120.8373,24.5903],[120.8321,24.59129],[120.82444,24.5972],[120.80728,24.59905],[120.80347,24.59385],[120.80223,24.59404],[120.79934,24.58822],[120.79755,24.58814],[120.79678,24.58905],[120.79547,24.58782],[120.79175,24.58916],[120.78728,24.58753],[120.78405,24.58801],[120.7845,24.5868],[120.78311,24.58607],[120.78043,24.58193],[120.78089,24.57961],[120.77987,24.57786],[120.7805,24.57614],[120.78018,24.57325],[120.77872,24.57126],[120.7784,24.56933],[120.77576,24.57054],[120.77509,24.57138],[120.7755,24.57227],[120.77382,24.57325],[120.77382,24.5742],[120.77121,24.57555],[120.77074,24.57919],[120.76907,24.58139],[120.76427,24.57972],[120.76051,24.58092],[120.75824,24.57972],[120.75516,24.57977],[120.75289,24.58123],[120.74839,24.57806],[120.74718,24.57903],[120.74418,24.57868],[120.74445,24.5767],[120.74018,24.57506],[120.74104,24.57438],[120.73933,24.57307],[120.73986,24.57227],[120.73903,24.57118],[120.73699,24.57093],[120.73667,24.5699],[120.73423,24.56835],[120.7322,24.56813],[120.72704,24.56002],[120.71977,24.56681],[120.71951,24.57046],[120.71846,24.57283],[120.71673,24.57299],[120.71618,24.5716],[120.71421,24.57102],[120.71287,24.57177],[120.71231,24.57359],[120.70455,24.57286],[120.70392,24.57516],[120.70501,24.57587],[120.70808,24.58245],[120.70976,24.59102],[120.71266,24.59348],[120.71581,24.60097],[120.72026,24.60415],[120.72378,24.60822],[120.73117,24.61186],[120.7382,24.62086],[120.74584,24.62173],[120.74893,24.62595],[120.75237,24.6274],[120.75402,24.6312],[120.75595,24.63147],[120.75637,24.63254],[120.75769,24.64152],[120.76085,24.64312],[120.76359,24.64907],[120.76778,24.65045],[120.76934,24.65386],[120.76852,24.65469],[120.76943,24.65394],[120.77871,24.66256],[120.7886,24.667],[120.80281,24.66909],[120.80938,24.67123],[120.82306,24.67268],[120.82436,24.67364],[120.82756,24.67271]]]}},{"type":"Feature","properties":{"code":"10005050","name":"苗栗縣頭份市"},"geometry":{"type":"Polygon","coordinates":[[[120.93649,24.71083],[120.94233,24.7073],[120.94512,24.70789],[120.94555,24.70987],[120.9498,24.7112],[120.95092,24.70774],[120.95335,24.70598],[120.95282,24.70468],[120.95341,24.70404],[120.95511,24.70457],[120.95679,24.70657],[120.95935,24.70666],[120.96064,24.70906],[120.96214,24.7095],[120.96229,24.71088],[120.96337,24.71148],[120.96613,24.70964],[120.96859,24.71121],[120.97039,24.71089],[120.97165,24.71245],[120.97517,24.71089],[120.97583,24.70949],[120.97456,24.70856],[120.97665,24.70626],[120.97583,24.70494],[120.97318,24.70451],[120.97219,24.70346],[120.97362,24.70116],[120.974,24.69694],[120.97188,24.69677],[120.97019,24.6941],[120.96638,24.69117],[120.96643,24.68916],[120.96517,24.68811],[120.96675,24.68611],[120.96441,24.68362],[120.96736,24.68444],[120.97058,24.68421],[120.9727,24.68585],[120.97557,24.68456],[120.97752,24.67829],[120.97648,24.67618],[120.97702,24.67365],[120.97429,24.67392],[120.97164,24.67299],[120.96832,24.67529],[120.96546,24.67495],[120.9648,24.67635],[120.9587,24.67937],[120.95637,24.67788],[120.95066,24.67901],[120.94917,24.67517],[120.94663,24.672],[120.9431,24.67087],[120.94336,24.66964],[120.94564,24.66874],[120.94437,24.66728],[120.94271,24.66701],[120.94479,24.66609],[120.94252,24.66504],[120.94106,24.66168],[120.94102,24.65891],[120.94,24.65763],[120.93585,24.65735],[120.93452,24.65994],[120.93081,24.66103],[120.92841,24.66291],[120.9226,24.66191],[120.92241,24.66265],[120.92145,24.66257],[120.92003,24.66126],[120.91988,24.65793],[120.91673,24.65617],[120.91316,24.65567],[120.91068,24.6538],[120.91239,24.65025],[120.91155,24.64598],[120.91345,24.64372],[120.91273,24.64175],[120.9094,24.64106],[120.90878,24.6376],[120.90439,24.63585],[120.90386,24.6317],[120.89937,24.629],[120.89872,24.62709],[120.89659,24.62542],[120.89549,24.62676],[120.89544,24.62838],[120.89422,24.62913],[120.89282,24.62545],[120.88771,24.6263],[120.88692,24.62801],[120.88483,24.62868],[120.87833,24.63377],[120.88059,24.63796],[120.87825,24.63638],[120.87722,24.63804],[120.87937,24.63891],[120.88051,24.64035],[120.87765,24.63983],[120.87559,24.64356],[120.87835,24.64667],[120.87618,24.64902],[120.87637,24.65347],[120.87818,24.66303],[120.87967,24.66509],[120.88029,24.66896],[120.87926,24.66927],[120.87983,24.67224],[120.88172,24.67689],[120.88088,24.67733],[120.88034,24.67975],[120.88249,24.68349],[120.88785,24.68599],[120.88693,24.68761],[120.89072,24.68895],[120.89384,24.69238],[120.89363,24.69291],[120.89129,24.69132],[120.88892,24.6918],[120.88674,24.69335],[120.8841,24.69306],[120.88495,24.69508],[120.88822,24.69816],[120.88699,24.69968],[120.88461,24.69885],[120.88464,24.70055],[120.88678,24.70272],[120.89098,24.70306],[120.89338,24.70407],[120.89682,24.70378],[120.90021,24.70513],[120.89879,24.70424],[120.90359,24.70415],[120.90282,24.70347],[120.90548,24.70261],[120.91161,24.70338],[120.91546,24.70486],[120.92146,24.70363],[120.92429,24.70462],[120.93427,24.71314],[120.93521,24.71291],[120.93649,24.71083]]]}},{"type":"Feature","properties":{"code":"10005180","name":"苗栗縣泰安鄉"},"geometry":{"type":"Polygon","coordinates":[[[121.21766,24.51168],[121.21747,24.50965],[121.22364,24.50631],[121.22193,24.50482],[121.22097,24.50145],[121.21974,24.50077],[121.21867,24.49826],[121.22351,24.49439],[121.22894,24.49228],[121.22993,24.48891],[121.23343,24.48746],[121.23443,24.48802],[121.23472,24.48366],[121.2433,24.47729],[121.24443,24.46994],[121.24931,24.46587],[121.25797,24.46335],[121.25804,24.45746],[121.26264,24.45525],[121.26061,24.45141],[121.26127,24.44842],[121.2622,24.44803],[121.2609,24.4458],[121.26166,24.44422],[121.2587,24.43994],[121.25998,24.43619],[121.25915,24.43089],[121.26022,24.42901],[121.25761,24.42505],[121.25,24.42491],[121.24915,24.42379],[121.24611,24.42278],[121.2439,24.42008],[121.2436,24.41661],[121.24199,24.41409],[121.24333,24.4112],[121.2429,24.40908],[121.24357,24.40572],[121.24014,24.40354],[121.23814,24.40151],[121.23802,24.40029],[121.23466,24.39734],[121.23498,24.39192],[121.23162,24.38761],[121.23186,24.38386],[121.21846,24.38126],[121.21588,24.37945],[121.2135,24.38185],[121.21346,24.38403],[121.21125,24.38839],[121.21029,24.39612],[121.2072,24.39791],[121.20071,24.39761],[121.19719,24.39659],[121.19672,24.39152],[121.19114,24.38394],[121.19024,24.38162],[121.1833,24.38101],[121.18168,24.37886],[121.17852,24.37792],[121.17342,24.37334],[121.17305,24.37068],[121.17418,24.36892],[121.16901,24.36431],[121.16837,24.36091],[121.15941,24.3608],[121.15554,24.35904],[121.14841,24.35788],[121.14491,24.35807],[121.14096,24.35964],[121.13797,24.35627],[121.1378,24.35469],[121.13644,24.35313],[121.13123,24.34936],[121.1302,24.34471],[121.12844,24.34217],[121.1253,24.34199],[121.12413,24.34055],[121.1215,24.33429],[121.12158,24.33068],[121.11855,24.33037],[121.11487,24.32864],[121.10848,24.33095],[121.10226,24.32458],[121.09571,24.32257],[121.09497,24.32058],[121.09339,24.31922],[121.08842,24.31841],[121.08751,24.31754],[121.086,24.31813],[121.08147,24.32414],[121.07846,24.32281],[121.07308,24.32282],[121.07386,24.31919],[121.07021,24.31576],[121.0648,24.31544],[121.0609,24.31312],[121.0584,24.31273],[121.05743,24.31127],[121.05561,24.31068],[121.05492,24.30766],[121.05256,24.30424],[121.05164,24.29824],[121.0493,24.29605],[121.04519,24.29533],[121.03472,24.29745],[121.02937,24.30471],[121.01951,24.30967],[121.01769,24.31173],[121.0145,24.32011],[121.00415,24.3323],[121.00048,24.33266],[120.99756,24.33014],[120.99178,24.32962],[120.98559,24.33166],[120.98198,24.3359],[120.97994,24.33447],[120.96649,24.33346],[120.96016,24.33505],[120.95679,24.3393],[120.95409,24.3386],[120.94652,24.3391],[120.94517,24.33979],[120.94246,24.33914],[120.93606,24.34281],[120.93446,24.34268],[120.92632,24.33865],[120.91965,24.33714],[120.91661,24.33513],[120.9165,24.33346],[120.9205,24.32011],[120.9201,24.31119],[120.92245,24.30359],[120.91191,24.29406],[120.90982,24.29397],[120.91444,24.30386],[120.91434,24.30791],[120.91177,24.31439],[120.90969,24.31574],[120.90817,24.32024],[120.90521,24.32525],[120.90289,24.32752],[120.90749,24.33027],[120.90616,24.33143],[120.91111,24.33578],[120.91096,24.3366],[120.90613,24.3366],[120.90649,24.33802],[120.90544,24.33986],[120.90712,24.34384],[120.90687,24.34564],[120.90973,24.34823],[120.90825,24.34825],[120.90987,24.35531],[120.9082,24.36005],[120.9082,24.36423],[120.91223,24.36476],[120.91356,24.36699],[120.91371,24.37429],[120.91482,24.37617],[120.91392,24.38088],[120.915,24.38606],[120.91428,24.38797],[120.91547,24.39097],[120.91899,24.39514],[120.91961,24.39879],[120.91769,24.40335],[120.91223,24.40769],[120.91153,24.4135],[120.9071,24.41654],[120.90802,24.41844],[120.90741,24.42033],[120.90815,24.42211],[120.90715,24.42333],[120.91062,24.42531],[120.91173,24.42879],[120.91212,24.43445],[120.91327,24.43632],[120.90996,24.44374],[120.90649,24.44626],[120.90501,24.44597],[120.90413,24.44711],[120.90615,24.44806],[120.91094,24.45259],[120.912,24.45909],[120.91361,24.46229],[120.91648,24.46527],[120.91488,24.46759],[120.91637,24.46912],[120.9165,24.47389],[120.92193,24.48102],[120.92054,24.48251],[120.92041,24.48686],[120.91922,24.49024],[120.92121,24.49554],[120.92692,24.49624],[120.92976,24.4981],[120.9331,24.49676],[120.9396,24.49944],[120.94323,24.50342],[120.94668,24.50332],[120.94955,24.50653],[120.95387,24.50656],[120.95497,24.50481],[120.9627,24.50439],[120.96564,24.50656],[120.97924,24.50185],[120.98808,24.50239],[120.99122,24.50095],[120.99617,24.502],[120.99843,24.50166],[121.00217,24.50567],[121.0065,24.50881],[121.01211,24.51079],[121.02072,24.50684],[121.02146,24.50252],[121.02362,24.50192],[121.02591,24.49885],[121.02563,24.49531],[121.02668,24.49275],[121.03017,24.49279],[121.03238,24.49181],[121.03582,24.49325],[121.03883,24.49339],[121.04051,24.49497],[121.0457,24.49505],[121.0478,24.4967],[121.05113,24.4974],[121.05518,24.49674],[121.05729,24.49804],[121.05819,24.50039],[121.06139,24.49703],[121.06482,24.49645],[121.06678,24.49509],[121.07289,24.49878],[121.07544,24.49945],[121.07892,24.49907],[121.08504,24.50132],[121.09048,24.49783],[121.09808,24.49642],[121.10034,24.49823],[121.10246,24.49825],[121.10533,24.50061],[121.10904,24.50104],[121.11433,24.5071],[121.11715,24.50844],[121.12096,24.50842],[121.12324,24.51024],[121.12966,24.5067],[121.137,24.50665],[121.14503,24.51192],[121.14609,24.50969],[121.15059,24.50609],[121.15502,24.5068],[121.16142,24.50358],[121.16914,24.50259],[121.17058,24.50412],[121.17469,24.50484],[121.1774,24.50744],[121.17942,24.50798],[121.18319,24.50793],[121.18671,24.50536],[121.19162,24.50747],[121.19529,24.50704],[121.20052,24.51146],[121.2065,24.51296],[121.20818,24.51163],[121.20973,24.51153],[121.21543,24.51549],[121.21753,24.51413],[121.21766,24.51168]]]}}]}