{"type":"FeatureCollection","source":"https://data.gov.tw/dataset/7441 鄉鎮市區界線(TWD97經緯度)","agency":"內政部國土測繪中心","license":"政府資料開放授權條款第1版","generatedBy":"scripts/build-geo.py","features":[{"type":"Feature","properties":{"code":"10008010","name":"南投縣南投市"},"geometry":{"type":"Polygon","coordinates":[[[120.70205,23.96057],[120.70464,23.95894],[120.7063,23.95941],[120.70911,23.95839],[120.71039,23.95686],[120.7106,23.95492],[120.71184,23.95418],[120.71286,23.95491],[120.7153,23.95453],[120.72265,23.95167],[120.72405,23.95196],[120.72449,23.95373],[120.72693,23.95555],[120.73012,23.95207],[120.73258,23.95135],[120.73447,23.94926],[120.73353,23.94724],[120.73373,23.94543],[120.73179,23.94287],[120.73298,23.94066],[120.73234,23.93894],[120.73297,23.93626],[120.73419,23.9356],[120.73476,23.92963],[120.72948,23.92834],[120.72874,23.92946],[120.72589,23.93066],[120.72338,23.92764],[120.72211,23.92394],[120.71949,23.92397],[120.71919,23.92278],[120.71612,23.921],[120.71322,23.922],[120.71126,23.92087],[120.71228,23.92006],[120.71303,23.92114],[120.71469,23.91943],[120.71575,23.92002],[120.71706,23.9193],[120.71782,23.91775],[120.71693,23.9162],[120.71822,23.91614],[120.71827,23.91508],[120.72045,23.91417],[120.71674,23.91154],[120.71718,23.90723],[120.71502,23.90609],[120.71211,23.89951],[120.70798,23.89758],[120.70709,23.8959],[120.71056,23.89415],[120.71754,23.89367],[120.72187,23.89106],[120.72426,23.89051],[120.72436,23.88299],[120.72771,23.88095],[120.72462,23.87861],[120.72311,23.88084],[120.71919,23.88296],[120.71678,23.88856],[120.71455,23.89029],[120.70918,23.88818],[120.70866,23.88898],[120.70622,23.8891],[120.70404,23.88773],[120.70302,23.88904],[120.70033,23.88677],[120.69643,23.88493],[120.68315,23.88041],[120.67652,23.88158],[120.67137,23.88156],[120.66694,23.88306],[120.66168,23.88213],[120.65279,23.8845],[120.64895,23.8866],[120.64772,23.88608],[120.64484,23.88707],[120.64256,23.88887],[120.64193,23.88775],[120.63954,23.88901],[120.63911,23.88818],[120.63707,23.88885],[120.63634,23.88835],[120.63529,23.8896],[120.63315,23.88851],[120.62731,23.8895],[120.63212,23.88943],[120.63271,23.88976],[120.63227,23.89043],[120.6341,23.89183],[120.63221,23.89228],[120.63439,23.89347],[120.63376,23.89409],[120.63418,23.89524],[120.63276,23.89627],[120.63436,23.89675],[120.63405,23.8977],[120.63489,23.89787],[120.63371,23.90037],[120.63498,23.90139],[120.63137,23.90343],[120.63303,23.90421],[120.6322,23.90435],[120.63213,23.90675],[120.63328,23.90618],[120.63329,23.90724],[120.63422,23.90767],[120.63067,23.90821],[120.63301,23.9096],[120.6294,23.91081],[120.6326,23.91088],[120.63337,23.91176],[120.63254,23.91251],[120.63356,23.91243],[120.63314,23.91424],[120.63471,23.91312],[120.63334,23.91518],[120.63405,23.91558],[120.63327,23.916],[120.63415,23.9162],[120.6339,23.91781],[120.63509,23.9179],[120.63353,23.91954],[120.63477,23.91925],[120.63497,23.92009],[120.63646,23.91937],[120.63532,23.92166],[120.63719,23.9218],[120.63741,23.92408],[120.6355,23.92624],[120.63314,23.9266],[120.63377,23.92722],[120.63275,23.92839],[120.62915,23.92971],[120.62783,23.93117],[120.62972,23.93117],[120.63041,23.93259],[120.63094,23.93215],[120.63214,23.93287],[120.63278,23.93564],[120.63549,23.93744],[120.63766,23.93543],[120.63639,23.93772],[120.63016,23.94296],[120.63083,23.9448],[120.63337,23.94288],[120.63466,23.94371],[120.62759,23.95177],[120.62802,23.95266],[120.62938,23.95212],[120.63156,23.95348],[120.63407,23.95226],[120.63385,23.95336],[120.63228,23.9546],[120.6294,23.95456],[120.62981,23.95521],[120.62699,23.9556],[120.62703,23.9565],[120.63113,23.9563],[120.63552,23.95227],[120.63776,23.95349],[120.64266,23.95827],[120.64443,23.96229],[120.64685,23.96338],[120.64862,23.96035],[120.65481,23.95556],[120.65759,23.95234],[120.66013,23.95216],[120.6616,23.95111],[120.66239,23.94776],[120.66453,23.94597],[120.66837,23.94596],[120.67132,23.94475],[120.67412,23.9496],[120.68034,23.95226],[120.68092,23.95565],[120.68359,23.95621],[120.68346,23.95779],[120.68532,23.95799],[120.686,23.96127],[120.6884,23.95984],[120.69032,23.96026],[120.69048,23.95975],[120.69215,23.96108],[120.69334,23.96053],[120.69707,23.96251],[120.698,23.96446],[120.70011,23.96545],[120.70205,23.96057]]]}},{"type":"Feature","properties":{"code":"10008020","name":"南投縣埔里鎮"},"geometry":{"type":"Polygon","coordinates":[[[120.9422,24.05317],[120.94366,24.05304],[120.94469,24.04965],[120.95007,24.04944],[120.9508,24.04781],[120.95391,24.04605],[120.95447,24.04492],[120.95909,24.04482],[120.96283,24.0399],[120.96502,24.03834],[120.9652,24.0344],[120.97147,24.03089],[120.97447,24.0308],[120.97635,24.03283],[120.9813,24.03143],[120.9837,24.02653],[120.98717,24.02459],[120.99091,24.02021],[120.99617,24.02045],[120.99907,24.01949],[121.00218,24.02056],[121.00321,24.0201],[121.00582,24.0173],[121.00649,24.01431],[121.004,24.01066],[121.00322,24.00735],[121.00891,24.00034],[121.0192,24.00049],[121.02029,24.00176],[121.0262,24.00396],[121.03399,23.9989],[121.0393,23.99946],[121.04968,23.998],[121.05298,24.00299],[121.05656,24.00482],[121.05868,24.00144],[121.0576,23.99922],[121.05836,23.99608],[121.06138,23.99491],[121.06573,23.99166],[121.06946,23.98353],[121.06716,23.9811],[121.06609,23.97833],[121.0622,23.97535],[121.06132,23.97182],[121.05915,23.97147],[121.0572,23.96887],[121.05337,23.9697],[121.05424,23.96691],[121.05646,23.96407],[121.05396,23.96121],[121.05205,23.95735],[121.04878,23.95445],[121.04953,23.94999],[121.04694,23.9473],[121.0461,23.94356],[121.04482,23.943],[121.04316,23.94372],[121.0391,23.94373],[121.03613,23.94512],[121.03308,23.94513],[121.03094,23.94406],[121.02772,23.95537],[121.02626,23.95721],[121.02452,23.95755],[121.02045,23.96217],[121.01703,23.96813],[121.01137,23.96763],[121.00792,23.96554],[121.00805,23.96415],[121.0069,23.96384],[121.00591,23.96481],[121.00628,23.96631],[121.00216,23.96685],[121.00156,23.9643],[121.00255,23.96346],[121.00193,23.9626],[121.00312,23.96071],[121.00549,23.95989],[121.00421,23.95877],[121.00188,23.95875],[121.00171,23.95743],[121.0026,23.95706],[121.00136,23.9558],[121.00193,23.95405],[121.00412,23.95239],[121.00458,23.9485],[121.00525,23.94744],[121.00817,23.94642],[121.0131,23.94685],[121.01444,23.94513],[121.01197,23.94072],[121.01004,23.93954],[121.00516,23.93954],[121.0002,23.93343],[120.99669,23.93045],[120.99833,23.92921],[120.99972,23.92917],[121.00125,23.92703],[121.00428,23.92589],[121.00526,23.927],[121.00809,23.92724],[121.01039,23.93011],[121.01315,23.9311],[121.01465,23.93314],[121.01641,23.93271],[121.01682,23.93096],[121.0162,23.92942],[121.01197,23.9282],[121.00867,23.92445],[121.00853,23.92224],[121.01061,23.92099],[121.00812,23.92087],[121.0082,23.91059],[121.00999,23.90764],[121.00812,23.90816],[121.00674,23.91193],[121.00393,23.91496],[121.00195,23.92388],[120.99829,23.92401],[120.99763,23.9254],[120.99192,23.92455],[120.99093,23.92313],[120.98961,23.92288],[120.9894,23.92129],[120.9883,23.92039],[120.98682,23.92152],[120.9856,23.91998],[120.98384,23.92118],[120.98241,23.91996],[120.98193,23.91887],[120.98502,23.91663],[120.98628,23.91452],[120.98721,23.91439],[120.989,23.91106],[120.9886,23.91023],[120.98548,23.91242],[120.98139,23.91035],[120.98293,23.90976],[120.9822,23.90862],[120.98605,23.90758],[120.98702,23.90657],[120.98656,23.90495],[120.98725,23.90231],[120.99109,23.8966],[120.99092,23.89544],[120.98842,23.89844],[120.98425,23.9007],[120.98324,23.90367],[120.98604,23.90489],[120.98462,23.90717],[120.98204,23.90782],[120.97882,23.91147],[120.9757,23.91275],[120.97117,23.91757],[120.96738,23.91819],[120.96748,23.92182],[120.96547,23.92335],[120.96541,23.92579],[120.96446,23.92763],[120.96525,23.92833],[120.967,23.92821],[120.9653,23.93037],[120.9604,23.93069],[120.95803,23.92832],[120.95443,23.93013],[120.95397,23.93165],[120.95219,23.93216],[120.94835,23.93144],[120.94383,23.93314],[120.93993,23.93106],[120.93821,23.93118],[120.93739,23.92977],[120.93415,23.92843],[120.93163,23.92456],[120.9286,23.9234],[120.9218,23.92557],[120.91956,23.92801],[120.9168,23.9279],[120.90933,23.92279],[120.90621,23.92334],[120.90441,23.92673],[120.90053,23.92768],[120.8977,23.93139],[120.89325,23.93314],[120.89134,23.93118],[120.89074,23.92865],[120.88757,23.9272],[120.88725,23.92502],[120.88338,23.92581],[120.87971,23.92509],[120.87913,23.92597],[120.87895,23.93086],[120.87972,23.93256],[120.87862,23.94328],[120.88063,23.94825],[120.8795,23.94986],[120.87921,23.9531],[120.88149,23.95485],[120.88262,23.95785],[120.88416,23.9582],[120.88502,23.96045],[120.88406,23.96239],[120.88548,23.96508],[120.89081,23.96917],[120.89499,23.96896],[120.89864,23.97075],[120.89957,23.97213],[120.90219,23.97183],[120.90312,23.97042],[120.90478,23.97125],[120.90777,23.97121],[120.90551,23.97576],[120.90653,23.97685],[120.90608,23.98395],[120.90333,23.98974],[120.90413,23.99368],[120.90646,23.99653],[120.90755,23.9986],[120.90703,23.99971],[120.90838,24.00072],[120.90962,24.00333],[120.90668,24.00256],[120.90424,24.00398],[120.90182,24.00632],[120.90168,24.01046],[120.90001,24.01115],[120.89819,24.00985],[120.89687,24.01178],[120.89075,24.01309],[120.88869,24.01906],[120.89183,24.02227],[120.89542,24.0228],[120.90031,24.02938],[120.90207,24.02987],[120.90186,24.03516],[120.90309,24.03514],[120.90392,24.03655],[120.9029,24.03971],[120.90339,24.0412],[120.90595,24.04031],[120.90822,24.04312],[120.91009,24.04289],[120.91117,24.04362],[120.91395,24.04213],[120.91452,24.04447],[120.91785,24.04809],[120.92462,24.04788],[120.92693,24.05017],[120.92683,24.04825],[120.92873,24.0452],[120.93056,24.04559],[120.93217,24.04745],[120.93371,24.04588],[120.93341,24.0452],[120.93739,24.04471],[120.93946,24.04619],[120.93963,24.04938],[120.9407,24.0513],[120.94023,24.05269],[120.9422,24.05317]]]}},{"type":"Feature","properties":{"code":"10008030","name":"南投縣草屯鎮"},"geometry":{"type":"Polygon","coordinates":[[[120.78035,24.01951],[120.7817,24.01778],[120.78615,24.01575],[120.79491,24.01628],[120.79855,24.01541],[120.79995,24.013],[120.80258,24.01084],[120.80344,24.00855],[120.80988,24.00733],[120.80825,24.00186],[120.81472,24.00073],[120.81937,23.99835],[120.82241,23.9936],[120.82351,23.99482],[120.82522,23.99487],[120.82696,23.99292],[120.82803,23.99391],[120.83087,23.99263],[120.83256,23.98659],[120.83459,23.98552],[120.83552,23.98372],[120.83319,23.97513],[120.83485,23.97058],[120.82832,23.96891],[120.82369,23.96951],[120.82127,23.96855],[120.81906,23.96959],[120.81177,23.96983],[120.81093,23.97163],[120.80599,23.96917],[120.80291,23.96309],[120.79806,23.96031],[120.7946,23.95977],[120.79322,23.96084],[120.79098,23.95935],[120.78924,23.95919],[120.7873,23.95653],[120.78622,23.95624],[120.78515,23.95653],[120.78418,23.95828],[120.78237,23.95818],[120.7807,23.95958],[120.77877,23.9588],[120.77796,23.95601],[120.77604,23.95552],[120.77287,23.96082],[120.77002,23.9624],[120.77031,23.96457],[120.76704,23.96562],[120.76707,23.96767],[120.76383,23.96785],[120.7607,23.96448],[120.75851,23.96438],[120.7571,23.96219],[120.75572,23.96286],[120.75473,23.96118],[120.75399,23.96168],[120.75077,23.96044],[120.75107,23.95761],[120.74885,23.95639],[120.74922,23.95424],[120.74236,23.95603],[120.74149,23.95378],[120.74282,23.95111],[120.73983,23.9519],[120.74017,23.95008],[120.7384,23.94828],[120.73414,23.94946],[120.73258,23.95135],[120.73012,23.95207],[120.72693,23.95555],[120.72449,23.95373],[120.72415,23.95208],[120.72322,23.95162],[120.7153,23.95453],[120.71286,23.95491],[120.71184,23.95418],[120.7106,23.95492],[120.71039,23.95686],[120.70911,23.95839],[120.7063,23.95941],[120.70464,23.95894],[120.70188,23.96071],[120.70164,23.96292],[120.70002,23.96545],[120.698,23.96446],[120.69707,23.96251],[120.69334,23.96053],[120.69215,23.96108],[120.69048,23.95975],[120.69032,23.96026],[120.6884,23.95984],[120.68699,23.96121],[120.68593,23.96122],[120.68532,23.95799],[120.68346,23.95779],[120.68359,23.95621],[120.68092,23.95565],[120.68034,23.95226],[120.67412,23.9496],[120.67144,23.94478],[120.66837,23.94596],[120.66466,23.94589],[120.66239,23.94776],[120.6616,23.95111],[120.66013,23.95216],[120.65759,23.95234],[120.64799,23.9612],[120.64666,23.96446],[120.64696,23.97153],[120.64632,23.97327],[120.65005,23.98294],[120.65009,23.98492],[120.64465,23.99011],[120.63751,23.99374],[120.63623,23.99607],[120.63612,23.99841],[120.6382,24.00376],[120.63813,24.00743],[120.64035,24.00573],[120.64247,24.00896],[120.64339,24.00831],[120.64602,24.00916],[120.64942,24.00808],[120.66359,24.0081],[120.67258,24.00585],[120.6737,24.00808],[120.67009,24.00996],[120.67071,24.01063],[120.67599,24.01071],[120.67876,24.01422],[120.686,24.01047],[120.69488,24.00712],[120.70638,24.00519],[120.71924,24.00966],[120.73173,24.009],[120.74365,24.00217],[120.74604,23.99856],[120.74773,23.99925],[120.75104,24.00283],[120.75325,24.00234],[120.7559,24.00353],[120.75797,24.00609],[120.76267,24.00626],[120.76778,24.00915],[120.77056,24.00907],[120.77116,24.014],[120.7752,24.01855],[120.77953,24.02011],[120.78035,24.01951]]]}},{"type":"Feature","properties":{"code":"10008040","name":"南投縣竹山鎮"},"geometry":{"type":"Polygon","coordinates":[[[120.74391,23.82682],[120.75122,23.82421],[120.7547,23.82235],[120.75602,23.82069],[120.76394,23.81695],[120.7623,23.81183],[120.76097,23.81063],[120.75999,23.80796],[120.75622,23.80554],[120.75658,23.8038],[120.75928,23.80296],[120.75935,23.80152],[120.7604,23.80057],[120.76005,23.79856],[120.75801,23.79686],[120.75681,23.79375],[120.75342,23.79208],[120.75312,23.79038],[120.7511,23.78954],[120.74917,23.79005],[120.7455,23.78915],[120.74389,23.78684],[120.74162,23.78632],[120.74146,23.78456],[120.73186,23.78362],[120.73184,23.78071],[120.73061,23.77901],[120.72606,23.77962],[120.72267,23.7785],[120.72116,23.77928],[120.72013,23.77803],[120.71961,23.77516],[120.71382,23.77324],[120.71366,23.77186],[120.71629,23.76849],[120.72099,23.76599],[120.72373,23.76321],[120.72515,23.75971],[120.72743,23.75952],[120.73001,23.76109],[120.73006,23.75931],[120.73211,23.75688],[120.73589,23.75678],[120.73673,23.75491],[120.7395,23.7544],[120.74059,23.75047],[120.74226,23.75007],[120.73968,23.7468],[120.73996,23.74605],[120.73752,23.74541],[120.7375,23.74415],[120.73531,23.74429],[120.73486,23.7423],[120.73301,23.74294],[120.72963,23.74165],[120.7281,23.73963],[120.72876,23.73909],[120.73213,23.73949],[120.73062,23.73697],[120.73393,23.73596],[120.73555,23.7338],[120.73492,23.73058],[120.73325,23.72846],[120.73509,23.72647],[120.73654,23.72609],[120.7352,23.7239],[120.73596,23.72302],[120.73536,23.72026],[120.73406,23.71872],[120.73422,23.71658],[120.73286,23.71457],[120.73665,23.70921],[120.73491,23.70441],[120.7312,23.7006],[120.73532,23.69604],[120.73681,23.69585],[120.73916,23.6913],[120.74147,23.68964],[120.74382,23.68891],[120.75221,23.68289],[120.75682,23.68096],[120.75796,23.67904],[120.76261,23.67909],[120.76252,23.67716],[120.76422,23.67548],[120.76447,23.67391],[120.76814,23.67287],[120.76908,23.67171],[120.76848,23.66888],[120.77068,23.65961],[120.7768,23.65803],[120.78015,23.65499],[120.78479,23.65514],[120.78743,23.65607],[120.80004,23.64928],[120.80394,23.64949],[120.80461,23.64712],[120.80812,23.64602],[120.80926,23.64427],[120.81363,23.64123],[120.81458,23.63065],[120.8161,23.62931],[120.81663,23.62729],[120.81603,23.62574],[120.81686,23.62484],[120.81645,23.62319],[120.81956,23.61972],[120.82323,23.61839],[120.82358,23.61513],[120.82517,23.61257],[120.82173,23.61048],[120.82167,23.60899],[120.81814,23.60798],[120.81725,23.60599],[120.81809,23.60405],[120.81584,23.60387],[120.81395,23.60107],[120.81126,23.60013],[120.80979,23.59869],[120.80512,23.59862],[120.80353,23.5967],[120.79492,23.59725],[120.79087,23.60094],[120.78313,23.60074],[120.77831,23.60203],[120.77458,23.60521],[120.77005,23.60605],[120.76941,23.60837],[120.76428,23.61224],[120.75808,23.61249],[120.75356,23.61482],[120.7508,23.61438],[120.74748,23.61116],[120.74635,23.61248],[120.74439,23.61267],[120.74137,23.61227],[120.7374,23.60963],[120.73086,23.61081],[120.7313,23.61437],[120.73068,23.61827],[120.72694,23.61997],[120.72561,23.62172],[120.72309,23.62253],[120.71837,23.62996],[120.7131,23.62791],[120.71407,23.62102],[120.71029,23.61916],[120.70688,23.61869],[120.70503,23.61727],[120.70227,23.61739],[120.6968,23.62001],[120.69132,23.62035],[120.68606,23.61821],[120.68547,23.61284],[120.68359,23.61087],[120.67778,23.61105],[120.66914,23.60934],[120.66451,23.61112],[120.6612,23.61047],[120.65835,23.61383],[120.65142,23.61614],[120.65292,23.62186],[120.65254,23.62456],[120.65362,23.62839],[120.653,23.62951],[120.64514,23.63098],[120.64387,23.62825],[120.63873,23.62474],[120.63557,23.62005],[120.63393,23.61911],[120.63045,23.62315],[120.6299,23.62744],[120.6287,23.63009],[120.63017,23.63277],[120.62908,23.63516],[120.63165,23.63879],[120.63179,23.6402],[120.63521,23.64286],[120.63481,23.64701],[120.63635,23.64824],[120.6351,23.64971],[120.63497,23.65157],[120.63692,23.65543],[120.63685,23.65698],[120.64014,23.66114],[120.64057,23.66438],[120.64439,23.66761],[120.64494,23.67163],[120.64693,23.67271],[120.64605,23.67713],[120.64756,23.67945],[120.64828,23.68286],[120.64625,23.68478],[120.64699,23.68657],[120.64571,23.68721],[120.64552,23.69008],[120.6466,23.69281],[120.64341,23.6997],[120.64567,23.70321],[120.64309,23.70531],[120.64143,23.70557],[120.63972,23.70878],[120.6402,23.71],[120.63899,23.71058],[120.64056,23.71319],[120.64071,23.71424],[120.63974,23.7145],[120.64049,23.7153],[120.64041,23.71939],[120.64168,23.72228],[120.64094,23.72359],[120.64135,23.72453],[120.63971,23.72621],[120.64021,23.73072],[120.64207,23.73064],[120.64454,23.73664],[120.6463,23.73557],[120.6509,23.73617],[120.6546,23.73446],[120.65584,23.73512],[120.65436,23.74187],[120.6557,23.75502],[120.64848,23.77328],[120.64243,23.7817],[120.64037,23.78605],[120.64254,23.78574],[120.65814,23.79104],[120.66378,23.79214],[120.67492,23.79972],[120.6799,23.80162],[120.68508,23.80149],[120.69257,23.80464],[120.698,23.80836],[120.71065,23.82401],[120.71862,23.82894],[120.72524,23.83166],[120.728,23.83402],[120.73943,23.82774],[120.74391,23.82682]]]}},{"type":"Feature","properties":{"code":"10008050","name":"南投縣集集鎮"},"geometry":{"type":"Polygon","coordinates":[[[120.74138,23.85946],[120.74263,23.85846],[120.74542,23.85862],[120.74687,23.85734],[120.74976,23.85899],[120.7528,23.8579],[120.75464,23.8583],[120.75516,23.85579],[120.75679,23.85431],[120.75698,23.85219],[120.75905,23.8526],[120.76111,23.84966],[120.76337,23.85012],[120.76485,23.84828],[120.76658,23.84898],[120.76817,23.84681],[120.77046,23.84685],[120.77339,23.84529],[120.77413,23.84744],[120.77857,23.84866],[120.77891,23.84927],[120.77688,23.85037],[120.77968,23.85122],[120.78247,23.85085],[120.78569,23.85273],[120.79074,23.85014],[120.79249,23.85028],[120.79516,23.85248],[120.79857,23.85121],[120.8055,23.8507],[120.80896,23.8516],[120.81168,23.8502],[120.81471,23.8529],[120.81754,23.8536],[120.81884,23.85497],[120.82482,23.85304],[120.82708,23.85521],[120.83034,23.85651],[120.83584,23.85632],[120.83819,23.85482],[120.84071,23.85624],[120.84207,23.85537],[120.84218,23.85242],[120.8413,23.85052],[120.84475,23.84584],[120.84403,23.84351],[120.84526,23.84254],[120.84767,23.84225],[120.84681,23.83972],[120.8451,23.8382],[120.84229,23.83933],[120.83934,23.83826],[120.83644,23.83883],[120.83456,23.83811],[120.83233,23.8352],[120.83119,23.83182],[120.82978,23.83083],[120.82899,23.82246],[120.82751,23.82119],[120.81727,23.82033],[120.80645,23.81585],[120.79888,23.81552],[120.78106,23.81829],[120.77479,23.81778],[120.77224,23.81598],[120.76693,23.81567],[120.75602,23.82069],[120.7547,23.82235],[120.75122,23.82421],[120.74649,23.82616],[120.73943,23.82774],[120.728,23.83402],[120.73191,23.83826],[120.73247,23.84044],[120.73088,23.8411],[120.72842,23.84502],[120.72667,23.84589],[120.72542,23.85007],[120.72707,23.85103],[120.7333,23.85208],[120.73456,23.85315],[120.73498,23.85527],[120.73651,23.85552],[120.73674,23.85838],[120.73761,23.85964],[120.74138,23.85946]]]}},{"type":"Feature","properties":{"code":"10008060","name":"南投縣名間鄉"},"geometry":{"type":"Polygon","coordinates":[[[120.71477,23.89018],[120.71678,23.88856],[120.71919,23.88296],[120.72311,23.88084],[120.72462,23.87861],[120.72751,23.88085],[120.72668,23.87885],[120.72696,23.87682],[120.7292,23.87567],[120.73104,23.87312],[120.73114,23.86942],[120.7327,23.86808],[120.73461,23.86368],[120.73373,23.86144],[120.73671,23.85988],[120.73721,23.85875],[120.73651,23.85552],[120.73498,23.85527],[120.73456,23.85315],[120.7333,23.85208],[120.72707,23.85103],[120.72542,23.85007],[120.72667,23.84589],[120.72842,23.84502],[120.73088,23.8411],[120.73246,23.84048],[120.73186,23.83819],[120.72557,23.83188],[120.71862,23.82894],[120.71041,23.82381],[120.698,23.80836],[120.69257,23.80464],[120.6838,23.80134],[120.68341,23.80542],[120.68246,23.80608],[120.67898,23.80594],[120.67798,23.81408],[120.67877,23.81655],[120.67654,23.81914],[120.67454,23.82004],[120.66994,23.81852],[120.66759,23.8166],[120.66473,23.81631],[120.66505,23.81504],[120.66245,23.81537],[120.65865,23.81453],[120.65561,23.81281],[120.65092,23.8125],[120.64798,23.81664],[120.64459,23.81755],[120.63993,23.82033],[120.64048,23.8214],[120.6396,23.82208],[120.63776,23.82178],[120.63874,23.82263],[120.63782,23.8237],[120.63919,23.82456],[120.63386,23.82584],[120.64001,23.82511],[120.63991,23.82575],[120.63773,23.82638],[120.63945,23.82742],[120.63604,23.82792],[120.63602,23.82848],[120.63677,23.82804],[120.63819,23.82892],[120.63678,23.83],[120.6372,23.83056],[120.63435,23.83111],[120.63845,23.83141],[120.63705,23.83279],[120.63339,23.83296],[120.63042,23.83119],[120.63051,23.83243],[120.6236,23.82948],[120.62296,23.83036],[120.62424,23.83175],[120.62813,23.83197],[120.63365,23.83409],[120.62911,23.8344],[120.63106,23.83564],[120.62827,23.83582],[120.62998,23.83735],[120.62492,23.83659],[120.62556,23.83765],[120.62823,23.83785],[120.62906,23.83868],[120.62812,23.83846],[120.62651,23.83988],[120.62612,23.84192],[120.62224,23.83866],[120.62301,23.83997],[120.62094,23.83936],[120.62094,23.84021],[120.62214,23.84085],[120.62085,23.84166],[120.61845,23.84038],[120.6186,23.83947],[120.61718,23.83762],[120.61744,23.83876],[120.61634,23.83942],[120.61677,23.84014],[120.61552,23.84038],[120.61978,23.84242],[120.61829,23.84259],[120.61965,23.84351],[120.61837,23.84462],[120.62109,23.8444],[120.6216,23.84658],[120.6236,23.84707],[120.62334,23.84812],[120.61966,23.84864],[120.62067,23.84909],[120.61943,23.84962],[120.62179,23.84959],[120.62271,23.8487],[120.62296,23.84986],[120.62344,23.8489],[120.62376,23.85029],[120.62487,23.85098],[120.6245,23.85226],[120.62596,23.85208],[120.62627,23.85412],[120.62525,23.85518],[120.62627,23.85475],[120.62631,23.85621],[120.62782,23.8574],[120.62668,23.8575],[120.62652,23.8586],[120.62545,23.85771],[120.62603,23.85847],[120.62483,23.8585],[120.62446,23.85976],[120.62224,23.86012],[120.62355,23.86197],[120.62209,23.8635],[120.62061,23.86372],[120.62006,23.86551],[120.62062,23.86785],[120.61991,23.86837],[120.62125,23.8686],[120.62155,23.86983],[120.62396,23.86892],[120.62378,23.87147],[120.62466,23.87163],[120.62581,23.87346],[120.62483,23.87711],[120.62672,23.8795],[120.62746,23.88351],[120.62959,23.88462],[120.62895,23.88587],[120.62942,23.8891],[120.63315,23.88851],[120.63529,23.8896],[120.63634,23.88835],[120.63707,23.88885],[120.63911,23.88818],[120.63954,23.88901],[120.64193,23.88775],[120.64256,23.88887],[120.64484,23.88707],[120.64772,23.88608],[120.64895,23.8866],[120.65279,23.8845],[120.66168,23.88213],[120.66694,23.88306],[120.67137,23.88156],[120.67652,23.88158],[120.68315,23.88041],[120.69643,23.88493],[120.70033,23.88677],[120.70302,23.88904],[120.70404,23.88773],[120.70622,23.8891],[120.70866,23.88898],[120.70918,23.88818],[120.71477,23.89018]]]}},{"type":"Feature","properties":{"code":"10008070","name":"南投縣鹿谷鄉"},"geometry":{"type":"Polygon","coordinates":[[[120.78331,23.81782],[120.79932,23.8155],[120.807,23.81592],[120.81143,23.81771],[120.81315,23.81188],[120.81732,23.81096],[120.81719,23.80895],[120.81539,23.80851],[120.81273,23.80578],[120.81028,23.79964],[120.81311,23.79659],[120.81297,23.79505],[120.8148,23.79412],[120.81363,23.79194],[120.81367,23.78954],[120.81533,23.77929],[120.81637,23.77764],[120.81567,23.77295],[120.81773,23.77118],[120.82303,23.76982],[120.82597,23.7651],[120.82974,23.76468],[120.83289,23.76263],[120.83248,23.75867],[120.8341,23.75726],[120.83472,23.75371],[120.83314,23.75108],[120.83139,23.75021],[120.83003,23.7482],[120.83031,23.73715],[120.8286,23.73515],[120.82786,23.73218],[120.82945,23.72809],[120.82889,23.72522],[120.82987,23.72165],[120.83216,23.71916],[120.83321,23.7157],[120.83618,23.7137],[120.83778,23.71351],[120.84093,23.71079],[120.83774,23.70955],[120.83291,23.70901],[120.83137,23.70728],[120.83215,23.70556],[120.82807,23.70197],[120.83006,23.69798],[120.82531,23.69509],[120.8247,23.69285],[120.82535,23.69176],[120.82202,23.69067],[120.81289,23.68151],[120.81104,23.67876],[120.80918,23.67766],[120.80822,23.67479],[120.80853,23.65481],[120.80681,23.65323],[120.80577,23.65073],[120.80213,23.64912],[120.80004,23.64928],[120.78743,23.65607],[120.78041,23.65493],[120.7768,23.65803],[120.77068,23.65961],[120.76848,23.66888],[120.76908,23.67171],[120.76814,23.67287],[120.76447,23.67391],[120.76422,23.67548],[120.76252,23.67716],[120.76261,23.67909],[120.75796,23.67904],[120.75682,23.68096],[120.75221,23.68289],[120.74382,23.68891],[120.74147,23.68964],[120.73916,23.6913],[120.73681,23.69585],[120.73532,23.69604],[120.73124,23.70052],[120.7325,23.70261],[120.73491,23.70441],[120.73665,23.70921],[120.73286,23.71457],[120.73422,23.71658],[120.73406,23.71872],[120.73536,23.72026],[120.73596,23.72302],[120.7352,23.7239],[120.73654,23.72609],[120.73509,23.72647],[120.73325,23.72846],[120.73492,23.73058],[120.73555,23.7338],[120.73393,23.73596],[120.73062,23.73697],[120.73213,23.73949],[120.72876,23.73909],[120.7281,23.73963],[120.72963,23.74165],[120.73301,23.74294],[120.73486,23.7423],[120.73531,23.74429],[120.7375,23.74415],[120.73752,23.74541],[120.73996,23.74605],[120.73968,23.7468],[120.74226,23.75007],[120.74059,23.75047],[120.7395,23.7544],[120.73673,23.75491],[120.73589,23.75678],[120.73211,23.75688],[120.73006,23.75931],[120.73001,23.76109],[120.72743,23.75952],[120.72515,23.75971],[120.72373,23.76321],[120.72099,23.76599],[120.71629,23.76849],[120.71365,23.77174],[120.71382,23.77324],[120.71961,23.77516],[120.72013,23.77803],[120.72116,23.77928],[120.72267,23.7785],[120.72606,23.77962],[120.73061,23.77901],[120.73184,23.78071],[120.73186,23.78362],[120.74146,23.78456],[120.74162,23.78632],[120.74389,23.78684],[120.7455,23.78915],[120.74917,23.79005],[120.7511,23.78954],[120.75312,23.79038],[120.75342,23.79208],[120.75681,23.79375],[120.75758,23.79622],[120.76011,23.79868],[120.7604,23.80057],[120.75935,23.80152],[120.75928,23.80296],[120.75658,23.8038],[120.75622,23.80554],[120.75999,23.80796],[120.76097,23.81063],[120.7623,23.81183],[120.76394,23.81695],[120.76872,23.81561],[120.7724,23.81603],[120.77505,23.81784],[120.78331,23.81782]]]}},{"type":"Feature","properties":{"code":"10008080","name":"南投縣中寮鄉"},"geometry":{"type":"Polygon","coordinates":[[[120.81129,23.97069],[120.81245,23.96965],[120.81906,23.96959],[120.82127,23.96855],[120.82369,23.96951],[120.82832,23.96891],[120.83156,23.97025],[120.83476,23.97049],[120.83673,23.96764],[120.8354,23.96433],[120.83688,23.95843],[120.83656,23.95711],[120.83416,23.95572],[120.83171,23.95579],[120.82982,23.95341],[120.82776,23.95397],[120.82712,23.94946],[120.82942,23.94739],[120.82963,23.94208],[120.82827,23.93997],[120.82887,23.93709],[120.83762,23.9361],[120.84182,23.93432],[120.84316,23.92962],[120.84259,23.92492],[120.84363,23.92363],[120.8425,23.92092],[120.84355,23.92027],[120.84455,23.91748],[120.84273,23.91566],[120.84692,23.91005],[120.84407,23.906],[120.8444,23.90513],[120.8468,23.90492],[120.84892,23.90362],[120.84989,23.89755],[120.85215,23.89675],[120.85152,23.89389],[120.85494,23.89019],[120.85284,23.88581],[120.85363,23.88264],[120.85156,23.88294],[120.84692,23.87996],[120.84808,23.87831],[120.84763,23.87704],[120.84821,23.8758],[120.84717,23.87214],[120.84918,23.86811],[120.84769,23.86277],[120.84794,23.85909],[120.84687,23.85771],[120.84387,23.85761],[120.84207,23.85537],[120.84065,23.85624],[120.83828,23.85483],[120.83584,23.85632],[120.83034,23.85651],[120.82716,23.85526],[120.82474,23.85304],[120.81884,23.85497],[120.81754,23.8536],[120.81471,23.8529],[120.81168,23.8502],[120.80896,23.8516],[120.8055,23.8507],[120.79857,23.85121],[120.79516,23.85248],[120.79249,23.85028],[120.79074,23.85014],[120.78569,23.85273],[120.78247,23.85085],[120.77968,23.85122],[120.77688,23.85037],[120.77891,23.84927],[120.77857,23.84866],[120.77413,23.84744],[120.77339,23.84529],[120.77046,23.84685],[120.76817,23.84681],[120.76658,23.84898],[120.76485,23.84828],[120.76337,23.85012],[120.76111,23.84966],[120.75905,23.8526],[120.75698,23.85219],[120.75679,23.85431],[120.75516,23.85579],[120.75464,23.8583],[120.7528,23.8579],[120.74976,23.85899],[120.74687,23.85734],[120.74542,23.85862],[120.74263,23.85846],[120.7411,23.85974],[120.73769,23.85967],[120.73681,23.85889],[120.73671,23.85988],[120.73373,23.86144],[120.73461,23.86368],[120.7327,23.86808],[120.73114,23.86942],[120.73104,23.87312],[120.7292,23.87567],[120.72696,23.87682],[120.72668,23.87885],[120.72772,23.88098],[120.72436,23.88299],[120.72426,23.89051],[120.72187,23.89106],[120.71754,23.89367],[120.71056,23.89415],[120.70709,23.89578],[120.70798,23.89758],[120.71211,23.89951],[120.71502,23.90609],[120.71718,23.90723],[120.71674,23.91154],[120.72045,23.91417],[120.71827,23.91508],[120.71822,23.91614],[120.71693,23.9162],[120.71782,23.91775],[120.71706,23.9193],[120.71575,23.92002],[120.71469,23.91943],[120.71303,23.92114],[120.71228,23.92006],[120.71123,23.92083],[120.71322,23.922],[120.71612,23.921],[120.71919,23.92278],[120.71949,23.92397],[120.72211,23.92394],[120.72338,23.92764],[120.72589,23.93066],[120.72874,23.92946],[120.72948,23.92834],[120.7347,23.92955],[120.73419,23.9356],[120.73297,23.93626],[120.73234,23.93894],[120.73298,23.94066],[120.73179,23.94287],[120.73373,23.94543],[120.73394,23.94908],[120.7384,23.94828],[120.74017,23.95008],[120.73983,23.9519],[120.74282,23.95111],[120.74149,23.95378],[120.74236,23.95603],[120.74922,23.95424],[120.74885,23.95639],[120.75104,23.95749],[120.75077,23.96044],[120.75399,23.96168],[120.75473,23.96118],[120.75572,23.96286],[120.7571,23.96219],[120.75851,23.96438],[120.7607,23.96448],[120.76378,23.96783],[120.76703,23.96769],[120.76704,23.96562],[120.77031,23.96457],[120.77002,23.9624],[120.77287,23.96082],[120.77527,23.95749],[120.77532,23.9558],[120.77639,23.95554],[120.77806,23.95612],[120.77884,23.95887],[120.7807,23.95958],[120.78237,23.95818],[120.78418,23.95828],[120.78507,23.95661],[120.78622,23.95624],[120.7873,23.95653],[120.78924,23.95919],[120.79098,23.95935],[120.79322,23.96084],[120.7946,23.95977],[120.79806,23.96031],[120.80291,23.96309],[120.80599,23.96917],[120.81093,23.97163],[120.81129,23.97069]]]}},{"type":"Feature","properties":{"code":"10008090","name":"南投縣魚池鄉"},"geometry":{"type":"Polygon","coordinates":[[[120.94465,23.93316],[120.94835,23.93144],[120.95219,23.93216],[120.95397,23.93165],[120.95443,23.93013],[120.95803,23.92832],[120.9604,23.93069],[120.96584,23.93012],[120.967,23.92821],[120.96525,23.92833],[120.96446,23.92763],[120.96541,23.92579],[120.96547,23.92335],[120.96748,23.92182],[120.96738,23.91819],[120.97117,23.91757],[120.9757,23.91275],[120.97882,23.91147],[120.98204,23.90782],[120.98462,23.90717],[120.98604,23.90489],[120.98324,23.90367],[120.98425,23.9007],[120.98607,23.90022],[120.99114,23.89553],[120.98833,23.89031],[120.98853,23.88787],[120.98968,23.88725],[120.99038,23.88511],[120.98675,23.88543],[120.98019,23.88353],[120.98263,23.87487],[120.98726,23.8716],[120.99494,23.85861],[120.99273,23.85305],[120.99316,23.84739],[120.99251,23.83939],[120.98487,23.83895],[120.98312,23.83963],[120.98146,23.83861],[120.97639,23.8379],[120.96762,23.84209],[120.96376,23.83832],[120.95883,23.84542],[120.95267,23.84843],[120.95201,23.85012],[120.95281,23.85195],[120.94906,23.85268],[120.94863,23.8505],[120.95002,23.84636],[120.9488,23.84556],[120.9477,23.84322],[120.94539,23.84516],[120.94254,23.84469],[120.94114,23.84307],[120.93932,23.84351],[120.93862,23.83905],[120.93734,23.83767],[120.93424,23.83664],[120.93532,23.83425],[120.93341,23.82945],[120.92471,23.82882],[120.92082,23.82731],[120.9163,23.82776],[120.91381,23.82644],[120.91307,23.82112],[120.9107,23.81921],[120.91096,23.81688],[120.90758,23.81592],[120.90561,23.81253],[120.90212,23.81255],[120.89826,23.81399],[120.89382,23.81056],[120.88806,23.80988],[120.88462,23.81062],[120.88163,23.81312],[120.87472,23.81382],[120.8735,23.8132],[120.87088,23.81604],[120.86959,23.8164],[120.86783,23.82251],[120.87209,23.82638],[120.872,23.82779],[120.87299,23.82871],[120.87441,23.83303],[120.87609,23.83416],[120.8762,23.8354],[120.88148,23.83761],[120.88309,23.84045],[120.88101,23.84477],[120.87551,23.84658],[120.87277,23.84824],[120.87048,23.85086],[120.87139,23.85177],[120.87153,23.85365],[120.86974,23.85891],[120.87169,23.86151],[120.87146,23.86562],[120.87442,23.86988],[120.87259,23.87038],[120.87214,23.87123],[120.87771,23.87808],[120.87393,23.87856],[120.87335,23.87925],[120.87347,23.8809],[120.8749,23.88155],[120.8743,23.88553],[120.87157,23.88716],[120.87147,23.88942],[120.87039,23.8911],[120.87083,23.89217],[120.86956,23.89387],[120.86987,23.89561],[120.86895,23.89581],[120.86969,23.89703],[120.86849,23.89833],[120.86934,23.90011],[120.86852,23.90105],[120.86822,23.90402],[120.86572,23.90748],[120.87736,23.91013],[120.87599,23.91224],[120.87696,23.91443],[120.87589,23.91665],[120.87799,23.91896],[120.878,23.92019],[120.87958,23.92052],[120.87971,23.92509],[120.88338,23.92581],[120.88725,23.92502],[120.88757,23.9272],[120.89074,23.92865],[120.89134,23.93118],[120.89325,23.93314],[120.8977,23.93139],[120.90053,23.92768],[120.90441,23.92673],[120.90621,23.92334],[120.90933,23.92279],[120.9168,23.9279],[120.91956,23.92801],[120.9218,23.92557],[120.9286,23.9234],[120.93163,23.92456],[120.93415,23.92843],[120.93739,23.92977],[120.93821,23.93118],[120.93987,23.93104],[120.94465,23.93316]]]}},{"type":"Feature","properties":{"code":"10008100","name":"南投縣國姓鄉"},"geometry":{"type":"Polygon","coordinates":[[[120.9525,24.1123],[120.95018,24.10822],[120.94983,24.10556],[120.94606,24.10298],[120.94297,24.09462],[120.94446,24.09329],[120.9436,24.09269],[120.94395,24.09063],[120.94547,24.09108],[120.94686,24.0866],[120.94525,24.08165],[120.9435,24.0813],[120.93749,24.0739],[120.94035,24.06698],[120.94148,24.06639],[120.94408,24.06707],[120.94608,24.06655],[120.95036,24.06271],[120.94514,24.06287],[120.94396,24.06202],[120.94435,24.05829],[120.94342,24.05689],[120.94398,24.05344],[120.94023,24.05269],[120.9407,24.0513],[120.93963,24.04938],[120.93946,24.04619],[120.93739,24.04471],[120.93482,24.04472],[120.93341,24.0452],[120.93371,24.04588],[120.93199,24.04746],[120.93056,24.04559],[120.92873,24.0452],[120.92683,24.04825],[120.92693,24.05017],[120.92462,24.04788],[120.91785,24.04809],[120.91452,24.04447],[120.91395,24.04213],[120.91117,24.04362],[120.91009,24.04289],[120.90822,24.04312],[120.90595,24.04031],[120.90339,24.0412],[120.9029,24.03971],[120.90392,24.03655],[120.90309,24.03514],[120.90186,24.03516],[120.90207,24.02987],[120.90031,24.02938],[120.89542,24.0228],[120.89183,24.02227],[120.88869,24.01906],[120.89075,24.01309],[120.89687,24.01178],[120.89819,24.00985],[120.90001,24.01115],[120.90168,24.01046],[120.90182,24.00632],[120.90424,24.00398],[120.90668,24.00256],[120.90962,24.00333],[120.90838,24.00072],[120.90703,23.99971],[120.90755,23.9986],[120.90646,23.99653],[120.90413,23.99368],[120.90333,23.98974],[120.90608,23.98395],[120.90653,23.97685],[120.90551,23.97576],[120.90773,23.97105],[120.90485,23.97126],[120.90312,23.97042],[120.90219,23.97183],[120.89957,23.97213],[120.89864,23.97075],[120.89499,23.96896],[120.89081,23.96917],[120.88548,23.96508],[120.88406,23.96239],[120.88502,23.96045],[120.88416,23.9582],[120.88262,23.95785],[120.88149,23.95485],[120.87921,23.9531],[120.8795,23.94986],[120.88063,23.94825],[120.87861,23.94301],[120.87972,23.93256],[120.87895,23.93086],[120.87899,23.92757],[120.87975,23.92325],[120.8795,23.92037],[120.878,23.92019],[120.87799,23.91896],[120.87589,23.91665],[120.87696,23.91443],[120.87599,23.91224],[120.87736,23.91013],[120.8642,23.90709],[120.86267,23.90423],[120.86234,23.90057],[120.8601,23.89684],[120.85629,23.89553],[120.85241,23.89273],[120.8514,23.89445],[120.85215,23.89675],[120.84989,23.89755],[120.84892,23.90362],[120.8468,23.90492],[120.84438,23.90514],[120.84405,23.90607],[120.84692,23.91005],[120.84273,23.91566],[120.84455,23.91748],[120.84355,23.92027],[120.8425,23.92092],[120.84363,23.92363],[120.84259,23.92492],[120.84316,23.92962],[120.84182,23.93432],[120.83762,23.9361],[120.82899,23.937],[120.82828,23.93969],[120.82964,23.94273],[120.82938,23.94754],[120.82712,23.94946],[120.82769,23.95387],[120.82989,23.95344],[120.83171,23.95579],[120.83589,23.95646],[120.83689,23.95828],[120.8354,23.96421],[120.83673,23.96764],[120.83477,23.97004],[120.83499,23.97137],[120.83319,23.97498],[120.83552,23.98372],[120.83459,23.98552],[120.83256,23.98659],[120.83087,23.99263],[120.82803,23.99391],[120.82696,23.99292],[120.82522,23.99487],[120.82351,23.99482],[120.82241,23.9936],[120.81937,23.99835],[120.81472,24.00073],[120.80825,24.00186],[120.80988,24.00733],[120.80344,24.00855],[120.80258,24.01084],[120.79995,24.013],[120.79866,24.01535],[120.79491,24.01628],[120.78615,24.01575],[120.7817,24.01778],[120.77953,24.02011],[120.77976,24.02111],[120.78257,24.02327],[120.78313,24.02478],[120.78465,24.02408],[120.78471,24.02751],[120.78588,24.02794],[120.78547,24.02863],[120.78606,24.02925],[120.78947,24.03123],[120.79154,24.03067],[120.79174,24.03178],[120.7929,24.03243],[120.79152,24.03354],[120.79169,24.03526],[120.79736,24.0411],[120.79659,24.04281],[120.80065,24.04865],[120.80141,24.0505],[120.80088,24.05138],[120.80342,24.05236],[120.80329,24.05626],[120.80667,24.06107],[120.80688,24.064],[120.80782,24.06521],[120.80913,24.06625],[120.81187,24.06607],[120.81446,24.0699],[120.81635,24.06846],[120.81925,24.06846],[120.82066,24.06979],[120.8293,24.07151],[120.82826,24.07817],[120.82891,24.08355],[120.82809,24.0869],[120.82837,24.09395],[120.83163,24.09689],[120.83249,24.09875],[120.83029,24.1025],[120.83451,24.10761],[120.83447,24.11296],[120.83628,24.11695],[120.83865,24.11907],[120.84211,24.12067],[120.84258,24.12256],[120.84485,24.12453],[120.84839,24.1238],[120.85387,24.12451],[120.85621,24.12148],[120.85721,24.1173],[120.8586,24.11621],[120.86443,24.11537],[120.86887,24.1176],[120.87245,24.11684],[120.87395,24.11516],[120.87413,24.11353],[120.87752,24.10987],[120.87914,24.1093],[120.87931,24.10594],[120.88089,24.10394],[120.88044,24.10321],[120.8815,24.10058],[120.87909,24.09825],[120.87811,24.09324],[120.87686,24.09119],[120.87802,24.08503],[120.87915,24.08565],[120.88032,24.08858],[120.88201,24.08832],[120.88587,24.09541],[120.88954,24.09642],[120.89133,24.0978],[120.89109,24.10203],[120.89425,24.10685],[120.89368,24.10866],[120.89417,24.11074],[120.89167,24.11176],[120.89024,24.11355],[120.89055,24.11517],[120.89195,24.11608],[120.89619,24.11645],[120.90489,24.11449],[120.90671,24.11265],[120.9072,24.1106],[120.90956,24.10923],[120.91355,24.10893],[120.91455,24.10757],[120.91988,24.10744],[120.92213,24.10943],[120.92715,24.11172],[120.93255,24.11258],[120.94395,24.12244],[120.94838,24.12494],[120.95011,24.12786],[120.95705,24.12418],[120.95553,24.116],[120.9525,24.1123]]]}},{"type":"Feature","properties":{"code":"10008110","name":"南投縣水里鄉"},"geometry":{"type":"Polygon","coordinates":[[[120.86898,23.89586],[120.86987,23.89561],[120.86956,23.89387],[120.87083,23.89217],[120.87039,23.8911],[120.87147,23.88942],[120.87157,23.88716],[120.8743,23.88553],[120.8749,23.88155],[120.87347,23.8809],[120.87349,23.87894],[120.87771,23.87808],[120.87214,23.87123],[120.87259,23.87038],[120.87442,23.86988],[120.87146,23.86562],[120.87169,23.86151],[120.86974,23.85891],[120.87153,23.85365],[120.87139,23.85177],[120.87048,23.85086],[120.87277,23.84824],[120.87551,23.84658],[120.88101,23.84477],[120.88309,23.84045],[120.88148,23.83761],[120.8762,23.8354],[120.87609,23.83416],[120.87441,23.83303],[120.87299,23.82871],[120.872,23.82779],[120.87209,23.82638],[120.86788,23.82262],[120.86959,23.8164],[120.87088,23.81604],[120.8735,23.8132],[120.87472,23.81382],[120.88163,23.81312],[120.88462,23.81062],[120.88781,23.80989],[120.89382,23.81056],[120.89826,23.81399],[120.90212,23.81255],[120.90553,23.81249],[120.90758,23.81592],[120.91096,23.81688],[120.9107,23.81921],[120.91307,23.82112],[120.91381,23.82644],[120.9163,23.82776],[120.92082,23.82731],[120.92471,23.82882],[120.93341,23.82945],[120.93257,23.82687],[120.93382,23.82473],[120.93284,23.82167],[120.93296,23.81724],[120.93447,23.81273],[120.93298,23.81124],[120.93311,23.8093],[120.93426,23.8079],[120.93321,23.80563],[120.93335,23.79894],[120.93416,23.79806],[120.93695,23.79779],[120.9366,23.79255],[120.93273,23.78601],[120.92888,23.78817],[120.92073,23.78923],[120.91694,23.79204],[120.91324,23.79305],[120.91089,23.79239],[120.90921,23.79086],[120.90877,23.78683],[120.90717,23.78578],[120.90068,23.78533],[120.89672,23.78628],[120.88929,23.78603],[120.88009,23.78364],[120.87392,23.78386],[120.87318,23.77919],[120.87436,23.7767],[120.8775,23.77333],[120.87731,23.7722],[120.87953,23.76734],[120.88248,23.76605],[120.88363,23.76391],[120.88182,23.76018],[120.87981,23.75223],[120.87953,23.74543],[120.88264,23.74253],[120.88272,23.73876],[120.88373,23.73571],[120.88531,23.73252],[120.88763,23.73173],[120.88922,23.72671],[120.87991,23.71905],[120.87717,23.71955],[120.87615,23.72122],[120.86967,23.72129],[120.86875,23.72361],[120.86766,23.7242],[120.86524,23.72358],[120.86305,23.72444],[120.8597,23.72168],[120.85353,23.71881],[120.85194,23.71714],[120.84538,23.71659],[120.84542,23.71218],[120.84067,23.71081],[120.83778,23.71351],[120.83618,23.7137],[120.83321,23.7157],[120.83216,23.71916],[120.82987,23.72165],[120.82887,23.72549],[120.82945,23.72809],[120.82788,23.73194],[120.8286,23.73515],[120.83031,23.73715],[120.83003,23.7482],[120.83139,23.75021],[120.83314,23.75108],[120.83472,23.75371],[120.8341,23.75726],[120.83248,23.75867],[120.83289,23.76263],[120.82974,23.76468],[120.82597,23.7651],[120.82303,23.76982],[120.81773,23.77118],[120.81567,23.77295],[120.81637,23.77764],[120.81533,23.77929],[120.81367,23.78954],[120.81363,23.79194],[120.8148,23.79412],[120.81297,23.79505],[120.81311,23.79659],[120.81028,23.79964],[120.81273,23.80578],[120.81539,23.80851],[120.81719,23.80895],[120.81747,23.81022],[120.81708,23.81117],[120.81315,23.81188],[120.81143,23.81771],[120.81727,23.82033],[120.82819,23.82151],[120.82917,23.82324],[120.82978,23.83083],[120.83119,23.83182],[120.83233,23.8352],[120.83463,23.83818],[120.83676,23.83884],[120.83934,23.83826],[120.84229,23.83933],[120.84476,23.83811],[120.84681,23.83972],[120.84767,23.84232],[120.84526,23.84254],[120.84403,23.84351],[120.84475,23.84584],[120.84123,23.85083],[120.84218,23.85242],[120.84196,23.85522],[120.84373,23.85747],[120.84687,23.85771],[120.84802,23.85936],[120.84769,23.86277],[120.84918,23.86811],[120.84717,23.87214],[120.84821,23.8758],[120.84763,23.87704],[120.84808,23.87831],[120.84692,23.87996],[120.85156,23.88294],[120.85363,23.88264],[120.85284,23.88581],[120.85495,23.89014],[120.85306,23.89262],[120.85622,23.89549],[120.8601,23.89684],[120.86234,23.90057],[120.86267,23.90423],[120.8642,23.90709],[120.86572,23.90748],[120.86822,23.90402],[120.86852,23.90105],[120.86934,23.90011],[120.86849,23.89833],[120.86969,23.89703],[120.86898,23.89586]]]}},{"type":"Feature","properties":{"code":"10008120","name":"南投縣信義鄉"},"geometry":{"type":"Polygon","coordinates":[[[121.15863,23.8627],[121.16879,23.8607],[121.17621,23.85646],[121.17941,23.85341],[121.18635,23.85158],[121.19216,23.85191],[121.1975,23.85105],[121.19969,23.84858],[121.20161,23.8481],[121.20453,23.84537],[121.20959,23.84431],[121.21459,23.83944],[121.2181,23.83873],[121.2204,23.83669],[121.22004,23.83242],[121.21869,23.83007],[121.22091,23.82644],[121.22106,23.8224],[121.22242,23.81951],[121.23095,23.81772],[121.23491,23.81811],[121.23452,23.81209],[121.23213,23.81036],[121.23033,23.81016],[121.22926,23.80883],[121.2276,23.80861],[121.22791,23.80533],[121.22647,23.80441],[121.22606,23.80228],[121.22551,23.79824],[121.22658,23.79609],[121.22662,23.79244],[121.22727,23.79109],[121.23045,23.79014],[121.2304,23.78797],[121.22629,23.78367],[121.22365,23.7824],[121.21955,23.7818],[121.21828,23.77972],[121.21297,23.77691],[121.21219,23.77569],[121.20868,23.77593],[121.20697,23.7751],[121.20601,23.77265],[121.20465,23.7724],[121.20675,23.76724],[121.20867,23.76585],[121.20648,23.76264],[121.21097,23.76111],[121.2134,23.75747],[121.21864,23.75638],[121.22148,23.75272],[121.22523,23.75178],[121.22931,23.75227],[121.23259,23.75048],[121.23332,23.7482],[121.23008,23.74718],[121.22885,23.74452],[121.22858,23.73508],[121.2298,23.73271],[121.22967,23.73008],[121.23227,23.72953],[121.23311,23.73013],[121.23357,23.72783],[121.23577,23.72464],[121.23941,23.72435],[121.23779,23.72007],[121.23955,23.7161],[121.23885,23.71351],[121.23927,23.71096],[121.24121,23.70873],[121.24091,23.70477],[121.23932,23.70019],[121.24121,23.69846],[121.23937,23.69469],[121.23943,23.68697],[121.23428,23.68096],[121.2324,23.67704],[121.23596,23.67077],[121.23584,23.66252],[121.23193,23.65788],[121.23025,23.64799],[121.22771,23.64518],[121.22412,23.63885],[121.22473,23.62682],[121.22355,23.62298],[121.21995,23.61693],[121.21732,23.6147],[121.21594,23.60727],[121.21451,23.60491],[121.21336,23.60031],[121.20813,23.59824],[121.20623,23.59579],[121.20173,23.59679],[121.20013,23.5964],[121.19396,23.6005],[121.1903,23.59719],[121.18941,23.59481],[121.18347,23.59316],[121.18204,23.59094],[121.17973,23.59003],[121.18001,23.58746],[121.17883,23.58312],[121.17804,23.58264],[121.1714,23.58414],[121.16987,23.58632],[121.16675,23.58714],[121.16051,23.58704],[121.15819,23.58573],[121.15557,23.58705],[121.15339,23.58678],[121.15198,23.58127],[121.15215,23.57316],[121.15511,23.57086],[121.16035,23.56976],[121.16034,23.56783],[121.15802,23.56405],[121.15714,23.55956],[121.15188,23.56047],[121.14995,23.55735],[121.14803,23.55658],[121.14612,23.55437],[121.14805,23.5524],[121.15106,23.54518],[121.14845,23.53953],[121.14808,23.53567],[121.14688,23.53411],[121.1501,23.53002],[121.1511,23.52705],[121.15076,23.52653],[121.14717,23.52725],[121.1444,23.5256],[121.13864,23.52094],[121.13526,23.51496],[121.13225,23.51511],[121.13113,23.51748],[121.12879,23.5185],[121.12635,23.51705],[121.12045,23.521],[121.1177,23.52164],[121.11549,23.52023],[121.1108,23.51906],[121.10367,23.51893],[121.10102,23.52125],[121.09736,23.52165],[121.09327,23.51778],[121.09185,23.51452],[121.08811,23.51405],[121.08307,23.51463],[121.07538,23.51733],[121.06846,23.51845],[121.06876,23.51477],[121.0661,23.50797],[121.06614,23.50631],[121.06298,23.50384],[121.06217,23.49954],[121.05725,23.49619],[121.0541,23.4956],[121.05279,23.49357],[121.05412,23.49011],[121.05361,23.48783],[121.05012,23.48653],[121.04855,23.48242],[121.04497,23.48054],[121.0389,23.47408],[121.04441,23.47012],[121.04965,23.46783],[121.05131,23.46431],[121.05893,23.46194],[121.05848,23.46048],[121.05591,23.45928],[121.05453,23.45738],[121.05182,23.4508],[121.04646,23.45087],[121.04396,23.44896],[121.03365,23.44551],[121.03365,23.44394],[121.03212,23.44258],[121.02866,23.44161],[121.02641,23.43909],[121.02203,23.439],[121.01851,23.43595],[121.01527,23.43541],[121.01414,23.43792],[121.01058,23.44124],[121.01062,23.4465],[121.01488,23.44964],[121.01585,23.45161],[121.01495,23.45428],[121.01172,23.45717],[121.00846,23.46209],[121.0059,23.46297],[120.99879,23.46238],[120.9846,23.46657],[120.98054,23.46921],[120.97063,23.46904],[120.96847,23.47123],[120.96671,23.4717],[120.96522,23.4707],[120.96099,23.47069],[120.9522,23.46772],[120.94752,23.46712],[120.94226,23.46932],[120.93757,23.47305],[120.93465,23.47311],[120.93096,23.47066],[120.92092,23.47493],[120.91748,23.47569],[120.91509,23.47463],[120.91021,23.47623],[120.90195,23.47608],[120.89984,23.47537],[120.88671,23.47556],[120.88427,23.47431],[120.8819,23.46829],[120.88003,23.46762],[120.87309,23.46853],[120.8632,23.47355],[120.85813,23.47285],[120.8542,23.4733],[120.84914,23.47209],[120.84701,23.47301],[120.84209,23.47326],[120.83897,23.47122],[120.83264,23.47473],[120.8299,23.48073],[120.82725,23.48296],[120.82618,23.48851],[120.8253,23.48971],[120.82545,23.49482],[120.82285,23.49867],[120.82407,23.50528],[120.82283,23.50862],[120.82304,23.51136],[120.81956,23.51558],[120.81911,23.51953],[120.82035,23.52148],[120.81797,23.52369],[120.81161,23.53371],[120.80864,23.53597],[120.80832,23.5393],[120.80883,23.54586],[120.8112,23.54925],[120.81149,23.55105],[120.81462,23.5518],[120.81594,23.55331],[120.81401,23.556],[120.82063,23.5624],[120.81992,23.56452],[120.82153,23.56848],[120.82111,23.57015],[120.8219,23.57091],[120.81963,23.57453],[120.81991,23.57768],[120.82157,23.5799],[120.82162,23.58214],[120.82469,23.5842],[120.82553,23.58637],[120.82062,23.58961],[120.81867,23.59371],[120.81705,23.59519],[120.81861,23.59824],[120.81832,23.59906],[120.81379,23.60095],[120.81584,23.60387],[120.81824,23.6042],[120.81725,23.60577],[120.81814,23.60798],[120.82167,23.60899],[120.82173,23.61048],[120.8252,23.61275],[120.82386,23.61429],[120.82323,23.61839],[120.81956,23.61972],[120.81645,23.62319],[120.81686,23.62484],[120.81603,23.62574],[120.81663,23.62729],[120.8161,23.62931],[120.81458,23.63065],[120.81363,23.64123],[120.80926,23.64427],[120.80812,23.64602],[120.80461,23.64712],[120.80394,23.64949],[120.80595,23.65094],[120.80681,23.65323],[120.80823,23.65396],[120.80884,23.65627],[120.80822,23.67479],[120.80918,23.67766],[120.81104,23.67876],[120.81289,23.68151],[120.82202,23.69067],[120.82535,23.69176],[120.8247,23.69285],[120.82503,23.69473],[120.83011,23.69808],[120.82807,23.70197],[120.83193,23.70524],[120.83231,23.70629],[120.83137,23.70728],[120.83307,23.70917],[120.83774,23.70955],[120.83984,23.71084],[120.84473,23.71167],[120.84549,23.71233],[120.84538,23.71659],[120.85194,23.71714],[120.85353,23.71881],[120.8597,23.72168],[120.86305,23.72444],[120.86524,23.72358],[120.86766,23.7242],[120.86875,23.72361],[120.86967,23.72129],[120.87615,23.72122],[120.87717,23.71955],[120.87991,23.71905],[120.88922,23.72671],[120.88763,23.73173],[120.88531,23.73252],[120.88373,23.73571],[120.88272,23.73876],[120.88264,23.74253],[120.87953,23.74543],[120.87981,23.75223],[120.88182,23.76018],[120.88363,23.76391],[120.88248,23.76605],[120.87953,23.76734],[120.87731,23.7722],[120.8775,23.77333],[120.87436,23.7767],[120.87318,23.77919],[120.87384,23.78377],[120.88009,23.78364],[120.88929,23.78603],[120.89672,23.78628],[120.90068,23.78533],[120.90717,23.78578],[120.90877,23.78683],[120.90921,23.79086],[120.91089,23.79239],[120.91324,23.79305],[120.91694,23.79204],[120.92073,23.78923],[120.92888,23.78817],[120.93306,23.78621],[120.93647,23.79193],[120.93695,23.79779],[120.93416,23.79806],[120.93335,23.79894],[120.93321,23.80563],[120.93426,23.8079],[120.93311,23.8093],[120.93298,23.81124],[120.93447,23.81273],[120.93296,23.81724],[120.93284,23.82167],[120.93379,23.82504],[120.93257,23.82687],[120.93528,23.83399],[120.93424,23.83664],[120.93734,23.83767],[120.93862,23.83905],[120.93932,23.84351],[120.94114,23.84307],[120.94254,23.84469],[120.94539,23.84516],[120.94789,23.8433],[120.9488,23.84556],[120.95002,23.84636],[120.94863,23.8505],[120.94906,23.85268],[120.95281,23.85195],[120.95201,23.85012],[120.95267,23.84843],[120.95883,23.84542],[120.96376,23.83832],[120.96762,23.84209],[120.97639,23.8379],[120.98146,23.83861],[120.98312,23.83963],[120.98487,23.83895],[120.99268,23.83937],[120.99653,23.83734],[121.00437,23.82567],[121.01112,23.82459],[121.01324,23.82062],[121.01917,23.82049],[121.02779,23.81782],[121.0364,23.81648],[121.03767,23.81592],[121.03858,23.81424],[121.04168,23.81388],[121.04705,23.81182],[121.05531,23.81165],[121.05856,23.81002],[121.06714,23.80912],[121.07039,23.8115],[121.07367,23.81146],[121.07946,23.81378],[121.08597,23.81427],[121.08885,23.81548],[121.09528,23.81477],[121.09773,23.81696],[121.101,23.81837],[121.11232,23.82185],[121.11238,23.82546],[121.11093,23.83125],[121.11232,23.83359],[121.11568,23.83403],[121.11978,23.83715],[121.12735,23.83894],[121.13237,23.83928],[121.13661,23.84183],[121.14106,23.84613],[121.14786,23.84871],[121.1504,23.85139],[121.15147,23.85765],[121.15438,23.86171],[121.15424,23.86465],[121.15594,23.86448],[121.15863,23.8627]]]}},{"type":"Feature","properties":{"code":"10008130","name":"南投縣仁愛鄉"},"geometry":{"type":"Polygon","coordinates":[[[121.27087,24.23661],[121.27686,24.23547],[121.27756,24.23211],[121.27994,24.2298],[121.28297,24.23103],[121.28421,24.22959],[121.28589,24.22909],[121.28888,24.23016],[121.29314,24.22916],[121.29401,24.22959],[121.29515,24.23225],[121.29869,24.23313],[121.29803,24.23405],[121.29875,24.23561],[121.30107,24.23669],[121.30252,24.23633],[121.30389,24.23368],[121.30882,24.23494],[121.3141,24.235],[121.31645,24.23439],[121.31965,24.23187],[121.32444,24.23301],[121.33317,24.22983],[121.33975,24.22632],[121.34302,24.22355],[121.34938,24.21044],[121.34833,24.20719],[121.34969,24.20032],[121.34899,24.19954],[121.34544,24.2],[121.34086,24.19846],[121.33581,24.19911],[121.32562,24.19612],[121.32291,24.19188],[121.31992,24.19124],[121.31579,24.18517],[121.31103,24.18325],[121.30708,24.18033],[121.29879,24.18009],[121.29644,24.17832],[121.29299,24.1772],[121.28661,24.17763],[121.28607,24.17665],[121.28788,24.17202],[121.28835,24.15774],[121.2862,24.15708],[121.28198,24.15819],[121.28033,24.15787],[121.28103,24.15449],[121.28346,24.1537],[121.28468,24.15229],[121.28422,24.14585],[121.28137,24.13587],[121.29586,24.13244],[121.29983,24.12921],[121.30354,24.12458],[121.31163,24.12019],[121.31566,24.11649],[121.325,24.11608],[121.3284,24.11463],[121.32823,24.11203],[121.32629,24.1083],[121.32566,24.10246],[121.31895,24.09501],[121.31919,24.09277],[121.32115,24.08887],[121.3233,24.08654],[121.32313,24.08494],[121.31793,24.0797],[121.30819,24.07331],[121.30606,24.0695],[121.30233,24.06635],[121.29989,24.06217],[121.29864,24.06169],[121.29554,24.06378],[121.28943,24.05889],[121.28647,24.05796],[121.28482,24.05533],[121.28321,24.05427],[121.28261,24.05128],[121.28498,24.04857],[121.28566,24.03953],[121.27866,24.02682],[121.27661,24.02461],[121.27632,24.02015],[121.27031,24.01002],[121.26956,24.00801],[121.27005,24.00671],[121.26557,24.00125],[121.26011,23.99232],[121.26143,23.9818],[121.26423,23.97598],[121.26512,23.97532],[121.27357,23.97525],[121.27562,23.96836],[121.27791,23.96583],[121.27517,23.9601],[121.27582,23.95586],[121.27471,23.95145],[121.27175,23.9485],[121.27433,23.94564],[121.27353,23.94414],[121.27396,23.94158],[121.27206,23.93835],[121.27386,23.93622],[121.27375,23.93375],[121.27485,23.93154],[121.27341,23.92849],[121.27651,23.92316],[121.27507,23.91858],[121.2763,23.91622],[121.27544,23.9147],[121.27608,23.90986],[121.27445,23.90732],[121.27043,23.9065],[121.26627,23.90727],[121.26106,23.9026],[121.2627,23.90014],[121.26244,23.89908],[121.26654,23.89841],[121.2652,23.89688],[121.26605,23.89405],[121.26551,23.89124],[121.26741,23.889],[121.26845,23.88375],[121.26551,23.88314],[121.26318,23.88077],[121.26304,23.87901],[121.26519,23.87283],[121.25809,23.87249],[121.25694,23.86946],[121.25304,23.86789],[121.25292,23.86296],[121.25214,23.8613],[121.25057,23.86102],[121.24997,23.85982],[121.25022,23.85678],[121.24868,23.85366],[121.24892,23.85213],[121.24452,23.84891],[121.24348,23.84498],[121.23942,23.84042],[121.23913,23.83635],[121.23773,23.83249],[121.23811,23.82963],[121.23668,23.82521],[121.23715,23.82351],[121.2391,23.82181],[121.23467,23.81806],[121.23095,23.81772],[121.22253,23.81942],[121.22106,23.8224],[121.22091,23.82644],[121.21874,23.82982],[121.22004,23.83242],[121.22058,23.83604],[121.21866,23.83842],[121.21459,23.83944],[121.20959,23.84431],[121.20453,23.84537],[121.20161,23.8481],[121.19969,23.84858],[121.1975,23.85105],[121.19216,23.85191],[121.18635,23.85158],[121.17941,23.85341],[121.17621,23.85646],[121.16879,23.8607],[121.15863,23.8627],[121.15449,23.8648],[121.15438,23.86171],[121.15147,23.85765],[121.1504,23.85139],[121.14786,23.84871],[121.14106,23.84613],[121.13661,23.84183],[121.13237,23.83928],[121.12735,23.83894],[121.11978,23.83715],[121.11568,23.83403],[121.11252,23.83372],[121.11093,23.8313],[121.11238,23.82546],[121.11232,23.82185],[121.101,23.81837],[121.09485,23.81465],[121.08885,23.81548],[121.08597,23.81427],[121.07946,23.81378],[121.07367,23.81146],[121.07,23.81135],[121.0674,23.80914],[121.05964,23.80987],[121.05531,23.81165],[121.04705,23.81182],[121.04168,23.81388],[121.03892,23.81411],[121.03739,23.81615],[121.03449,23.81631],[121.03169,23.8176],[121.02779,23.81782],[121.019,23.82052],[121.01324,23.82062],[121.01112,23.82459],[121.00437,23.82567],[120.99653,23.83734],[120.99251,23.83939],[120.99316,23.84739],[120.99273,23.85305],[120.99494,23.85861],[120.98726,23.8716],[120.98263,23.87487],[120.98019,23.88353],[120.98675,23.88543],[120.99038,23.88511],[120.98968,23.88725],[120.98853,23.88787],[120.98833,23.89031],[120.99117,23.89602],[120.98725,23.90231],[120.98656,23.90495],[120.98702,23.90657],[120.98605,23.90758],[120.9822,23.90862],[120.98293,23.90976],[120.98139,23.91035],[120.98548,23.91242],[120.9886,23.91023],[120.98869,23.9126],[120.98189,23.91905],[120.98372,23.92116],[120.98542,23.91994],[120.98674,23.92151],[120.9883,23.92039],[120.9894,23.92129],[120.98961,23.92288],[120.99093,23.92313],[120.99169,23.9245],[120.99763,23.9254],[120.99829,23.92401],[121.00179,23.92395],[121.00393,23.91496],[121.00674,23.91193],[121.00812,23.90816],[121.00999,23.90764],[121.0082,23.91059],[121.00812,23.92087],[121.01061,23.92099],[121.00853,23.92224],[121.00861,23.92423],[121.01197,23.9282],[121.01632,23.92955],[121.01641,23.93271],[121.01465,23.93314],[121.01315,23.9311],[121.01039,23.93011],[121.00809,23.92724],[121.00526,23.927],[121.00428,23.92589],[121.00125,23.92703],[120.99972,23.92917],[120.99833,23.92921],[120.99668,23.9305],[121.0002,23.93343],[121.00516,23.93954],[121.01004,23.93954],[121.01197,23.94072],[121.01444,23.94513],[121.0131,23.94685],[121.00817,23.94642],[121.00525,23.94744],[121.00458,23.9485],[121.00412,23.95239],[121.00193,23.95405],[121.00136,23.9558],[121.0026,23.95706],[121.00171,23.95743],[121.00188,23.95875],[121.00421,23.95877],[121.00549,23.95989],[121.00312,23.96071],[121.00193,23.9626],[121.00255,23.96346],[121.00156,23.9643],[121.00216,23.96685],[121.00628,23.96631],[121.00591,23.96481],[121.0069,23.96384],[121.00805,23.96415],[121.00792,23.96554],[121.01137,23.96763],[121.01703,23.96813],[121.02045,23.96217],[121.02452,23.95755],[121.02626,23.95721],[121.02772,23.95537],[121.03094,23.94406],[121.03308,23.94513],[121.03613,23.94512],[121.0391,23.94373],[121.04316,23.94372],[121.04482,23.943],[121.0461,23.94356],[121.04694,23.9473],[121.04953,23.94999],[121.04878,23.95445],[121.05205,23.95735],[121.05396,23.96121],[121.05646,23.96407],[121.05424,23.96691],[121.05337,23.9697],[121.0572,23.96887],[121.05915,23.97147],[121.06132,23.97182],[121.0622,23.97535],[121.06609,23.97833],[121.06716,23.9811],[121.06946,23.98353],[121.06573,23.99166],[121.06138,23.99491],[121.05836,23.99608],[121.0576,23.99922],[121.05868,24.00144],[121.05656,24.00482],[121.05298,24.00299],[121.04968,23.998],[121.0393,23.99946],[121.03399,23.9989],[121.0262,24.00396],[121.02029,24.00176],[121.0192,24.00049],[121.00891,24.00034],[121.00322,24.00735],[121.004,24.01066],[121.00649,24.01431],[121.00582,24.0173],[121.00276,24.02045],[120.99907,24.01949],[120.99617,24.02045],[120.99091,24.02021],[120.98717,24.02459],[120.9837,24.02653],[120.98124,24.03147],[120.97635,24.03283],[120.97447,24.0308],[120.97147,24.03089],[120.9652,24.0344],[120.96502,24.03834],[120.96283,24.0399],[120.95909,24.04482],[120.95447,24.04492],[120.95391,24.04605],[120.9508,24.04781],[120.95007,24.04944],[120.9446,24.04976],[120.94343,24.05651],[120.94435,24.05829],[120.94396,24.06202],[120.94514,24.06287],[120.95035,24.06283],[120.94908,24.06327],[120.9483,24.06516],[120.94608,24.06655],[120.94408,24.06707],[120.94148,24.06639],[120.94035,24.06698],[120.93853,24.07028],[120.93753,24.07424],[120.9435,24.0813],[120.94525,24.08165],[120.94686,24.0866],[120.94547,24.09108],[120.94395,24.09063],[120.9436,24.09269],[120.94446,24.09329],[120.94297,24.09462],[120.94606,24.10298],[120.94983,24.10556],[120.95086,24.10954],[120.95319,24.11363],[120.95553,24.116],[120.9568,24.1238],[120.96121,24.12015],[120.97116,24.12024],[120.97415,24.11922],[120.97559,24.11688],[120.98535,24.12021],[120.98923,24.11883],[120.99202,24.12105],[120.99202,24.12525],[120.99826,24.12671],[120.99955,24.12776],[121.00036,24.13228],[121.00325,24.13353],[121.0046,24.13765],[121.00681,24.14094],[121.00755,24.14378],[121.00707,24.14479],[121.00817,24.14704],[121.00972,24.1483],[121.01225,24.15333],[121.01336,24.15352],[121.01551,24.15601],[121.01954,24.15871],[121.0249,24.15797],[121.02736,24.15874],[121.02776,24.15956],[121.02977,24.15735],[121.03008,24.15506],[121.03122,24.15353],[121.03106,24.14922],[121.03333,24.14858],[121.0357,24.15091],[121.03577,24.15307],[121.03811,24.1582],[121.04291,24.15861],[121.04414,24.15966],[121.04743,24.16006],[121.05063,24.15827],[121.05266,24.1548],[121.05795,24.15923],[121.0594,24.16278],[121.0646,24.16302],[121.06634,24.16552],[121.07242,24.16987],[121.07525,24.17019],[121.08102,24.17546],[121.08488,24.17592],[121.09135,24.18273],[121.09107,24.18482],[121.09399,24.18789],[121.09441,24.19015],[121.10169,24.19563],[121.1042,24.19596],[121.10842,24.19801],[121.1131,24.19687],[121.11875,24.19721],[121.12295,24.19603],[121.12721,24.19677],[121.12926,24.19605],[121.13228,24.1969],[121.13636,24.19634],[121.14137,24.19965],[121.14286,24.20259],[121.14309,24.20562],[121.14615,24.20892],[121.14782,24.21285],[121.15143,24.21288],[121.15652,24.21474],[121.16098,24.21518],[121.16407,24.21985],[121.16437,24.22179],[121.16764,24.22539],[121.17349,24.22033],[121.17888,24.21361],[121.18171,24.21205],[121.18519,24.21445],[121.18851,24.21492],[121.19156,24.21659],[121.19202,24.21864],[121.19634,24.223],[121.20157,24.22164],[121.20824,24.2217],[121.21581,24.22535],[121.21971,24.22924],[121.22834,24.22471],[121.22834,24.22593],[121.23077,24.22605],[121.23041,24.22353],[121.23796,24.21971],[121.24074,24.22171],[121.24416,24.2225],[121.25195,24.23919],[121.25507,24.24322],[121.2588,24.24512],[121.26542,24.24567],[121.2664,24.24239],[121.26592,24.2411],[121.2685,24.23995],[121.26892,24.23792],[121.27087,24.23661]]]}}]}