{"type":"FeatureCollection","source":"https://data.gov.tw/dataset/7441 鄉鎮市區界線(TWD97經緯度)","agency":"內政部國土測繪中心","license":"政府資料開放授權條款第1版","generatedBy":"scripts/build-geo.py","features":[{"type":"Feature","properties":{"code":"10010010","name":"嘉義縣太保市"},"geometry":{"type":"Polygon","coordinates":[[[120.3884,23.51525],[120.38792,23.5091],[120.38896,23.50712],[120.39303,23.50662],[120.40477,23.51116],[120.40701,23.51063],[120.40911,23.50828],[120.40881,23.50657],[120.4064,23.50418],[120.40383,23.50374],[120.40101,23.50187],[120.4002,23.49876],[120.39447,23.50081],[120.39152,23.50027],[120.38934,23.49865],[120.38996,23.49794],[120.3892,23.49715],[120.38979,23.49135],[120.39472,23.49075],[120.39344,23.48238],[120.39442,23.48077],[120.39691,23.48044],[120.39689,23.47953],[120.39806,23.47953],[120.39907,23.47842],[120.3985,23.47401],[120.39928,23.47107],[120.3979,23.47026],[120.39665,23.46774],[120.39428,23.46646],[120.39417,23.46252],[120.38977,23.46253],[120.38825,23.46163],[120.38442,23.46126],[120.38446,23.45855],[120.38038,23.45857],[120.38011,23.4627],[120.37904,23.46465],[120.37427,23.46201],[120.37415,23.46322],[120.37184,23.46242],[120.36959,23.4635],[120.36818,23.46219],[120.36636,23.46189],[120.36083,23.46377],[120.36203,23.46106],[120.35549,23.45875],[120.35633,23.45646],[120.35818,23.45482],[120.35108,23.45241],[120.34988,23.45079],[120.35394,23.44935],[120.35175,23.44398],[120.35485,23.44208],[120.35363,23.43528],[120.35602,23.43451],[120.35348,23.43033],[120.35073,23.43145],[120.34235,23.42888],[120.34127,23.42997],[120.33895,23.43028],[120.33602,23.42911],[120.33395,23.42985],[120.33246,23.43275],[120.33187,23.43236],[120.32674,23.43494],[120.32349,23.43471],[120.32128,23.43581],[120.3204,23.4373],[120.31473,23.43709],[120.31319,23.43817],[120.30933,23.43763],[120.30771,23.4365],[120.29245,23.43469],[120.29144,23.43953],[120.29017,23.44103],[120.29131,23.44236],[120.29114,23.44403],[120.29217,23.44482],[120.29124,23.44566],[120.29231,23.44861],[120.28952,23.45252],[120.29467,23.46688],[120.28949,23.46773],[120.2903,23.47325],[120.29006,23.47811],[120.30353,23.47886],[120.30799,23.47564],[120.31487,23.48319],[120.31565,23.48753],[120.31733,23.48787],[120.31463,23.48882],[120.32079,23.49342],[120.32005,23.49519],[120.31586,23.49618],[120.31561,23.49791],[120.31378,23.49785],[120.31376,23.50045],[120.32024,23.49991],[120.32192,23.50061],[120.32268,23.50285],[120.32582,23.50491],[120.32594,23.50582],[120.33344,23.50829],[120.34199,23.50583],[120.34704,23.50639],[120.34782,23.50528],[120.35121,23.50508],[120.35287,23.50981],[120.35606,23.51061],[120.35672,23.51286],[120.35936,23.51338],[120.36072,23.51244],[120.36378,23.51405],[120.36788,23.50979],[120.36873,23.5031],[120.37234,23.50215],[120.37313,23.50322],[120.3758,23.5037],[120.37793,23.50535],[120.38024,23.51473],[120.38462,23.51544],[120.38631,23.51665],[120.3888,23.51607],[120.3884,23.51525]]]}},{"type":"Feature","properties":{"code":"10010130","name":"嘉義縣中埔鄉"},"geometry":{"type":"Polygon","coordinates":[[[120.47699,23.46192],[120.4806,23.46001],[120.48195,23.45782],[120.48984,23.45215],[120.49518,23.45286],[120.50783,23.45275],[120.51487,23.44986],[120.51786,23.44944],[120.5235,23.45154],[120.5272,23.45125],[120.53221,23.4526],[120.54307,23.45327],[120.55167,23.45187],[120.55811,23.4494],[120.55979,23.45016],[120.5664,23.45041],[120.5752,23.44493],[120.5785,23.44406],[120.58107,23.44451],[120.58591,23.44117],[120.58777,23.44198],[120.58994,23.44107],[120.59282,23.43871],[120.59439,23.43583],[120.59389,23.43352],[120.59481,23.42946],[120.59901,23.42691],[120.60257,23.42181],[120.60195,23.41996],[120.60291,23.41892],[120.60309,23.41678],[120.60115,23.41446],[120.60421,23.41035],[120.60242,23.40516],[120.60275,23.40343],[120.60103,23.40225],[120.60178,23.40056],[120.60155,23.39771],[120.60486,23.39573],[120.60288,23.38885],[120.59799,23.38098],[120.59792,23.37626],[120.59881,23.37491],[120.59881,23.37284],[120.5979,23.37076],[120.59494,23.36955],[120.5941,23.36837],[120.59296,23.3686],[120.59001,23.36727],[120.58713,23.36185],[120.58474,23.36155],[120.58278,23.36236],[120.58139,23.36165],[120.5791,23.36232],[120.5772,23.36173],[120.57605,23.36321],[120.57473,23.36322],[120.56793,23.35603],[120.56585,23.35473],[120.56194,23.35404],[120.55956,23.35222],[120.55851,23.34953],[120.55549,23.34569],[120.54717,23.34221],[120.54715,23.33981],[120.5417,23.34005],[120.53817,23.33796],[120.53548,23.33824],[120.53282,23.33638],[120.52693,23.33939],[120.52475,23.3382],[120.52311,23.34068],[120.52142,23.34046],[120.52068,23.34195],[120.51842,23.34201],[120.51558,23.34374],[120.51495,23.34327],[120.51043,23.34409],[120.50786,23.343],[120.50509,23.34481],[120.50567,23.34547],[120.50445,23.34654],[120.50464,23.34935],[120.50378,23.34939],[120.50356,23.35029],[120.50472,23.35468],[120.50616,23.3553],[120.50809,23.35276],[120.51084,23.354],[120.51242,23.35586],[120.51243,23.35983],[120.51118,23.36064],[120.51054,23.36436],[120.50805,23.36507],[120.50676,23.36703],[120.50493,23.36743],[120.50484,23.3689],[120.5032,23.36943],[120.5026,23.36954],[120.50179,23.36782],[120.49947,23.36803],[120.49606,23.36995],[120.49427,23.36949],[120.4915,23.37249],[120.4901,23.37112],[120.48873,23.37307],[120.48465,23.36953],[120.48394,23.36957],[120.483,23.37164],[120.48451,23.3796],[120.48918,23.38178],[120.49028,23.38307],[120.49141,23.38263],[120.49452,23.38431],[120.49682,23.38425],[120.49922,23.38786],[120.49715,23.38929],[120.4975,23.39123],[120.49514,23.3932],[120.4959,23.3943],[120.49761,23.3945],[120.49838,23.39914],[120.49732,23.40124],[120.49893,23.40288],[120.49898,23.40398],[120.49459,23.40341],[120.49284,23.40557],[120.49021,23.40612],[120.48733,23.40886],[120.4848,23.40853],[120.48366,23.4069],[120.48194,23.40663],[120.48251,23.40787],[120.48124,23.41096],[120.48171,23.4128],[120.4801,23.41436],[120.47982,23.4162],[120.47809,23.41713],[120.4783,23.41889],[120.47939,23.41995],[120.47908,23.42144],[120.48318,23.42182],[120.48349,23.424],[120.48618,23.42457],[120.48681,23.42591],[120.48763,23.42527],[120.48951,23.42639],[120.49319,23.42669],[120.49394,23.4298],[120.49334,23.43241],[120.4882,23.43619],[120.48716,23.43838],[120.47736,23.44186],[120.47356,23.44216],[120.47042,23.44044],[120.46768,23.43653],[120.46469,23.43473],[120.46176,23.42897],[120.45724,23.42713],[120.454,23.42732],[120.45122,23.429],[120.44682,23.42968],[120.44622,23.43078],[120.4466,23.43236],[120.44467,23.43433],[120.44368,23.43417],[120.44198,23.43182],[120.4399,23.43215],[120.4384,23.43603],[120.43956,23.43956],[120.44713,23.4434],[120.45024,23.44345],[120.45264,23.44464],[120.45461,23.44832],[120.45471,23.45032],[120.46102,23.45532],[120.46452,23.45561],[120.46455,23.4583],[120.46866,23.4616],[120.47699,23.46192]]]}},{"type":"Feature","properties":{"code":"10010160","name":"嘉義縣番路鄉"},"geometry":{"type":"Polygon","coordinates":[[[120.63473,23.49479],[120.64,23.49483],[120.6422,23.49382],[120.64258,23.49153],[120.63919,23.49002],[120.63775,23.48756],[120.63873,23.48375],[120.63814,23.48179],[120.64215,23.4736],[120.64125,23.47042],[120.64404,23.468],[120.64857,23.46577],[120.64627,23.46274],[120.64751,23.45873],[120.65412,23.45284],[120.65906,23.45213],[120.66144,23.45091],[120.66391,23.45122],[120.67415,23.4499],[120.67449,23.44823],[120.67903,23.44473],[120.67953,23.44276],[120.68141,23.44118],[120.68264,23.4386],[120.67736,23.4377],[120.67437,23.43625],[120.67321,23.43199],[120.66967,23.42861],[120.66668,23.42318],[120.66307,23.42085],[120.66219,23.41358],[120.65983,23.40924],[120.65833,23.40887],[120.65234,23.4109],[120.65246,23.40766],[120.65485,23.40495],[120.65548,23.40224],[120.65389,23.39959],[120.65002,23.40134],[120.64574,23.40203],[120.64765,23.39797],[120.64783,23.39457],[120.64649,23.3915],[120.6435,23.39023],[120.6433,23.38872],[120.64212,23.38793],[120.64204,23.38537],[120.6432,23.38421],[120.64192,23.37658],[120.64263,23.37516],[120.64436,23.37416],[120.6457,23.37142],[120.64632,23.36707],[120.64365,23.36648],[120.64225,23.36534],[120.63911,23.35734],[120.63497,23.35309],[120.63561,23.34855],[120.63839,23.34415],[120.63522,23.34431],[120.63418,23.34209],[120.63214,23.34117],[120.62574,23.34177],[120.62002,23.33973],[120.61899,23.34018],[120.61826,23.34256],[120.60841,23.3438],[120.60703,23.34697],[120.60529,23.34686],[120.60429,23.34784],[120.59829,23.34699],[120.5925,23.35189],[120.59203,23.35333],[120.58963,23.3539],[120.59036,23.35577],[120.59015,23.3583],[120.58715,23.36165],[120.59001,23.36727],[120.59296,23.3686],[120.5941,23.36837],[120.59494,23.36955],[120.5979,23.37076],[120.59881,23.37284],[120.59881,23.37491],[120.59792,23.37626],[120.59799,23.38098],[120.60288,23.38885],[120.60487,23.3958],[120.60174,23.39748],[120.60129,23.39882],[120.60178,23.40056],[120.60104,23.40248],[120.60275,23.40343],[120.60242,23.40516],[120.60421,23.41027],[120.60115,23.41446],[120.60309,23.41678],[120.60291,23.41892],[120.60195,23.41996],[120.60257,23.42181],[120.59901,23.42691],[120.59481,23.42946],[120.59389,23.43352],[120.59439,23.43583],[120.59255,23.43899],[120.58832,23.4419],[120.58632,23.44111],[120.58425,23.44185],[120.58114,23.44449],[120.5785,23.44406],[120.57513,23.44496],[120.5664,23.45041],[120.55979,23.45016],[120.55811,23.4494],[120.55167,23.45187],[120.54183,23.45333],[120.53221,23.4526],[120.5272,23.45125],[120.5235,23.45154],[120.51707,23.44945],[120.50801,23.45273],[120.49518,23.45286],[120.49703,23.45524],[120.49753,23.45787],[120.50066,23.46097],[120.49971,23.46539],[120.50177,23.46692],[120.50375,23.46718],[120.50486,23.46951],[120.50656,23.47009],[120.50718,23.47176],[120.50862,23.47137],[120.50935,23.47267],[120.50901,23.47516],[120.50508,23.47878],[120.50369,23.47888],[120.50408,23.48098],[120.50182,23.48093],[120.50373,23.485],[120.50197,23.4862],[120.50097,23.4886],[120.50131,23.48982],[120.50811,23.48269],[120.50859,23.48355],[120.51116,23.48343],[120.51229,23.48436],[120.51545,23.48138],[120.52347,23.48031],[120.5251,23.48036],[120.52589,23.48139],[120.52748,23.47972],[120.52846,23.48008],[120.53103,23.47877],[120.53285,23.47968],[120.53279,23.4857],[120.53362,23.4876],[120.53609,23.48837],[120.53334,23.48953],[120.53476,23.49091],[120.53671,23.48937],[120.53947,23.48922],[120.53936,23.48587],[120.5416,23.48445],[120.54306,23.48477],[120.54592,23.48271],[120.54592,23.48128],[120.54364,23.48082],[120.54444,23.47888],[120.54308,23.47791],[120.54306,23.47668],[120.54399,23.47593],[120.54428,23.47413],[120.54642,23.47302],[120.54803,23.47082],[120.55234,23.47142],[120.56073,23.46606],[120.56342,23.47141],[120.56585,23.47116],[120.56833,23.46961],[120.56984,23.46955],[120.57024,23.46794],[120.57197,23.46684],[120.57175,23.46472],[120.57362,23.46354],[120.57586,23.46412],[120.57731,23.46268],[120.57824,23.46303],[120.58022,23.46181],[120.58252,23.4627],[120.5836,23.46119],[120.58934,23.46231],[120.59116,23.46481],[120.59323,23.46575],[120.59815,23.46487],[120.60406,23.46814],[120.60638,23.46724],[120.60811,23.46515],[120.60943,23.46578],[120.61167,23.47203],[120.61225,23.47774],[120.61532,23.47882],[120.6172,23.48229],[120.61972,23.48456],[120.61863,23.48614],[120.61865,23.4876],[120.62081,23.49139],[120.62809,23.49231],[120.62956,23.49818],[120.63268,23.49717],[120.63473,23.49479]]]}},{"type":"Feature","properties":{"code":"10010120","name":"嘉義縣水上鄉"},"geometry":{"type":"Polygon","coordinates":[[[120.41234,23.46441],[120.41318,23.46207],[120.41516,23.46027],[120.4241,23.46136],[120.4293,23.46104],[120.4302,23.45218],[120.43285,23.45011],[120.43446,23.45069],[120.43695,23.44649],[120.43787,23.44666],[120.43855,23.44576],[120.43824,23.44481],[120.43586,23.44358],[120.43872,23.4412],[120.43973,23.43918],[120.43838,23.43616],[120.43969,23.43235],[120.44191,23.43179],[120.44368,23.43417],[120.44475,23.4343],[120.4466,23.43236],[120.44622,23.43078],[120.44696,23.42962],[120.45122,23.429],[120.454,23.42732],[120.45706,23.42711],[120.46164,23.42889],[120.46469,23.43473],[120.46759,23.43645],[120.46944,23.43956],[120.47325,23.44216],[120.47736,23.44186],[120.48745,23.4382],[120.4882,23.43619],[120.49349,23.43217],[120.49347,23.42716],[120.49271,23.42645],[120.4892,23.4263],[120.48769,23.42528],[120.48681,23.42591],[120.48618,23.42457],[120.48349,23.424],[120.48318,23.42182],[120.47908,23.42144],[120.47939,23.41995],[120.4783,23.41889],[120.47809,23.41713],[120.47982,23.4162],[120.4801,23.41436],[120.48171,23.4128],[120.48124,23.41096],[120.48251,23.40787],[120.48194,23.40663],[120.48366,23.4069],[120.4848,23.40853],[120.48733,23.40886],[120.49021,23.40612],[120.49284,23.40557],[120.49459,23.40341],[120.49898,23.40398],[120.49893,23.40288],[120.49732,23.40124],[120.49838,23.39914],[120.49754,23.39438],[120.4959,23.3943],[120.49491,23.39323],[120.49486,23.39441],[120.49032,23.39562],[120.48865,23.39361],[120.48921,23.39248],[120.48554,23.39306],[120.48567,23.39144],[120.484,23.39152],[120.48315,23.38984],[120.48087,23.38931],[120.47942,23.38759],[120.47747,23.39071],[120.47538,23.391],[120.47611,23.39394],[120.47325,23.39817],[120.46952,23.3994],[120.46769,23.40112],[120.46495,23.40077],[120.46184,23.40244],[120.46094,23.40471],[120.45919,23.40464],[120.45398,23.40722],[120.45432,23.40634],[120.45327,23.40648],[120.45008,23.40923],[120.44454,23.41101],[120.43991,23.41374],[120.4394,23.41295],[120.43808,23.41336],[120.43691,23.41229],[120.43621,23.41282],[120.4344,23.41214],[120.43435,23.41108],[120.43225,23.41082],[120.43168,23.40792],[120.43031,23.40648],[120.42868,23.40731],[120.42776,23.40637],[120.42195,23.40704],[120.42006,23.40346],[120.41795,23.40852],[120.4163,23.41042],[120.41449,23.41124],[120.41049,23.41017],[120.40811,23.41343],[120.4067,23.41151],[120.40417,23.41005],[120.38425,23.40408],[120.35985,23.40267],[120.35585,23.40173],[120.35737,23.40841],[120.35304,23.41199],[120.34978,23.41071],[120.35045,23.41346],[120.35261,23.41439],[120.35447,23.41809],[120.35808,23.41932],[120.35599,23.42324],[120.35604,23.42852],[120.35675,23.43161],[120.35875,23.43366],[120.35363,23.43528],[120.35485,23.44208],[120.35175,23.44404],[120.35394,23.44935],[120.34988,23.45079],[120.35108,23.45241],[120.35821,23.45486],[120.35633,23.45646],[120.35553,23.45881],[120.36203,23.46106],[120.36089,23.46378],[120.36636,23.46189],[120.36818,23.46219],[120.36959,23.4635],[120.37184,23.46242],[120.37415,23.46322],[120.37427,23.46201],[120.37904,23.46465],[120.38011,23.4627],[120.38012,23.45862],[120.38417,23.45846],[120.38442,23.46126],[120.38825,23.46163],[120.38971,23.46252],[120.39694,23.46257],[120.41078,23.46477],[120.41234,23.46441]]]}},{"type":"Feature","properties":{"code":"10010090","name":"嘉義縣東石鄉"},"geometry":{"type":"MultiPolygon","coordinates":[[[[120.15192,23.39274],[120.15251,23.39164],[120.15153,23.39261],[120.15109,23.39165],[120.15239,23.39045],[120.1502,23.38918],[120.14771,23.39853],[120.1439,23.40288],[120.14094,23.41105],[120.14117,23.41251],[120.14475,23.40377],[120.14981,23.39853],[120.15192,23.39274]]],[[[120.1369,23.42136],[120.1353,23.42274],[120.13562,23.42548],[120.13547,23.42376],[120.1369,23.42136]]],[[[120.15108,23.51851],[120.15814,23.51592],[120.16456,23.51583],[120.16541,23.51721],[120.16659,23.51723],[120.18098,23.50985],[120.18755,23.5106],[120.18993,23.51004],[120.19674,23.513],[120.20128,23.51244],[120.20099,23.5114],[120.20186,23.51127],[120.20099,23.50766],[120.20906,23.50447],[120.21131,23.50205],[120.21503,23.50083],[120.21696,23.49891],[120.2167,23.49721],[120.21285,23.49777],[120.21071,23.49632],[120.21015,23.49361],[120.21163,23.48976],[120.21309,23.48962],[120.21432,23.49263],[120.21852,23.49344],[120.22093,23.49308],[120.2193,23.49168],[120.22148,23.48844],[120.21925,23.48719],[120.21457,23.48622],[120.22115,23.482],[120.22506,23.47826],[120.2263,23.46914],[120.22552,23.46563],[120.22643,23.46369],[120.22184,23.46294],[120.22163,23.45983],[120.22007,23.45947],[120.21585,23.45563],[120.21431,23.45696],[120.21307,23.45695],[120.2109,23.4558],[120.21027,23.4539],[120.20827,23.45376],[120.19434,23.44846],[120.20135,23.44391],[120.20622,23.44202],[120.20701,23.44076],[120.20704,23.43967],[120.20498,23.43735],[120.20759,23.43298],[120.20631,23.42704],[120.20719,23.42407],[120.20436,23.42212],[120.20381,23.42068],[120.20096,23.42067],[120.20008,23.4184],[120.19497,23.42152],[120.1931,23.42169],[120.19283,23.41896],[120.19028,23.41554],[120.18824,23.42294],[120.18648,23.42414],[120.18588,23.42108],[120.18136,23.42069],[120.17664,23.41749],[120.17379,23.41056],[120.17296,23.41044],[120.17183,23.41189],[120.17087,23.41097],[120.16991,23.40913],[120.17112,23.40767],[120.16429,23.40414],[120.16149,23.4046],[120.15999,23.40537],[120.15998,23.40612],[120.15414,23.40426],[120.15383,23.39915],[120.15301,23.39861],[120.15244,23.39978],[120.15164,23.39853],[120.14941,23.40615],[120.14928,23.41312],[120.1482,23.41486],[120.15127,23.41829],[120.14954,23.4198],[120.14953,23.42303],[120.156,23.4273],[120.15574,23.42857],[120.15362,23.4284],[120.15126,23.42615],[120.1486,23.42571],[120.14886,23.42743],[120.15051,23.42767],[120.14822,23.4278],[120.14818,23.42722],[120.14796,23.42792],[120.14551,23.4286],[120.14576,23.43307],[120.14728,23.43633],[120.14652,23.43747],[120.14689,23.43837],[120.14833,23.43872],[120.14979,23.44185],[120.1556,23.44826],[120.15097,23.44898],[120.1517,23.45197],[120.15278,23.45215],[120.15225,23.45485],[120.15115,23.45568],[120.14968,23.45427],[120.14258,23.45145],[120.13869,23.44894],[120.13992,23.45068],[120.13885,23.45264],[120.13539,23.45113],[120.13643,23.44849],[120.13819,23.44904],[120.13539,23.4477],[120.13325,23.45158],[120.13437,23.45407],[120.13905,23.45805],[120.14482,23.45983],[120.14602,23.46427],[120.14695,23.46518],[120.14612,23.46577],[120.14557,23.46424],[120.14524,23.46494],[120.14608,23.46611],[120.14432,23.46805],[120.14409,23.47011],[120.14558,23.47224],[120.14487,23.4734],[120.14585,23.47409],[120.14498,23.47334],[120.1459,23.47228],[120.14679,23.47293],[120.1463,23.47377],[120.14693,23.47306],[120.14784,23.47372],[120.14704,23.47476],[120.14603,23.47422],[120.14689,23.475],[120.1478,23.47544],[120.14818,23.47441],[120.14902,23.47476],[120.14866,23.47583],[120.14809,23.47567],[120.14962,23.47603],[120.14905,23.47814],[120.15411,23.48225],[120.15472,23.48405],[120.15579,23.48407],[120.15665,23.48754],[120.15523,23.49108],[120.1601,23.49185],[120.16936,23.48989],[120.16962,23.49047],[120.16841,23.49057],[120.16967,23.49051],[120.16968,23.4917],[120.16865,23.49175],[120.16968,23.49219],[120.16074,23.49293],[120.15871,23.49358],[120.15897,23.49455],[120.15786,23.49504],[120.13357,23.48815],[120.12542,23.48837],[120.12128,23.49187],[120.11943,23.49549],[120.11892,23.51506],[120.12038,23.51852],[120.12403,23.52042],[120.14245,23.51743],[120.14264,23.5185],[120.14585,23.51848],[120.14585,23.52082],[120.15108,23.51851]]]]}},{"type":"Feature","properties":{"code":"10010020","name":"嘉義縣朴子市"},"geometry":{"type":"Polygon","coordinates":[[[120.27728,23.49146],[120.28374,23.49038],[120.28342,23.4876],[120.28422,23.48618],[120.29115,23.4814],[120.29005,23.47804],[120.2903,23.47325],[120.28949,23.46773],[120.29467,23.46688],[120.28952,23.45252],[120.2923,23.4485],[120.29124,23.44566],[120.29026,23.44539],[120.28899,23.44326],[120.28822,23.44392],[120.28853,23.44624],[120.2879,23.4468],[120.28692,23.4464],[120.28717,23.44406],[120.2848,23.44471],[120.2843,23.44588],[120.28483,23.44781],[120.28335,23.44783],[120.28273,23.44589],[120.28102,23.44573],[120.2825,23.44926],[120.28166,23.45018],[120.27755,23.44983],[120.27594,23.44823],[120.27334,23.44805],[120.27112,23.45057],[120.26951,23.44765],[120.26696,23.44814],[120.26994,23.44491],[120.26965,23.43106],[120.27722,23.43133],[120.28166,23.43285],[120.28183,23.42734],[120.28327,23.42616],[120.28247,23.42503],[120.27972,23.42446],[120.27978,23.42318],[120.28139,23.42318],[120.27995,23.42149],[120.27793,23.42127],[120.27794,23.4195],[120.27693,23.41845],[120.27387,23.41844],[120.2741,23.42143],[120.27236,23.42256],[120.27001,23.41942],[120.26617,23.41844],[120.26741,23.41733],[120.26695,23.41547],[120.26785,23.41265],[120.26759,23.40933],[120.26443,23.40743],[120.26294,23.40801],[120.25997,23.40393],[120.25794,23.40369],[120.25948,23.40023],[120.25946,23.39817],[120.25818,23.39464],[120.25728,23.39471],[120.24578,23.39852],[120.2432,23.40066],[120.24288,23.40285],[120.23383,23.40918],[120.2359,23.41184],[120.2376,23.41623],[120.23578,23.41775],[120.23737,23.41972],[120.23662,23.42121],[120.23713,23.42401],[120.23548,23.42412],[120.23517,23.42283],[120.23124,23.42162],[120.23381,23.42043],[120.23355,23.41986],[120.23042,23.41991],[120.2282,23.41884],[120.22478,23.42193],[120.22405,23.42195],[120.22298,23.4201],[120.21871,23.42304],[120.21828,23.4288],[120.21967,23.42878],[120.21951,23.43388],[120.22097,23.43635],[120.22185,23.43626],[120.22014,23.43723],[120.22076,23.43876],[120.22042,23.44178],[120.2195,23.44191],[120.21801,23.4406],[120.21375,23.44265],[120.2116,23.44578],[120.20884,23.44673],[120.20823,23.44825],[120.20933,23.44896],[120.20796,23.44954],[120.20747,23.45168],[120.20623,23.45295],[120.21027,23.4539],[120.2109,23.4558],[120.21307,23.45695],[120.21431,23.45696],[120.21589,23.45565],[120.22007,23.45947],[120.22163,23.45983],[120.22184,23.46294],[120.22639,23.46361],[120.22552,23.46563],[120.22603,23.46904],[120.23047,23.46735],[120.23822,23.46941],[120.23852,23.47398],[120.241,23.47596],[120.2434,23.47617],[120.24601,23.47527],[120.25083,23.47034],[120.25255,23.47005],[120.25394,23.47478],[120.25582,23.47761],[120.25826,23.47712],[120.26216,23.47847],[120.26187,23.48541],[120.26688,23.48892],[120.27355,23.49116],[120.27728,23.49146]]]}},{"type":"Feature","properties":{"code":"10010040","name":"嘉義縣大林鎮"},"geometry":{"type":"Polygon","coordinates":[[[120.49298,23.63317],[120.49949,23.63506],[120.50356,23.63528],[120.50587,23.6339],[120.50765,23.63023],[120.50649,23.62815],[120.50645,23.62586],[120.5077,23.62299],[120.50949,23.6217],[120.51026,23.61933],[120.51504,23.61519],[120.51809,23.61046],[120.52773,23.60321],[120.52915,23.60026],[120.53214,23.59884],[120.53337,23.59682],[120.5318,23.59556],[120.5336,23.59164],[120.52943,23.58855],[120.52667,23.58767],[120.5248,23.58561],[120.52661,23.58097],[120.52888,23.5809],[120.53008,23.57999],[120.5296,23.57737],[120.53157,23.57333],[120.5333,23.57107],[120.53521,23.57055],[120.53584,23.56887],[120.53409,23.56665],[120.53112,23.56622],[120.5314,23.56044],[120.53076,23.55932],[120.52821,23.56154],[120.52455,23.5606],[120.52162,23.55817],[120.51959,23.55804],[120.51843,23.55613],[120.51915,23.55499],[120.51639,23.55157],[120.51255,23.55102],[120.51237,23.55013],[120.51127,23.55011],[120.51025,23.55143],[120.51232,23.55517],[120.5121,23.55631],[120.51071,23.55561],[120.50812,23.55771],[120.50796,23.5556],[120.50692,23.55492],[120.50485,23.55636],[120.50311,23.55613],[120.49957,23.55735],[120.49977,23.55863],[120.5024,23.56167],[120.50143,23.56502],[120.50061,23.56496],[120.49991,23.5633],[120.49886,23.56421],[120.49553,23.56406],[120.49462,23.56706],[120.49096,23.56822],[120.4894,23.56773],[120.48811,23.56549],[120.48661,23.56761],[120.48322,23.56622],[120.47502,23.5768],[120.4735,23.5755],[120.46994,23.5758],[120.46939,23.5772],[120.47031,23.57853],[120.46996,23.5807],[120.46806,23.5817],[120.46432,23.58256],[120.4601,23.57845],[120.45845,23.5786],[120.45686,23.58026],[120.45396,23.58711],[120.44833,23.59013],[120.4488,23.59299],[120.44822,23.59375],[120.44273,23.59423],[120.43471,23.59134],[120.42695,23.59207],[120.42593,23.59332],[120.42618,23.59528],[120.4295,23.59908],[120.42619,23.59901],[120.42783,23.60254],[120.42684,23.60545],[120.417,23.60517],[120.41465,23.60142],[120.41367,23.60121],[120.41291,23.60212],[120.40844,23.60212],[120.40639,23.60336],[120.40761,23.6064],[120.40514,23.60736],[120.40639,23.61005],[120.40802,23.61246],[120.41179,23.61469],[120.41423,23.61864],[120.4137,23.62137],[120.41211,23.62128],[120.41191,23.62208],[120.41335,23.62256],[120.41612,23.62146],[120.41687,23.62294],[120.42007,23.6252],[120.42096,23.62477],[120.42203,23.61927],[120.42538,23.61801],[120.42762,23.61934],[120.43015,23.61838],[120.43154,23.61984],[120.43181,23.62156],[120.43362,23.62287],[120.43597,23.62178],[120.43717,23.62204],[120.437,23.6238],[120.4351,23.62475],[120.43566,23.62586],[120.43787,23.62653],[120.44113,23.62597],[120.44264,23.62889],[120.4445,23.63053],[120.44997,23.62942],[120.45303,23.63069],[120.45403,23.62946],[120.45105,23.62712],[120.45427,23.62631],[120.45848,23.62767],[120.4604,23.62934],[120.46614,23.63027],[120.47399,23.63107],[120.47702,23.62954],[120.47926,23.63295],[120.48586,23.63063],[120.48787,23.63071],[120.48717,23.63416],[120.48873,23.6359],[120.49298,23.63317]]]}},{"type":"Feature","properties":{"code":"10010050","name":"嘉義縣民雄鄉"},"geometry":{"type":"Polygon","coordinates":[[[120.44836,23.58383],[120.4536,23.5824],[120.45435,23.5808],[120.45606,23.58249],[120.45686,23.58026],[120.45908,23.57831],[120.46045,23.57872],[120.46432,23.58256],[120.46905,23.58133],[120.46991,23.58082],[120.47031,23.57862],[120.46941,23.57742],[120.46994,23.5758],[120.4735,23.5755],[120.47502,23.5768],[120.4833,23.56619],[120.48661,23.56761],[120.48811,23.56549],[120.4894,23.56773],[120.49096,23.56822],[120.49462,23.56706],[120.49553,23.56406],[120.49886,23.56421],[120.49991,23.5633],[120.50061,23.56496],[120.50143,23.56502],[120.5024,23.56167],[120.49977,23.55863],[120.49985,23.55707],[120.50485,23.55636],[120.507,23.55492],[120.50796,23.5556],[120.5078,23.55753],[120.50849,23.5577],[120.51064,23.55564],[120.51233,23.55604],[120.51025,23.55143],[120.51127,23.55011],[120.51254,23.55022],[120.51255,23.55102],[120.51668,23.55166],[120.51921,23.5506],[120.51833,23.54958],[120.51812,23.54738],[120.51402,23.54269],[120.51406,23.54156],[120.51254,23.54184],[120.51177,23.54373],[120.51025,23.54318],[120.51039,23.54566],[120.509,23.5472],[120.50711,23.54736],[120.50535,23.54596],[120.50493,23.54525],[120.50579,23.54447],[120.50386,23.54065],[120.50383,23.53796],[120.49859,23.5352],[120.49822,23.53377],[120.49693,23.53285],[120.49665,23.53109],[120.49768,23.52711],[120.49559,23.52642],[120.49566,23.51952],[120.49021,23.51361],[120.48868,23.51327],[120.49074,23.51202],[120.48518,23.50754],[120.48532,23.50606],[120.48131,23.50438],[120.4735,23.50685],[120.47083,23.50382],[120.47013,23.50021],[120.46778,23.49886],[120.46443,23.49907],[120.46262,23.50073],[120.46063,23.50621],[120.45778,23.50892],[120.45631,23.51177],[120.45628,23.51294],[120.45739,23.51364],[120.45699,23.5158],[120.45328,23.51588],[120.44677,23.51843],[120.44439,23.51728],[120.44062,23.51829],[120.44215,23.51332],[120.44061,23.51193],[120.43906,23.51224],[120.43718,23.51397],[120.43736,23.51515],[120.43584,23.51677],[120.43362,23.51717],[120.43385,23.51517],[120.43253,23.5137],[120.43386,23.51092],[120.43336,23.50903],[120.42748,23.50918],[120.42605,23.50854],[120.42477,23.5063],[120.41675,23.50536],[120.4133,23.50225],[120.41225,23.49918],[120.40961,23.49844],[120.40839,23.49853],[120.40785,23.50245],[120.40911,23.50828],[120.40657,23.5109],[120.40409,23.51105],[120.39303,23.50662],[120.38896,23.50712],[120.38792,23.5091],[120.38808,23.51452],[120.3888,23.51607],[120.39153,23.51476],[120.39776,23.51399],[120.40159,23.51895],[120.40011,23.51929],[120.40065,23.52008],[120.39998,23.52959],[120.39433,23.52963],[120.39432,23.53169],[120.38423,23.5316],[120.38414,23.5346],[120.37586,23.5343],[120.37498,23.53484],[120.37433,23.54038],[120.37641,23.54907],[120.37987,23.54778],[120.38062,23.5484],[120.37898,23.55067],[120.37883,23.55584],[120.38055,23.55654],[120.38068,23.55556],[120.3859,23.55542],[120.38609,23.55757],[120.38383,23.55742],[120.38756,23.5655],[120.38938,23.56502],[120.39386,23.56568],[120.39707,23.56435],[120.39942,23.56231],[120.40375,23.56197],[120.40494,23.56041],[120.40835,23.56013],[120.40855,23.56273],[120.40392,23.56569],[120.40317,23.57049],[120.4069,23.57031],[120.41409,23.57221],[120.41588,23.57324],[120.41823,23.57704],[120.42616,23.57967],[120.42828,23.57741],[120.4285,23.57914],[120.43982,23.57931],[120.4418,23.58437],[120.44548,23.58379],[120.44572,23.58492],[120.44836,23.58383]]]}},{"type":"Feature","properties":{"code":"10010060","name":"嘉義縣溪口鄉"},"geometry":{"type":"Polygon","coordinates":[[[120.40672,23.62513],[120.4096,23.62524],[120.41376,23.62348],[120.41428,23.62272],[120.4118,23.62162],[120.41363,23.62147],[120.41429,23.61887],[120.41179,23.61469],[120.40802,23.61246],[120.40634,23.60995],[120.40514,23.60736],[120.40761,23.6064],[120.40652,23.60324],[120.40908,23.602],[120.41291,23.60212],[120.41376,23.60122],[120.41465,23.60142],[120.41679,23.6051],[120.42662,23.60555],[120.42763,23.60461],[120.42785,23.60278],[120.42619,23.59901],[120.4295,23.59908],[120.42618,23.59528],[120.42591,23.59342],[120.42676,23.59221],[120.43034,23.59132],[120.43531,23.59139],[120.44273,23.59423],[120.44754,23.59401],[120.44879,23.59305],[120.44833,23.59013],[120.45396,23.58711],[120.45606,23.58249],[120.45442,23.58079],[120.4536,23.5824],[120.44572,23.58492],[120.44548,23.58379],[120.4418,23.58437],[120.43982,23.57931],[120.4285,23.57914],[120.42828,23.57741],[120.42616,23.57967],[120.41823,23.57704],[120.41588,23.57324],[120.41409,23.57221],[120.4069,23.57031],[120.40317,23.57049],[120.40392,23.56569],[120.40859,23.56265],[120.40821,23.56011],[120.40494,23.56041],[120.40375,23.56197],[120.39942,23.56231],[120.39707,23.56435],[120.39386,23.56568],[120.38938,23.56502],[120.38756,23.5655],[120.38989,23.5709],[120.38521,23.57196],[120.38182,23.57127],[120.37865,23.57231],[120.37655,23.57171],[120.37546,23.57223],[120.37426,23.57388],[120.37542,23.57576],[120.37304,23.57688],[120.37298,23.57778],[120.3741,23.57891],[120.37612,23.57806],[120.37706,23.58023],[120.36957,23.58136],[120.36843,23.58321],[120.36934,23.58505],[120.37062,23.58496],[120.37062,23.58783],[120.37256,23.5897],[120.37358,23.59461],[120.36774,23.59509],[120.36726,23.59408],[120.36085,23.59522],[120.36028,23.59613],[120.36571,23.60247],[120.36651,23.60781],[120.36812,23.60748],[120.37114,23.60949],[120.37999,23.61001],[120.38068,23.61172],[120.38338,23.61291],[120.38283,23.61469],[120.38605,23.6207],[120.39241,23.62239],[120.39225,23.62357],[120.3931,23.62422],[120.39448,23.62405],[120.40264,23.62694],[120.40089,23.63215],[120.40282,23.63351],[120.40462,23.63419],[120.40613,23.63322],[120.40672,23.62513]]]}},{"type":"Feature","properties":{"code":"10010070","name":"嘉義縣新港鄉"},"geometry":{"type":"Polygon","coordinates":[[[120.36707,23.59411],[120.36774,23.59509],[120.37358,23.59461],[120.37256,23.5897],[120.37062,23.58783],[120.37062,23.58496],[120.36934,23.58505],[120.36843,23.58321],[120.36957,23.58136],[120.37706,23.58023],[120.37612,23.57806],[120.3741,23.57891],[120.37301,23.57791],[120.37296,23.57695],[120.37542,23.57576],[120.37426,23.57388],[120.37503,23.57262],[120.3765,23.57171],[120.37749,23.57238],[120.38182,23.57127],[120.38521,23.57196],[120.38998,23.57085],[120.38383,23.55742],[120.38609,23.55757],[120.3859,23.55542],[120.38068,23.55556],[120.38055,23.55654],[120.37881,23.55581],[120.37898,23.55067],[120.38062,23.5484],[120.37987,23.54778],[120.37641,23.54907],[120.37433,23.54038],[120.37483,23.53511],[120.37586,23.5343],[120.38414,23.5346],[120.38423,23.5316],[120.39432,23.53169],[120.39433,23.52963],[120.39996,23.52967],[120.40065,23.52008],[120.40011,23.51929],[120.40159,23.51895],[120.39956,23.51695],[120.39901,23.5148],[120.39616,23.51401],[120.38631,23.51665],[120.38462,23.51544],[120.38033,23.51478],[120.37787,23.50526],[120.37126,23.502],[120.37134,23.50289],[120.37011,23.5023],[120.36857,23.50336],[120.36791,23.50972],[120.36402,23.51403],[120.36072,23.51244],[120.35936,23.51338],[120.35672,23.51286],[120.35606,23.51061],[120.35287,23.50981],[120.35156,23.50526],[120.34976,23.50499],[120.34782,23.50528],[120.34704,23.50639],[120.34194,23.50584],[120.33432,23.50832],[120.32852,23.50616],[120.32262,23.5058],[120.31933,23.50722],[120.3154,23.51112],[120.30802,23.51325],[120.30549,23.51304],[120.30563,23.51865],[120.30642,23.51951],[120.30824,23.51918],[120.30888,23.53161],[120.31087,23.53165],[120.312,23.53391],[120.3159,23.53457],[120.30916,23.53787],[120.30342,23.53873],[120.30861,23.54281],[120.31055,23.5469],[120.30699,23.54825],[120.31083,23.55701],[120.31043,23.5587],[120.30454,23.55656],[120.30572,23.56299],[120.31059,23.56453],[120.31024,23.56721],[120.30647,23.57206],[120.30678,23.57406],[120.31156,23.57503],[120.31997,23.57238],[120.327,23.57417],[120.33312,23.5792],[120.33361,23.59146],[120.33503,23.59298],[120.34396,23.59199],[120.35568,23.59375],[120.36028,23.59613],[120.36085,23.59522],[120.36707,23.59411]]]}},{"type":"Feature","properties":{"code":"10010080","name":"嘉義縣六腳鄉"},"geometry":{"type":"Polygon","coordinates":[[[120.30454,23.55656],[120.31043,23.5587],[120.31083,23.55701],[120.30699,23.54825],[120.31055,23.5469],[120.30861,23.54281],[120.30345,23.53867],[120.30916,23.53787],[120.3159,23.53457],[120.312,23.53391],[120.31087,23.53165],[120.30888,23.53161],[120.30824,23.51918],[120.30642,23.51951],[120.30569,23.51878],[120.30544,23.51312],[120.30802,23.51325],[120.3154,23.51112],[120.32023,23.50668],[120.32606,23.50529],[120.32268,23.50285],[120.32192,23.50061],[120.32024,23.49991],[120.31376,23.50045],[120.31378,23.49785],[120.31561,23.49791],[120.31586,23.49618],[120.32005,23.49519],[120.32079,23.49342],[120.31463,23.48882],[120.31736,23.48794],[120.31562,23.48748],[120.31469,23.48297],[120.30799,23.47564],[120.30353,23.47886],[120.29006,23.47811],[120.29115,23.4814],[120.28422,23.48618],[120.28342,23.4876],[120.28385,23.4903],[120.28041,23.49137],[120.27381,23.49122],[120.26623,23.48862],[120.26187,23.48541],[120.26216,23.47847],[120.25826,23.47712],[120.25582,23.47761],[120.25404,23.475],[120.2533,23.47088],[120.25232,23.46993],[120.25083,23.47034],[120.24637,23.47504],[120.24272,23.47619],[120.24085,23.4759],[120.23867,23.47425],[120.23822,23.46941],[120.23047,23.46735],[120.22681,23.46852],[120.22453,23.47915],[120.21458,23.48617],[120.22148,23.48844],[120.2193,23.49168],[120.22094,23.49248],[120.22088,23.49317],[120.21432,23.49263],[120.21309,23.48962],[120.21163,23.48976],[120.21015,23.49361],[120.21071,23.49632],[120.21285,23.49777],[120.2167,23.49721],[120.21696,23.49891],[120.21503,23.50083],[120.21131,23.50205],[120.20906,23.50447],[120.20099,23.50766],[120.20155,23.51102],[120.20284,23.51112],[120.20309,23.51205],[120.20627,23.51114],[120.20681,23.51158],[120.20667,23.5106],[120.22305,23.50432],[120.23088,23.50544],[120.2391,23.50769],[120.24478,23.51163],[120.24708,23.51527],[120.24405,23.53261],[120.24195,23.53916],[120.24209,23.54154],[120.24336,23.54361],[120.2489,23.54576],[120.2561,23.54609],[120.25811,23.54375],[120.26136,23.53634],[120.26345,23.53353],[120.26729,23.53072],[120.27032,23.53022],[120.27259,23.53148],[120.27636,23.54347],[120.2802,23.54588],[120.28623,23.54756],[120.29077,23.55054],[120.28908,23.55837],[120.28926,23.56118],[120.29037,23.56257],[120.29323,23.56417],[120.29594,23.56463],[120.30572,23.56299],[120.30454,23.55656]]]}},{"type":"Feature","properties":{"code":"10010100","name":"嘉義縣義竹鄉"},"geometry":{"type":"Polygon","coordinates":[[[120.24224,23.40323],[120.24345,23.40036],[120.24699,23.39779],[120.2648,23.39271],[120.26954,23.38795],[120.26868,23.3755],[120.2698,23.37329],[120.27362,23.37358],[120.27437,23.36903],[120.27883,23.36932],[120.27994,23.36836],[120.27894,23.3667],[120.28164,23.36646],[120.28239,23.36321],[120.28463,23.3635],[120.28368,23.35987],[120.28606,23.35396],[120.28621,23.35027],[120.28141,23.34823],[120.27791,23.3477],[120.27616,23.34833],[120.27478,23.35171],[120.27332,23.35273],[120.27049,23.35369],[120.26604,23.35258],[120.26071,23.34447],[120.2675,23.34476],[120.26705,23.34063],[120.2564,23.33107],[120.24922,23.32893],[120.24587,23.32685],[120.2397,23.32756],[120.23759,23.32665],[120.23428,23.31981],[120.23123,23.31619],[120.22828,23.31015],[120.22706,23.30531],[120.22289,23.29868],[120.22087,23.296],[120.2144,23.29244],[120.21234,23.29169],[120.21183,23.29271],[120.20801,23.29125],[120.20428,23.2919],[120.20009,23.29399],[120.19169,23.30027],[120.18841,23.30123],[120.18579,23.2966],[120.18615,23.29538],[120.18936,23.29235],[120.18905,23.29022],[120.18384,23.29032],[120.17868,23.29173],[120.17566,23.29443],[120.17392,23.2999],[120.17095,23.30458],[120.16721,23.30782],[120.16264,23.30998],[120.1634,23.31107],[120.16709,23.30991],[120.16994,23.31083],[120.17123,23.31216],[120.17244,23.31691],[120.17715,23.31905],[120.18032,23.32225],[120.18069,23.32577],[120.17847,23.32978],[120.18024,23.33487],[120.17915,23.33844],[120.17599,23.34166],[120.18239,23.34825],[120.1898,23.36227],[120.19608,23.36474],[120.19913,23.36929],[120.2018,23.37016],[120.19994,23.37145],[120.20113,23.37387],[120.2053,23.37628],[120.20743,23.37993],[120.21194,23.38111],[120.21945,23.37776],[120.22182,23.38091],[120.22523,23.38208],[120.22715,23.38158],[120.23089,23.38671],[120.22671,23.38944],[120.22726,23.39414],[120.2306,23.39945],[120.23618,23.40181],[120.23479,23.40288],[120.23083,23.40371],[120.23254,23.40572],[120.23577,23.4076],[120.24224,23.40323]]]}},{"type":"Feature","properties":{"code":"10010110","name":"嘉義縣鹿草鄉"},"geometry":{"type":"Polygon","coordinates":[[[120.27334,23.44805],[120.27594,23.44823],[120.27755,23.44983],[120.28166,23.45018],[120.2825,23.44926],[120.28105,23.44702],[120.28114,23.44565],[120.28264,23.44582],[120.28316,23.44767],[120.28419,23.44794],[120.28511,23.44736],[120.28439,23.44557],[120.28584,23.44402],[120.2875,23.44442],[120.2869,23.44608],[120.28738,23.44687],[120.28852,23.44629],[120.28802,23.44518],[120.2887,23.44329],[120.29046,23.44556],[120.29182,23.44541],[120.29129,23.4423],[120.29017,23.44103],[120.29138,23.43969],[120.29274,23.43455],[120.30771,23.4365],[120.30933,23.43763],[120.31319,23.43817],[120.31473,23.43709],[120.3204,23.4373],[120.32128,23.43581],[120.32349,23.43471],[120.32674,23.43494],[120.33187,23.43236],[120.33246,23.43275],[120.33395,23.42985],[120.33527,23.42927],[120.33672,23.42906],[120.33895,23.43028],[120.34127,23.42997],[120.34215,23.42886],[120.35055,23.43143],[120.35348,23.43033],[120.35602,23.43451],[120.35872,23.43371],[120.35675,23.43161],[120.35604,23.42852],[120.35599,23.42324],[120.35805,23.41924],[120.3545,23.41812],[120.35261,23.41439],[120.35094,23.41404],[120.34981,23.41165],[120.34987,23.41056],[120.35315,23.41195],[120.35737,23.40841],[120.35585,23.40173],[120.34938,23.4013],[120.34486,23.39962],[120.34302,23.39817],[120.34272,23.39622],[120.33334,23.38585],[120.32894,23.38488],[120.32869,23.38612],[120.32358,23.38364],[120.32179,23.38353],[120.31945,23.38604],[120.31942,23.38734],[120.31784,23.38843],[120.31477,23.38846],[120.311,23.38557],[120.3112,23.38339],[120.31034,23.3831],[120.31095,23.37544],[120.30796,23.37495],[120.30361,23.37596],[120.29274,23.37532],[120.28579,23.36708],[120.28463,23.3635],[120.28245,23.36317],[120.28164,23.36646],[120.27894,23.3667],[120.27994,23.36836],[120.27889,23.36928],[120.27437,23.36903],[120.27355,23.37364],[120.26973,23.37335],[120.26856,23.37773],[120.2695,23.3806],[120.26883,23.38358],[120.26954,23.38795],[120.2648,23.39271],[120.25811,23.39459],[120.25949,23.40015],[120.25794,23.40369],[120.25997,23.40393],[120.26294,23.40801],[120.26443,23.40743],[120.26759,23.40933],[120.26785,23.41265],[120.26695,23.41547],[120.26741,23.41733],[120.26617,23.41844],[120.27001,23.41942],[120.27236,23.42256],[120.2741,23.42143],[120.27387,23.41844],[120.27693,23.41845],[120.27794,23.4195],[120.27793,23.42127],[120.27995,23.42149],[120.28139,23.42318],[120.27978,23.42318],[120.27972,23.42446],[120.28247,23.42503],[120.28327,23.42616],[120.28183,23.42734],[120.28166,23.43285],[120.27722,23.43133],[120.26965,23.43106],[120.26994,23.44491],[120.26696,23.44814],[120.26951,23.44765],[120.27112,23.45057],[120.27334,23.44805]]]}},{"type":"Feature","properties":{"code":"10010140","name":"嘉義縣竹崎鄉"},"geometry":{"type":"Polygon","coordinates":[[[120.60741,23.55282],[120.61044,23.5517],[120.61634,23.54725],[120.6168,23.54499],[120.6189,23.54344],[120.62118,23.53961],[120.62613,23.538],[120.62854,23.53548],[120.63267,23.53345],[120.63444,23.53056],[120.63734,23.53063],[120.6414,23.53213],[120.64695,23.53611],[120.64903,23.5362],[120.65493,23.54177],[120.6557,23.5368],[120.65512,23.53486],[120.65905,23.53065],[120.6589,23.52694],[120.66082,23.52365],[120.66769,23.51984],[120.67088,23.51627],[120.67777,23.51365],[120.68381,23.50816],[120.68852,23.50835],[120.69196,23.51172],[120.69472,23.51069],[120.69794,23.51129],[120.69951,23.50973],[120.70881,23.51023],[120.70886,23.50336],[120.71098,23.50282],[120.71613,23.4985],[120.71464,23.49693],[120.71242,23.49616],[120.71081,23.49409],[120.70593,23.48285],[120.70564,23.47572],[120.70276,23.47189],[120.6964,23.47143],[120.69486,23.46915],[120.69126,23.46834],[120.68967,23.46626],[120.68912,23.46119],[120.6858,23.45692],[120.67661,23.45437],[120.67455,23.45189],[120.67415,23.4499],[120.66391,23.45122],[120.66144,23.45091],[120.65906,23.45213],[120.65412,23.45284],[120.64751,23.45873],[120.64627,23.46274],[120.64857,23.46577],[120.64404,23.468],[120.64125,23.47042],[120.64215,23.4736],[120.63814,23.48179],[120.63873,23.48375],[120.63775,23.48756],[120.63919,23.49002],[120.64258,23.49153],[120.6422,23.49382],[120.64,23.49483],[120.63464,23.49481],[120.63268,23.49717],[120.63004,23.4982],[120.62888,23.49704],[120.62809,23.49231],[120.62081,23.49139],[120.61865,23.4876],[120.61863,23.48614],[120.61972,23.48456],[120.6172,23.48229],[120.61532,23.47882],[120.61225,23.47774],[120.61167,23.47203],[120.60952,23.46584],[120.60811,23.46515],[120.60638,23.46724],[120.60406,23.46814],[120.59815,23.46487],[120.59323,23.46575],[120.59116,23.46481],[120.58934,23.46231],[120.5836,23.46119],[120.58252,23.4627],[120.58022,23.46181],[120.57824,23.46303],[120.57731,23.46268],[120.57586,23.46412],[120.57362,23.46354],[120.57175,23.46472],[120.57197,23.46684],[120.57024,23.46794],[120.56984,23.46955],[120.56833,23.46961],[120.56585,23.47116],[120.56342,23.47141],[120.56073,23.46606],[120.55234,23.47142],[120.54803,23.47082],[120.54642,23.47302],[120.54428,23.47413],[120.54399,23.47593],[120.54306,23.47668],[120.54308,23.47791],[120.54444,23.47888],[120.54364,23.48082],[120.54592,23.48128],[120.54592,23.48271],[120.54306,23.48477],[120.5416,23.48445],[120.53936,23.48587],[120.53947,23.48922],[120.53671,23.48937],[120.53476,23.49091],[120.53334,23.48953],[120.53609,23.48837],[120.53362,23.4876],[120.53279,23.4857],[120.53285,23.47968],[120.53095,23.47877],[120.52846,23.48008],[120.52748,23.47972],[120.52589,23.48139],[120.5251,23.48036],[120.52347,23.48031],[120.51545,23.48138],[120.51229,23.48436],[120.51116,23.48343],[120.50859,23.48355],[120.50811,23.48269],[120.50407,23.48747],[120.50293,23.48751],[120.50016,23.49068],[120.49498,23.49009],[120.49361,23.49113],[120.48942,23.49137],[120.48739,23.49215],[120.48392,23.49573],[120.48368,23.49824],[120.48465,23.49896],[120.4847,23.50174],[120.48316,23.50536],[120.48532,23.50606],[120.48518,23.50754],[120.49074,23.51202],[120.48868,23.51327],[120.49012,23.51353],[120.49557,23.51927],[120.4961,23.52123],[120.49544,23.52262],[120.49559,23.52642],[120.49768,23.52711],[120.49665,23.53109],[120.49693,23.53285],[120.49822,23.53377],[120.49859,23.5352],[120.50379,23.5379],[120.50386,23.54065],[120.50579,23.54447],[120.50493,23.5454],[120.507,23.54732],[120.51008,23.54635],[120.5102,23.54324],[120.51177,23.54373],[120.51246,23.54194],[120.51363,23.54128],[120.51435,23.54294],[120.51835,23.54444],[120.51917,23.54371],[120.52112,23.54602],[120.52453,23.54718],[120.52593,23.54679],[120.527,23.54855],[120.52987,23.54798],[120.53673,23.54942],[120.5397,23.54615],[120.54103,23.54713],[120.54272,23.54582],[120.54481,23.5467],[120.54809,23.54654],[120.55063,23.54357],[120.55352,23.5447],[120.5553,23.54295],[120.55537,23.54126],[120.55731,23.54157],[120.55859,23.54245],[120.55894,23.54379],[120.56048,23.54435],[120.56343,23.54318],[120.56692,23.54331],[120.56681,23.54214],[120.56554,23.54146],[120.56577,23.54034],[120.56857,23.54125],[120.56878,23.53987],[120.5707,23.53982],[120.57507,23.54194],[120.57913,23.54167],[120.5828,23.54313],[120.58815,23.54165],[120.59033,23.54457],[120.595,23.54637],[120.59508,23.54826],[120.59996,23.54981],[120.60371,23.5496],[120.60644,23.55312],[120.60741,23.55282]]]}},{"type":"Feature","properties":{"code":"10010150","name":"嘉義縣梅山鄉"},"geometry":{"type":"Polygon","coordinates":[[[120.53468,23.59617],[120.53752,23.59453],[120.55192,23.59395],[120.55642,23.5929],[120.55786,23.58918],[120.56084,23.58859],[120.56309,23.58964],[120.56536,23.58948],[120.56709,23.58774],[120.57071,23.58804],[120.57674,23.58351],[120.5814,23.58213],[120.58592,23.5826],[120.58975,23.58572],[120.59109,23.58501],[120.59482,23.5854],[120.60031,23.58313],[120.60652,23.58421],[120.6102,23.58262],[120.61546,23.58532],[120.619,23.58417],[120.62296,23.58801],[120.6232,23.58998],[120.62474,23.59054],[120.63083,23.58995],[120.63981,23.59254],[120.64746,23.59322],[120.64913,23.59241],[120.64708,23.58748],[120.64733,23.58581],[120.64929,23.58563],[120.64904,23.58274],[120.64726,23.58039],[120.64348,23.57821],[120.64344,23.57585],[120.64415,23.57529],[120.64741,23.57662],[120.6503,23.57256],[120.65671,23.5724],[120.65806,23.57288],[120.66069,23.57629],[120.66569,23.57778],[120.66858,23.57778],[120.66996,23.57878],[120.67246,23.57656],[120.67489,23.57125],[120.67624,23.57071],[120.68186,23.5718],[120.68608,23.57479],[120.69281,23.57643],[120.69891,23.57634],[120.70466,23.57497],[120.7089,23.57571],[120.71005,23.57119],[120.71603,23.57108],[120.71657,23.56952],[120.7177,23.56908],[120.7245,23.57189],[120.7279,23.57033],[120.73284,23.571],[120.73616,23.57046],[120.7402,23.56567],[120.74262,23.55885],[120.74488,23.55777],[120.7466,23.55426],[120.74305,23.55299],[120.74355,23.5508],[120.74281,23.54883],[120.73592,23.5468],[120.73174,23.54402],[120.73125,23.54165],[120.73256,23.5391],[120.73067,23.53585],[120.72994,23.53256],[120.72841,23.53161],[120.72705,23.52932],[120.72491,23.51958],[120.72332,23.51709],[120.72315,23.51244],[120.72078,23.51125],[120.71785,23.50667],[120.71747,23.50118],[120.71912,23.49823],[120.71563,23.49844],[120.71098,23.50282],[120.70886,23.50336],[120.70868,23.5103],[120.69951,23.50973],[120.69794,23.51129],[120.69472,23.51069],[120.69196,23.51172],[120.68874,23.50846],[120.68506,23.50775],[120.68231,23.50905],[120.67777,23.51365],[120.67088,23.51627],[120.66769,23.51984],[120.66053,23.52401],[120.65886,23.52711],[120.65905,23.53065],[120.65512,23.53486],[120.6557,23.5368],[120.65493,23.54177],[120.64903,23.5362],[120.64695,23.53611],[120.6414,23.53213],[120.63734,23.53063],[120.63444,23.53056],[120.63267,23.53345],[120.62854,23.53548],[120.62613,23.538],[120.62093,23.53983],[120.6189,23.54344],[120.6168,23.54499],[120.61634,23.54725],[120.61287,23.55011],[120.60678,23.55306],[120.60371,23.5496],[120.59996,23.54981],[120.59508,23.54826],[120.595,23.54637],[120.59033,23.54457],[120.58753,23.54153],[120.5828,23.54313],[120.57913,23.54167],[120.57507,23.54194],[120.57091,23.53985],[120.56888,23.53983],[120.56866,23.54124],[120.56573,23.54041],[120.56554,23.54146],[120.56681,23.54214],[120.56692,23.54331],[120.56343,23.54318],[120.56036,23.54435],[120.55894,23.54379],[120.55859,23.54245],[120.55731,23.54157],[120.55537,23.54126],[120.5553,23.54295],[120.55352,23.5447],[120.55063,23.54357],[120.54809,23.54654],[120.54481,23.5467],[120.54272,23.54582],[120.54103,23.54713],[120.5397,23.54615],[120.53664,23.54943],[120.52998,23.54799],[120.527,23.54855],[120.52593,23.54679],[120.52453,23.54718],[120.52112,23.54602],[120.51917,23.54371],[120.51835,23.54444],[120.51463,23.54307],[120.51812,23.54738],[120.51833,23.54958],[120.51921,23.5506],[120.51636,23.55179],[120.51915,23.55499],[120.51843,23.55613],[120.51959,23.55804],[120.52162,23.55817],[120.52455,23.5606],[120.52782,23.56158],[120.53069,23.55927],[120.5314,23.56044],[120.53112,23.56622],[120.53409,23.56665],[120.53584,23.56887],[120.53521,23.57055],[120.5333,23.57107],[120.53157,23.57333],[120.5296,23.57737],[120.53008,23.57999],[120.52888,23.5809],[120.52661,23.58097],[120.5248,23.58561],[120.52667,23.58767],[120.52943,23.58855],[120.5336,23.59164],[120.53181,23.5957],[120.53337,23.59682],[120.53468,23.59617]]]}},{"type":"Feature","properties":{"code":"10010170","name":"嘉義縣大埔鄉"},"geometry":{"type":"Polygon","coordinates":[[[120.64942,23.35883],[120.65248,23.35762],[120.6541,23.35826],[120.65679,23.35711],[120.6583,23.35455],[120.65877,23.35151],[120.66089,23.35002],[120.66157,23.346],[120.66247,23.34534],[120.66296,23.3432],[120.66077,23.33997],[120.65877,23.33941],[120.65592,23.33306],[120.65609,23.32681],[120.65751,23.32597],[120.65854,23.32323],[120.65853,23.31361],[120.65524,23.30902],[120.65433,23.30627],[120.65424,23.29982],[120.65245,23.29238],[120.65198,23.29118],[120.65024,23.29208],[120.64702,23.29744],[120.64359,23.29593],[120.64203,23.29269],[120.64372,23.28944],[120.64186,23.28748],[120.64329,23.2861],[120.64405,23.28223],[120.64191,23.27854],[120.64315,23.27598],[120.64063,23.27416],[120.64109,23.27102],[120.63901,23.27044],[120.63827,23.26936],[120.64069,23.26652],[120.64209,23.26103],[120.64208,23.25681],[120.64845,23.24925],[120.64806,23.24846],[120.64921,23.24674],[120.64789,23.24463],[120.64864,23.24444],[120.64918,23.24049],[120.65085,23.23799],[120.65066,23.23585],[120.65131,23.23582],[120.65025,23.23426],[120.64948,23.22864],[120.65344,23.22454],[120.65138,23.22409],[120.64823,23.22554],[120.64793,23.22674],[120.64691,23.22713],[120.64417,23.22532],[120.63891,23.22795],[120.63411,23.22922],[120.6333,23.22862],[120.63121,23.22951],[120.62838,23.22945],[120.62476,23.22717],[120.61839,23.22565],[120.61676,23.22355],[120.61308,23.224],[120.61165,23.22281],[120.60982,23.22264],[120.60652,23.22578],[120.60272,23.22608],[120.59724,23.22904],[120.59579,23.23673],[120.5938,23.23942],[120.59248,23.23985],[120.59197,23.23672],[120.59025,23.23433],[120.59003,23.23166],[120.58661,23.22416],[120.58178,23.21992],[120.57968,23.21899],[120.57826,23.21478],[120.57487,23.2177],[120.57103,23.21821],[120.56529,23.22098],[120.56137,23.21741],[120.55808,23.21682],[120.55498,23.21747],[120.55251,23.22027],[120.54978,23.22134],[120.54853,23.22399],[120.54151,23.22783],[120.53196,23.22967],[120.53133,23.23173],[120.52968,23.23255],[120.52682,23.23093],[120.52483,23.23238],[120.51904,23.23926],[120.52416,23.242],[120.52791,23.24536],[120.53032,23.24853],[120.5323,23.25505],[120.52932,23.25787],[120.52853,23.26196],[120.52669,23.26401],[120.52609,23.26649],[120.52043,23.27178],[120.52233,23.27438],[120.52097,23.27969],[120.52294,23.28206],[120.52186,23.28809],[120.52446,23.29154],[120.52601,23.29223],[120.52628,23.29533],[120.52388,23.30239],[120.52255,23.31175],[120.52389,23.31335],[120.52709,23.31453],[120.52941,23.31686],[120.53101,23.31725],[120.53195,23.32115],[120.53511,23.32325],[120.53706,23.32654],[120.54,23.32787],[120.53681,23.33326],[120.53404,23.33577],[120.53417,23.33751],[120.53548,23.33824],[120.53817,23.33796],[120.5417,23.34005],[120.54715,23.33981],[120.54717,23.34221],[120.55549,23.34569],[120.55851,23.34953],[120.55956,23.35222],[120.56194,23.35404],[120.56585,23.35473],[120.56793,23.35603],[120.57478,23.36325],[120.57605,23.36321],[120.5772,23.36173],[120.5791,23.36232],[120.58139,23.36165],[120.58278,23.36236],[120.58474,23.36155],[120.58713,23.36185],[120.58795,23.36011],[120.59015,23.3583],[120.59036,23.35577],[120.58963,23.3539],[120.59203,23.35333],[120.5925,23.35189],[120.59829,23.34699],[120.60429,23.34784],[120.60529,23.34686],[120.60703,23.34697],[120.60841,23.3438],[120.61826,23.34256],[120.61899,23.34018],[120.62002,23.33973],[120.62574,23.34177],[120.63214,23.34117],[120.63418,23.34209],[120.63522,23.34431],[120.63839,23.34415],[120.63561,23.34855],[120.63495,23.35302],[120.63908,23.35729],[120.6395,23.35934],[120.64106,23.36097],[120.64169,23.36438],[120.64365,23.36648],[120.64632,23.36707],[120.64606,23.36464],[120.64942,23.35883]]]}},{"type":"Feature","properties":{"code":"10010180","name":"嘉義縣阿里山鄉"},"geometry":{"type":"Polygon","coordinates":[[[120.75844,23.61242],[120.76428,23.61224],[120.76925,23.60854],[120.77022,23.60596],[120.77422,23.60536],[120.77653,23.60403],[120.77774,23.60232],[120.78313,23.60074],[120.79087,23.60094],[120.79492,23.59725],[120.80333,23.59665],[120.80512,23.59862],[120.80979,23.59869],[120.81126,23.60013],[120.81371,23.60095],[120.81724,23.59978],[120.81861,23.59824],[120.81687,23.5956],[120.81867,23.59371],[120.81984,23.59051],[120.82553,23.58637],[120.82469,23.5842],[120.82162,23.58214],[120.82157,23.5799],[120.81991,23.57768],[120.81963,23.57453],[120.8219,23.57091],[120.82111,23.57015],[120.82153,23.56848],[120.81992,23.56452],[120.82063,23.5624],[120.81401,23.556],[120.81594,23.55331],[120.81462,23.5518],[120.81149,23.55105],[120.8112,23.54925],[120.80883,23.54586],[120.80832,23.5393],[120.80864,23.53597],[120.81161,23.53371],[120.81797,23.52369],[120.82035,23.52148],[120.81911,23.51953],[120.81956,23.51558],[120.82304,23.51136],[120.82283,23.50862],[120.82407,23.50528],[120.82285,23.49867],[120.82545,23.49482],[120.8253,23.48971],[120.82618,23.48851],[120.82725,23.48296],[120.8299,23.48073],[120.83264,23.47473],[120.83897,23.47122],[120.84209,23.47326],[120.84701,23.47301],[120.84914,23.47209],[120.8542,23.4733],[120.85813,23.47285],[120.8632,23.47355],[120.87309,23.46853],[120.88003,23.46762],[120.8819,23.46829],[120.88427,23.47431],[120.88671,23.47556],[120.89984,23.47537],[120.90195,23.47608],[120.91021,23.47623],[120.91509,23.47463],[120.91748,23.47569],[120.92092,23.47493],[120.93096,23.47066],[120.93465,23.47311],[120.93757,23.47305],[120.94226,23.46932],[120.94752,23.46712],[120.9522,23.46772],[120.95688,23.46962],[120.95739,23.46896],[120.956,23.46734],[120.94844,23.46417],[120.94116,23.46301],[120.93891,23.46392],[120.93664,23.46378],[120.9345,23.46145],[120.93475,23.45844],[120.93155,23.45714],[120.92839,23.45691],[120.92848,23.45549],[120.92684,23.456],[120.92619,23.45748],[120.92248,23.45814],[120.92144,23.4591],[120.91617,23.45889],[120.91517,23.45801],[120.91294,23.45852],[120.91166,23.45763],[120.9094,23.45754],[120.90567,23.45318],[120.90052,23.45409],[120.90041,23.45209],[120.89624,23.45042],[120.89515,23.44592],[120.89287,23.44521],[120.89177,23.44661],[120.8907,23.44241],[120.88676,23.43485],[120.88556,23.43481],[120.88382,23.43626],[120.88162,23.43301],[120.87892,23.43215],[120.87536,23.43277],[120.87542,23.43135],[120.8734,23.42965],[120.87174,23.4296],[120.86962,23.42643],[120.86625,23.42608],[120.86452,23.42394],[120.8623,23.42458],[120.86004,23.42378],[120.8591,23.42512],[120.85708,23.42197],[120.85397,23.42319],[120.85309,23.42194],[120.84978,23.42036],[120.84917,23.41949],[120.84931,23.41201],[120.84475,23.40823],[120.84394,23.40392],[120.83841,23.39825],[120.83876,23.3965],[120.84117,23.39608],[120.84101,23.39492],[120.83687,23.39339],[120.83558,23.38986],[120.83412,23.38965],[120.83463,23.38668],[120.83291,23.38721],[120.83097,23.3866],[120.82938,23.38343],[120.82911,23.3758],[120.82574,23.37349],[120.82542,23.37171],[120.82309,23.37194],[120.82119,23.37052],[120.81628,23.37148],[120.8134,23.36942],[120.80984,23.36955],[120.80852,23.36839],[120.80579,23.37091],[120.80429,23.37066],[120.80327,23.36946],[120.80469,23.36721],[120.80108,23.36373],[120.80065,23.36064],[120.79951,23.3612],[120.7979,23.36031],[120.79599,23.35676],[120.79199,23.35724],[120.79181,23.35347],[120.78845,23.35282],[120.78866,23.34911],[120.78758,23.34614],[120.78521,23.34534],[120.78321,23.3422],[120.77858,23.34266],[120.77714,23.34354],[120.77446,23.343],[120.77333,23.34182],[120.76846,23.34388],[120.76443,23.34167],[120.76168,23.34351],[120.75807,23.34426],[120.75751,23.34298],[120.75848,23.34087],[120.75708,23.33856],[120.75883,23.33644],[120.75644,23.33279],[120.75238,23.33103],[120.75325,23.32819],[120.75287,23.32704],[120.75082,23.32593],[120.75007,23.32404],[120.74786,23.32191],[120.74105,23.32108],[120.73943,23.31684],[120.73231,23.31386],[120.73017,23.31076],[120.73063,23.30561],[120.72131,23.30827],[120.71628,23.30761],[120.71217,23.3087],[120.70677,23.30473],[120.70438,23.30197],[120.70283,23.29756],[120.70234,23.29384],[120.70342,23.28909],[120.7014,23.2869],[120.70116,23.28556],[120.69954,23.28442],[120.6899,23.28531],[120.67882,23.28885],[120.67735,23.28784],[120.67617,23.2886],[120.67596,23.29029],[120.67455,23.29089],[120.67089,23.2902],[120.66972,23.29219],[120.66824,23.2921],[120.66731,23.29403],[120.66562,23.29408],[120.66539,23.29317],[120.66267,23.29354],[120.66183,23.29501],[120.65967,23.29476],[120.65843,23.29597],[120.65532,23.29193],[120.652,23.29117],[120.65424,23.29982],[120.65433,23.30627],[120.65524,23.30902],[120.65853,23.31361],[120.65854,23.32323],[120.65751,23.32597],[120.65609,23.32681],[120.65592,23.33306],[120.65877,23.33941],[120.66077,23.33997],[120.66285,23.34279],[120.66293,23.34406],[120.6616,23.34591],[120.66089,23.35002],[120.65877,23.35151],[120.6583,23.35455],[120.65679,23.35711],[120.65404,23.35827],[120.6524,23.35763],[120.64932,23.35891],[120.64606,23.36464],[120.6457,23.37142],[120.64436,23.37416],[120.64204,23.37602],[120.6432,23.38421],[120.64204,23.38537],[120.64212,23.38793],[120.6433,23.38872],[120.6435,23.39023],[120.64649,23.3915],[120.64783,23.39457],[120.64765,23.39797],[120.64574,23.40203],[120.65002,23.40134],[120.65389,23.39959],[120.65548,23.40224],[120.65485,23.40495],[120.65246,23.40766],[120.65234,23.4109],[120.65833,23.40887],[120.65983,23.40924],[120.66219,23.41358],[120.66307,23.42085],[120.66668,23.42318],[120.66967,23.42861],[120.67321,23.43199],[120.67437,23.43625],[120.67736,23.4377],[120.68254,23.43822],[120.67903,23.44473],[120.67449,23.44823],[120.67455,23.45189],[120.67661,23.45437],[120.68573,23.45685],[120.68912,23.46119],[120.68967,23.46626],[120.69126,23.46834],[120.69486,23.46915],[120.6964,23.47143],[120.70158,23.47146],[120.70381,23.47286],[120.70603,23.47673],[120.70593,23.48285],[120.71108,23.49456],[120.71613,23.4985],[120.71912,23.49823],[120.71747,23.50118],[120.71785,23.50667],[120.72078,23.51125],[120.72315,23.51244],[120.72332,23.51709],[120.72491,23.51958],[120.72705,23.52932],[120.72841,23.53161],[120.72994,23.53256],[120.73067,23.53585],[120.73256,23.5391],[120.73125,23.54165],[120.73174,23.54402],[120.73592,23.5468],[120.74281,23.54883],[120.74355,23.5508],[120.74305,23.55299],[120.7466,23.55426],[120.74488,23.55777],[120.74262,23.55885],[120.7402,23.56567],[120.73649,23.56982],[120.73517,23.57503],[120.73216,23.57713],[120.73399,23.58421],[120.73234,23.58784],[120.73259,23.58969],[120.7299,23.59364],[120.73271,23.59717],[120.72875,23.59899],[120.72781,23.60138],[120.72455,23.60377],[120.72674,23.60742],[120.73046,23.61075],[120.7374,23.60963],[120.74137,23.61227],[120.74439,23.61267],[120.74635,23.61248],[120.74748,23.61116],[120.7508,23.61438],[120.75294,23.61485],[120.75844,23.61242]]]}},{"type":"Feature","properties":{"code":"10010030","name":"嘉義縣布袋鎮"},"geometry":{"type":"Polygon","coordinates":[[[120.2106,23.44605],[120.2116,23.44578],[120.21383,23.44259],[120.21801,23.4406],[120.2195,23.44191],[120.22044,23.44173],[120.22076,23.43876],[120.22014,23.43723],[120.22185,23.43626],[120.22097,23.43635],[120.21951,23.43388],[120.21967,23.42878],[120.21828,23.4288],[120.21794,23.42689],[120.21878,23.42297],[120.22107,23.42202],[120.22298,23.4201],[120.22405,23.42195],[120.22478,23.42193],[120.2282,23.41884],[120.23042,23.41991],[120.23355,23.41986],[120.23381,23.42043],[120.23124,23.42162],[120.23517,23.42283],[120.23548,23.42412],[120.23724,23.42386],[120.23662,23.42121],[120.23737,23.41972],[120.23578,23.41775],[120.2376,23.41623],[120.2359,23.41184],[120.23383,23.40918],[120.23577,23.4076],[120.2327,23.40586],[120.23083,23.40371],[120.23479,23.40288],[120.23618,23.40181],[120.2306,23.39945],[120.22726,23.39414],[120.22671,23.38944],[120.23089,23.38671],[120.22702,23.38147],[120.22523,23.38208],[120.22182,23.38091],[120.21945,23.37776],[120.21194,23.38111],[120.20743,23.37993],[120.2053,23.37628],[120.20113,23.37387],[120.19994,23.37145],[120.2018,23.37016],[120.19913,23.36929],[120.19608,23.36474],[120.1898,23.36227],[120.18239,23.34825],[120.17594,23.34152],[120.17901,23.33866],[120.18024,23.33487],[120.17847,23.32978],[120.18069,23.32577],[120.18016,23.32199],[120.17715,23.31905],[120.17244,23.31691],[120.17123,23.31216],[120.16994,23.31083],[120.16715,23.30991],[120.1634,23.31107],[120.16264,23.30998],[120.16058,23.31065],[120.15622,23.31004],[120.1543,23.31302],[120.15,23.31307],[120.14881,23.31411],[120.1486,23.31951],[120.14708,23.32107],[120.13692,23.32799],[120.13229,23.32976],[120.11807,23.34017],[120.11934,23.34693],[120.12803,23.36357],[120.12945,23.36878],[120.1309,23.37044],[120.13194,23.37642],[120.13166,23.38478],[120.14808,23.38553],[120.1507,23.38835],[120.15206,23.3886],[120.15184,23.3875],[120.15303,23.38762],[120.15591,23.3847],[120.15646,23.37978],[120.15734,23.38044],[120.15798,23.37981],[120.15841,23.38154],[120.15724,23.38082],[120.1571,23.38152],[120.15834,23.38177],[120.15788,23.38319],[120.15704,23.38178],[120.15804,23.38331],[120.15707,23.38388],[120.15801,23.38376],[120.15819,23.38478],[120.1569,23.38427],[120.15734,23.38495],[120.154,23.38811],[120.1555,23.38818],[120.15504,23.38759],[120.15672,23.38651],[120.1573,23.38723],[120.1568,23.38641],[120.15778,23.38579],[120.15926,23.38769],[120.15735,23.38905],[120.15673,23.38826],[120.15615,23.38864],[120.15672,23.38936],[120.15569,23.39007],[120.15365,23.38896],[120.1555,23.39094],[120.16073,23.38879],[120.1637,23.39304],[120.16167,23.39466],[120.15999,23.40537],[120.16429,23.40414],[120.17112,23.40767],[120.16991,23.40913],[120.17087,23.41097],[120.17183,23.41189],[120.17296,23.41044],[120.17379,23.41056],[120.17664,23.41749],[120.18136,23.42069],[120.18588,23.42108],[120.18648,23.42414],[120.18824,23.42294],[120.19028,23.41554],[120.19283,23.41896],[120.1931,23.42169],[120.19497,23.42152],[120.20008,23.4184],[120.20096,23.42067],[120.20381,23.42068],[120.20436,23.42212],[120.20719,23.42407],[120.20631,23.42704],[120.20759,23.43298],[120.20498,23.43735],[120.20704,23.43967],[120.20701,23.44076],[120.20622,23.44202],[120.20135,23.44391],[120.19762,23.44683],[120.19429,23.44829],[120.20623,23.45295],[120.20747,23.45168],[120.20796,23.44954],[120.20933,23.44896],[120.20823,23.44825],[120.20879,23.4468],[120.2106,23.44605]]]}}]}