{"type":"FeatureCollection","source":"https://data.gov.tw/dataset/7441 鄉鎮市區界線(TWD97經緯度)","agency":"內政部國土測繪中心","license":"政府資料開放授權條款第1版","generatedBy":"scripts/build-geo.py","features":[{"type":"Feature","properties":{"code":"10015070","name":"花蓮縣光復鄉"},"geometry":{"type":"Polygon","coordinates":[[[121.51468,23.71287],[121.51769,23.71202],[121.51906,23.7104],[121.52089,23.71044],[121.52117,23.7084],[121.51969,23.70512],[121.52081,23.70351],[121.52139,23.7],[121.52028,23.69969],[121.51975,23.69782],[121.51796,23.69687],[121.51671,23.69413],[121.52189,23.69049],[121.52242,23.68657],[121.52501,23.68255],[121.52408,23.68044],[121.52228,23.67938],[121.52106,23.67745],[121.51997,23.67319],[121.52029,23.67112],[121.51794,23.66981],[121.51737,23.66855],[121.51339,23.65517],[121.51,23.65105],[121.50871,23.64715],[121.50413,23.64407],[121.50012,23.64495],[121.49579,23.64753],[121.49211,23.64798],[121.48852,23.64633],[121.48526,23.64368],[121.48312,23.64023],[121.47904,23.63662],[121.47796,23.6346],[121.478,23.63187],[121.47557,23.62837],[121.47435,23.62486],[121.47067,23.62216],[121.47012,23.62044],[121.46635,23.61977],[121.46731,23.61595],[121.46548,23.61332],[121.4606,23.61305],[121.45794,23.61149],[121.45785,23.61068],[121.45656,23.61081],[121.45672,23.6097],[121.45462,23.60958],[121.45456,23.60897],[121.44761,23.60823],[121.44729,23.60355],[121.44569,23.60228],[121.44386,23.59826],[121.44063,23.59846],[121.43808,23.59722],[121.4308,23.59607],[121.42706,23.58899],[121.42529,23.58787],[121.42181,23.5878],[121.42065,23.58858],[121.41867,23.5879],[121.41718,23.5886],[121.41574,23.58709],[121.41275,23.58656],[121.41095,23.58506],[121.40907,23.58574],[121.40598,23.58467],[121.40379,23.58492],[121.40213,23.58573],[121.40162,23.58738],[121.3919,23.58573],[121.38806,23.58623],[121.38311,23.58722],[121.38196,23.58887],[121.38002,23.58988],[121.37762,23.58799],[121.36637,23.59388],[121.36187,23.59846],[121.36093,23.60202],[121.35811,23.60569],[121.36017,23.60615],[121.36209,23.6077],[121.36575,23.61592],[121.36836,23.6163],[121.36798,23.62202],[121.36949,23.62833],[121.36869,23.63188],[121.36901,23.63529],[121.37141,23.63819],[121.37271,23.64125],[121.37894,23.64279],[121.37986,23.6458],[121.37842,23.6482],[121.37871,23.65109],[121.37266,23.65765],[121.37494,23.65981],[121.37863,23.661],[121.38162,23.66103],[121.37942,23.6639],[121.37459,23.66717],[121.37058,23.67614],[121.37131,23.67863],[121.3708,23.68094],[121.37311,23.68593],[121.37373,23.69],[121.37508,23.68934],[121.37771,23.69011],[121.37965,23.68978],[121.38047,23.68762],[121.38408,23.68471],[121.38999,23.68837],[121.39629,23.68817],[121.40056,23.68919],[121.40714,23.68832],[121.41094,23.68866],[121.42484,23.68561],[121.45181,23.67609],[121.45755,23.67499],[121.46413,23.6765],[121.47093,23.68147],[121.47765,23.68986],[121.48118,23.69632],[121.48596,23.70093],[121.48883,23.70025],[121.4908,23.7022],[121.49173,23.70196],[121.49457,23.70339],[121.49568,23.70556],[121.49866,23.70675],[121.50075,23.70599],[121.50175,23.70441],[121.50464,23.70465],[121.50571,23.7063],[121.50562,23.71012],[121.50656,23.70987],[121.51194,23.71281],[121.51468,23.71287]]]}},{"type":"Feature","properties":{"code":"10015090","name":"花蓮縣瑞穗鄉"},"geometry":{"type":"Polygon","coordinates":[[[121.36673,23.5938],[121.37563,23.58859],[121.37762,23.58799],[121.38002,23.58988],[121.38196,23.58887],[121.38311,23.58722],[121.3919,23.58573],[121.40162,23.58738],[121.40213,23.58573],[121.40598,23.58467],[121.40907,23.58574],[121.41146,23.58518],[121.41275,23.58656],[121.41574,23.58709],[121.41718,23.5886],[121.41867,23.5879],[121.42065,23.58858],[121.42181,23.5878],[121.42529,23.58787],[121.42615,23.58688],[121.42641,23.58452],[121.42449,23.58269],[121.42325,23.57739],[121.42525,23.57693],[121.42926,23.57259],[121.42794,23.56994],[121.42316,23.56743],[121.42114,23.56379],[121.42147,23.56117],[121.42351,23.56007],[121.42788,23.55964],[121.42733,23.55542],[121.42771,23.55385],[121.42907,23.55331],[121.4286,23.55011],[121.43087,23.5482],[121.44035,23.54738],[121.44318,23.54787],[121.4442,23.54589],[121.44582,23.54482],[121.45005,23.54472],[121.45296,23.54266],[121.4596,23.54536],[121.46037,23.54392],[121.46341,23.54262],[121.46508,23.54361],[121.47015,23.54279],[121.47118,23.54346],[121.474,23.54172],[121.47713,23.54118],[121.48311,23.54522],[121.48592,23.54405],[121.48777,23.54552],[121.49094,23.5428],[121.49228,23.54276],[121.49211,23.53907],[121.48981,23.53382],[121.48916,23.52742],[121.48724,23.52582],[121.48453,23.51593],[121.48647,23.51431],[121.48849,23.5139],[121.48732,23.50909],[121.48941,23.50501],[121.48691,23.49974],[121.4871,23.49521],[121.48474,23.49224],[121.4867,23.48507],[121.48245,23.48312],[121.47807,23.48791],[121.47584,23.48719],[121.47434,23.48793],[121.46667,23.47946],[121.46453,23.47581],[121.46512,23.47251],[121.46641,23.47047],[121.46655,23.46582],[121.46544,23.46448],[121.46452,23.46012],[121.46328,23.4591],[121.4634,23.45707],[121.46221,23.4544],[121.4581,23.45296],[121.45214,23.45384],[121.44953,23.45335],[121.44744,23.45186],[121.44413,23.45192],[121.44336,23.45296],[121.44361,23.45454],[121.44589,23.45924],[121.4418,23.46085],[121.43896,23.46662],[121.43445,23.46907],[121.43471,23.47167],[121.43938,23.47243],[121.44103,23.47402],[121.44085,23.47478],[121.43766,23.47636],[121.43239,23.48253],[121.43087,23.48261],[121.42975,23.47991],[121.42692,23.47662],[121.4246,23.47879],[121.42217,23.47753],[121.42124,23.47815],[121.4184,23.47772],[121.41584,23.47882],[121.41457,23.48062],[121.41461,23.48268],[121.41804,23.49045],[121.41829,23.49354],[121.41687,23.49518],[121.41154,23.49584],[121.40995,23.49478],[121.40411,23.48542],[121.40144,23.48466],[121.3831,23.46969],[121.37945,23.46261],[121.3714,23.45405],[121.36248,23.43508],[121.35511,23.43904],[121.35582,23.44082],[121.3518,23.44208],[121.3514,23.44324],[121.35018,23.44309],[121.34627,23.45063],[121.34657,23.45196],[121.34474,23.45295],[121.34483,23.45544],[121.34386,23.45595],[121.34369,23.45712],[121.33207,23.46027],[121.33128,23.46226],[121.32604,23.46441],[121.32521,23.46772],[121.326,23.47156],[121.32709,23.4727],[121.32781,23.47594],[121.32941,23.47721],[121.3295,23.47918],[121.33111,23.47977],[121.33196,23.48142],[121.33315,23.48777],[121.33719,23.4904],[121.34201,23.4887],[121.34569,23.49118],[121.34577,23.49578],[121.34712,23.50239],[121.34585,23.51105],[121.34721,23.5127],[121.34666,23.51865],[121.34884,23.52577],[121.35295,23.52678],[121.36244,23.52645],[121.36458,23.52487],[121.36579,23.52109],[121.3676,23.52017],[121.36771,23.52225],[121.36959,23.5218],[121.36868,23.52552],[121.36768,23.52657],[121.36933,23.52895],[121.37063,23.52895],[121.36922,23.53207],[121.36944,23.53457],[121.37027,23.53409],[121.37142,23.53685],[121.37403,23.53652],[121.37508,23.53802],[121.37376,23.54355],[121.37633,23.54864],[121.37487,23.5522],[121.37567,23.55289],[121.37471,23.55652],[121.37158,23.56242],[121.36753,23.56509],[121.36717,23.56647],[121.36354,23.5704],[121.36171,23.57021],[121.3602,23.5683],[121.3587,23.56877],[121.35693,23.56753],[121.35459,23.56743],[121.35254,23.56582],[121.35,23.567],[121.34878,23.5703],[121.35141,23.57667],[121.35811,23.57637],[121.35894,23.57453],[121.36012,23.57465],[121.35912,23.57833],[121.35938,23.58205],[121.35804,23.58228],[121.35528,23.58638],[121.35412,23.5949],[121.35227,23.59848],[121.35326,23.60378],[121.35828,23.60533],[121.36093,23.60202],[121.36187,23.59846],[121.36673,23.5938]]]}},{"type":"Feature","properties":{"code":"10015100","name":"花蓮縣富里鄉"},"geometry":{"type":"Polygon","coordinates":[[[121.33526,23.29197],[121.3403,23.29171],[121.33873,23.29075],[121.33895,23.28936],[121.34129,23.28651],[121.3402,23.28132],[121.34272,23.27995],[121.34601,23.282],[121.34724,23.27889],[121.35412,23.28358],[121.35612,23.28188],[121.35679,23.2801],[121.358,23.28209],[121.36022,23.28367],[121.36303,23.28248],[121.3656,23.28238],[121.37714,23.28353],[121.37688,23.28165],[121.3786,23.27451],[121.37792,23.26962],[121.37414,23.26909],[121.37233,23.26783],[121.37075,23.26244],[121.36685,23.26018],[121.36586,23.25803],[121.36361,23.25765],[121.36149,23.25366],[121.3594,23.25269],[121.35894,23.24966],[121.36154,23.2469],[121.3609,23.24435],[121.35782,23.24056],[121.35766,23.23794],[121.35346,23.23337],[121.3526,23.2313],[121.35318,23.22913],[121.35424,23.22849],[121.35441,23.22547],[121.35716,23.22371],[121.35328,23.22001],[121.35157,23.22018],[121.34997,23.21789],[121.34646,23.2171],[121.34569,23.21357],[121.34691,23.20927],[121.34533,23.20826],[121.34429,23.20576],[121.34215,23.19581],[121.3397,23.19375],[121.33826,23.19069],[121.33758,23.18839],[121.33787,23.18533],[121.33637,23.18382],[121.33679,23.18247],[121.33531,23.1813],[121.33493,23.17793],[121.33124,23.17888],[121.32974,23.18037],[121.32837,23.17929],[121.3233,23.17873],[121.32396,23.17813],[121.32393,23.17479],[121.32221,23.17323],[121.32186,23.1694],[121.31856,23.16819],[121.31734,23.16516],[121.32137,23.15914],[121.32209,23.15526],[121.3246,23.15469],[121.3272,23.15219],[121.3244,23.14898],[121.32447,23.14659],[121.32333,23.14474],[121.32381,23.1433],[121.32035,23.13783],[121.32213,23.13209],[121.32153,23.12929],[121.32294,23.12377],[121.32188,23.117],[121.3158,23.10974],[121.3124,23.11095],[121.30522,23.11129],[121.30306,23.11109],[121.29998,23.10926],[121.29792,23.10995],[121.29695,23.1093],[121.29398,23.10989],[121.29142,23.10937],[121.28733,23.10671],[121.28441,23.10657],[121.28299,23.10384],[121.28086,23.10403],[121.27821,23.10075],[121.27254,23.0978],[121.27074,23.10119],[121.26432,23.10392],[121.26737,23.10934],[121.26727,23.11409],[121.26446,23.11516],[121.26426,23.11766],[121.25957,23.12102],[121.2576,23.12612],[121.24921,23.13152],[121.2483,23.12959],[121.24521,23.12841],[121.24231,23.12802],[121.23845,23.12874],[121.23093,23.13925],[121.22489,23.13988],[121.21927,23.14234],[121.21208,23.14418],[121.21382,23.14586],[121.21432,23.14859],[121.21781,23.15011],[121.22005,23.14992],[121.22293,23.15225],[121.22326,23.15346],[121.22151,23.15395],[121.22067,23.15618],[121.22257,23.15757],[121.22498,23.15769],[121.22727,23.15989],[121.22731,23.1615],[121.22615,23.16237],[121.22299,23.16122],[121.22402,23.16261],[121.22293,23.16459],[121.23052,23.1677],[121.23444,23.17092],[121.23648,23.17494],[121.2386,23.176],[121.23933,23.17736],[121.24069,23.17684],[121.2422,23.17902],[121.24012,23.18304],[121.2449,23.18773],[121.24663,23.19169],[121.25104,23.19795],[121.24858,23.19977],[121.24835,23.20155],[121.24929,23.2024],[121.2505,23.20166],[121.25226,23.20234],[121.25199,23.20344],[121.25298,23.2041],[121.25239,23.20522],[121.25376,23.20537],[121.25207,23.20732],[121.2495,23.20865],[121.25252,23.20892],[121.25652,23.20611],[121.25729,23.20733],[121.25367,23.20959],[121.25445,23.20995],[121.25782,23.20805],[121.26651,23.22032],[121.26722,23.22191],[121.26716,23.23028],[121.27148,23.23882],[121.27417,23.2503],[121.27733,23.25476],[121.27749,23.25827],[121.29083,23.26887],[121.29225,23.27179],[121.295,23.27306],[121.29963,23.27765],[121.3064,23.27802],[121.31018,23.27572],[121.3153,23.27762],[121.31692,23.28007],[121.32325,23.28542],[121.32483,23.28954],[121.32463,23.29229],[121.32872,23.29601],[121.33102,23.29958],[121.3356,23.29757],[121.33526,23.29197]]]}},{"type":"Feature","properties":{"code":"10015050","name":"花蓮縣吉安鄉"},"geometry":{"type":"Polygon","coordinates":[[[121.55764,23.99829],[121.58312,23.98982],[121.58488,23.99165],[121.5876,23.99229],[121.58823,23.99199],[121.58768,23.99111],[121.59104,23.9897],[121.59249,23.99181],[121.59377,23.98939],[121.59798,23.98716],[121.59727,23.98578],[121.59904,23.98535],[121.5982,23.9845],[121.59679,23.9848],[121.59274,23.97677],[121.59196,23.97725],[121.58955,23.97425],[121.58819,23.97412],[121.59974,23.9648],[121.60962,23.96306],[121.60782,23.9599],[121.60691,23.95274],[121.60776,23.9494],[121.60981,23.94809],[121.60904,23.94683],[121.6097,23.94418],[121.597,23.91759],[121.59281,23.91138],[121.58987,23.90932],[121.58315,23.91227],[121.56728,23.91679],[121.55118,23.92537],[121.53753,23.92775],[121.53575,23.92886],[121.53314,23.93314],[121.52707,23.9379],[121.51945,23.94572],[121.51409,23.94816],[121.5187,23.95027],[121.51934,23.95543],[121.52866,23.96542],[121.53133,23.97072],[121.52911,23.97494],[121.51996,23.97872],[121.52028,23.98418],[121.52282,23.98819],[121.52764,23.99209],[121.53296,23.98978],[121.53933,23.99219],[121.54153,23.99229],[121.54315,23.99052],[121.54716,23.99175],[121.55026,23.9932],[121.55516,23.99745],[121.55176,24.00034],[121.55764,23.99829]]]}},{"type":"Feature","properties":{"code":"10015060","name":"花蓮縣壽豐鄉"},"geometry":{"type":"Polygon","coordinates":[[[121.51439,23.94801],[121.51945,23.94572],[121.52707,23.9379],[121.53314,23.93314],[121.53575,23.92886],[121.53753,23.92775],[121.55118,23.92537],[121.56728,23.91679],[121.58315,23.91227],[121.5897,23.90931],[121.59281,23.91138],[121.597,23.91759],[121.6097,23.94418],[121.61188,23.93376],[121.6116,23.93194],[121.60996,23.93037],[121.60914,23.92361],[121.60602,23.91591],[121.60493,23.90817],[121.60569,23.89941],[121.60497,23.89366],[121.59824,23.85702],[121.59392,23.84459],[121.58959,23.83736],[121.58739,23.83114],[121.58543,23.8285],[121.5834,23.81983],[121.58126,23.816],[121.57653,23.81091],[121.57285,23.80042],[121.57081,23.77676],[121.57126,23.76613],[121.57208,23.76258],[121.57314,23.76235],[121.57245,23.75661],[121.57159,23.75584],[121.56981,23.74946],[121.56756,23.74629],[121.56563,23.74717],[121.56407,23.7465],[121.56201,23.7488],[121.55989,23.74788],[121.55853,23.74841],[121.55662,23.7447],[121.55542,23.74385],[121.55314,23.7441],[121.54947,23.74155],[121.54589,23.74197],[121.5454,23.73982],[121.54206,23.7352],[121.53857,23.73287],[121.53345,23.73336],[121.53169,23.73215],[121.52793,23.73209],[121.52664,23.73127],[121.52418,23.73191],[121.52387,23.7339],[121.52094,23.73657],[121.51967,23.74036],[121.51961,23.74767],[121.51651,23.7485],[121.51722,23.75409],[121.51646,23.7573],[121.51798,23.75917],[121.51458,23.75985],[121.51195,23.76334],[121.5103,23.76287],[121.50955,23.76366],[121.5065,23.76416],[121.50567,23.76581],[121.50061,23.76581],[121.50029,23.7668],[121.49776,23.76804],[121.49787,23.77005],[121.49614,23.77321],[121.4974,23.77588],[121.5003,23.77833],[121.51997,23.78686],[121.51858,23.79699],[121.52024,23.80058],[121.52466,23.80591],[121.52634,23.81726],[121.5196,23.8158],[121.50521,23.80948],[121.49507,23.80759],[121.4839,23.80695],[121.45947,23.80831],[121.45672,23.8104],[121.45061,23.81275],[121.44087,23.81832],[121.44212,23.82118],[121.44932,23.82133],[121.45192,23.82342],[121.45304,23.82587],[121.45322,23.83128],[121.44722,23.84194],[121.45059,23.84473],[121.44787,23.84786],[121.45313,23.85195],[121.45969,23.85355],[121.46217,23.8564],[121.46589,23.86322],[121.46995,23.86523],[121.47079,23.86667],[121.47248,23.86636],[121.47324,23.86728],[121.47514,23.86755],[121.47855,23.87391],[121.4819,23.87728],[121.48702,23.87934],[121.49047,23.8797],[121.49482,23.88436],[121.49847,23.88596],[121.49832,23.88966],[121.49961,23.89017],[121.50049,23.89192],[121.50232,23.89249],[121.50246,23.89374],[121.50149,23.89443],[121.50348,23.89835],[121.50352,23.90184],[121.50488,23.90539],[121.50399,23.91213],[121.50113,23.91842],[121.50125,23.92043],[121.50356,23.92374],[121.50624,23.93057],[121.50541,23.93811],[121.50853,23.9407],[121.50702,23.94476],[121.50916,23.9474],[121.51439,23.94801]]]}},{"type":"Feature","properties":{"code":"10015110","name":"花蓮縣秀林鄉"},"geometry":{"type":"Polygon","coordinates":[[[121.63176,24.36943],[121.63062,24.36642],[121.635,24.36634],[121.63503,24.36372],[121.63834,24.36232],[121.63867,24.36092],[121.64037,24.35939],[121.64048,24.35717],[121.64876,24.34951],[121.6503,24.3495],[121.65072,24.35093],[121.65003,24.35487],[121.6481,24.35653],[121.64785,24.35773],[121.64946,24.35966],[121.65068,24.35985],[121.65376,24.35582],[121.65351,24.35219],[121.65665,24.35325],[121.65866,24.35128],[121.66001,24.35115],[121.66124,24.35179],[121.66137,24.35301],[121.66313,24.35289],[121.6639,24.34917],[121.66674,24.34725],[121.66911,24.3431],[121.67398,24.3434],[121.67349,24.33998],[121.67484,24.33777],[121.67701,24.33758],[121.68385,24.34073],[121.68558,24.34073],[121.68698,24.33875],[121.68736,24.33464],[121.68847,24.33362],[121.69538,24.33478],[121.70557,24.32945],[121.71332,24.32694],[121.72346,24.32548],[121.72796,24.32596],[121.73518,24.32307],[121.74006,24.32356],[121.74474,24.32285],[121.75962,24.31406],[121.77085,24.31315],[121.77272,24.31363],[121.77407,24.31527],[121.77301,24.30876],[121.76954,24.3027],[121.76123,24.29575],[121.75058,24.28441],[121.74731,24.27754],[121.74431,24.262],[121.74307,24.25963],[121.73818,24.25588],[121.7283,24.2457],[121.72284,24.24371],[121.71939,24.24381],[121.71559,24.24167],[121.71107,24.23568],[121.70613,24.22561],[121.69628,24.22072],[121.68489,24.21224],[121.67395,24.20756],[121.67217,24.20579],[121.66918,24.2002],[121.66605,24.19783],[121.66332,24.19414],[121.65908,24.18104],[121.65848,24.17188],[121.65997,24.16366],[121.66422,24.15543],[121.66514,24.14052],[121.66376,24.13452],[121.65648,24.12406],[121.65309,24.1285],[121.64633,24.13136],[121.64419,24.13313],[121.64145,24.13356],[121.63319,24.14126],[121.63426,24.13617],[121.64041,24.12254],[121.61629,24.10516],[121.60837,24.10115],[121.60834,24.10022],[121.61065,24.09929],[121.612,24.09976],[121.6133,24.09919],[121.61369,24.09334],[121.60975,24.08156],[121.60717,24.06499],[121.60061,24.05471],[121.60084,24.05348],[121.59917,24.0529],[121.59352,24.04565],[121.59233,24.04784],[121.5904,24.04866],[121.58356,24.04252],[121.58621,24.0398],[121.58851,24.04013],[121.58851,24.03834],[121.58919,24.03783],[121.58877,24.03016],[121.58674,24.02927],[121.5844,24.02306],[121.58197,24.02199],[121.57953,24.01954],[121.57976,24.01895],[121.57727,24.01911],[121.57693,24.01802],[121.57863,24.0159],[121.57722,24.01479],[121.57349,24.00797],[121.57236,24.00729],[121.57144,24.01058],[121.57013,24.01039],[121.56801,24.00456],[121.56588,24.00839],[121.56247,24.00733],[121.56126,24.0055],[121.55772,24.00422],[121.55859,23.99858],[121.55756,23.9983],[121.55176,24.00034],[121.55516,23.99745],[121.55026,23.9932],[121.54716,23.99175],[121.54315,23.99052],[121.54153,23.99229],[121.53933,23.99219],[121.53296,23.98978],[121.52747,23.99206],[121.52145,23.9865],[121.52016,23.98371],[121.51996,23.97872],[121.52911,23.97494],[121.53133,23.97072],[121.52866,23.96542],[121.51934,23.95543],[121.51929,23.9515],[121.51842,23.94996],[121.51409,23.94816],[121.50916,23.9474],[121.50702,23.94476],[121.50853,23.9407],[121.50541,23.93811],[121.50624,23.93057],[121.50356,23.92374],[121.50222,23.92265],[121.50119,23.91998],[121.50113,23.91842],[121.50399,23.91213],[121.50479,23.90751],[121.50348,23.89835],[121.50149,23.89443],[121.50246,23.89374],[121.50241,23.89268],[121.50049,23.89192],[121.49961,23.89017],[121.49822,23.88949],[121.49847,23.88596],[121.49482,23.88436],[121.49047,23.8797],[121.48702,23.87934],[121.4819,23.87728],[121.47855,23.87391],[121.47514,23.86755],[121.47324,23.86728],[121.47248,23.86636],[121.47079,23.86667],[121.46995,23.86523],[121.46589,23.86322],[121.46217,23.8564],[121.45969,23.85355],[121.45313,23.85195],[121.44787,23.84786],[121.45059,23.84473],[121.44724,23.84187],[121.45332,23.83097],[121.45304,23.82587],[121.45192,23.82342],[121.44853,23.82108],[121.44212,23.82118],[121.44077,23.81837],[121.43304,23.82427],[121.42862,23.82897],[121.4255,23.83652],[121.42218,23.84208],[121.41562,23.84496],[121.41431,23.84497],[121.41123,23.84308],[121.40739,23.84597],[121.40588,23.84595],[121.40245,23.83882],[121.40057,23.83745],[121.39335,23.83886],[121.38841,23.83896],[121.3843,23.84194],[121.38049,23.84244],[121.37753,23.84476],[121.37637,23.84987],[121.37338,23.85292],[121.37132,23.85334],[121.36834,23.85744],[121.36468,23.8598],[121.36402,23.8618],[121.35966,23.86565],[121.36022,23.8671],[121.35863,23.86876],[121.36133,23.87289],[121.36014,23.87545],[121.36039,23.87722],[121.35783,23.8787],[121.35682,23.88171],[121.35416,23.88468],[121.35175,23.88483],[121.35014,23.88587],[121.35049,23.88707],[121.35406,23.8876],[121.35414,23.88843],[121.34749,23.89233],[121.34587,23.89682],[121.34058,23.89842],[121.33673,23.89839],[121.33726,23.90293],[121.3341,23.90538],[121.33044,23.90656],[121.33007,23.90999],[121.33128,23.91333],[121.32976,23.91577],[121.32613,23.91668],[121.32086,23.91581],[121.32041,23.9176],[121.31663,23.91727],[121.31452,23.92037],[121.31152,23.92076],[121.30962,23.91986],[121.30777,23.92133],[121.30427,23.92185],[121.30261,23.92334],[121.30168,23.92258],[121.29558,23.92561],[121.28427,23.92334],[121.27935,23.92576],[121.27481,23.9264],[121.27341,23.92849],[121.27485,23.93154],[121.27375,23.93375],[121.27386,23.93622],[121.27206,23.93835],[121.27396,23.94158],[121.27353,23.94414],[121.27433,23.94564],[121.27175,23.9485],[121.27471,23.95145],[121.27582,23.95586],[121.27517,23.9601],[121.27791,23.96583],[121.27562,23.96836],[121.27357,23.97525],[121.26512,23.97532],[121.26423,23.97598],[121.26143,23.9818],[121.26011,23.99232],[121.26557,24.00125],[121.27005,24.00671],[121.26956,24.00801],[121.27031,24.01002],[121.27632,24.02015],[121.27661,24.02461],[121.27866,24.02682],[121.28566,24.03953],[121.28498,24.04857],[121.28261,24.05128],[121.28321,24.05427],[121.28482,24.05533],[121.28647,24.05796],[121.28943,24.05889],[121.29554,24.06378],[121.29864,24.06169],[121.29989,24.06217],[121.30233,24.06635],[121.30606,24.0695],[121.30819,24.07331],[121.31793,24.0797],[121.32313,24.08494],[121.3233,24.08654],[121.32115,24.08887],[121.31919,24.09277],[121.31895,24.09501],[121.32566,24.10246],[121.32629,24.1083],[121.32817,24.11164],[121.3285,24.11441],[121.325,24.11608],[121.31566,24.11649],[121.31163,24.12019],[121.30354,24.12458],[121.29983,24.12921],[121.29586,24.13244],[121.28137,24.13587],[121.28422,24.14585],[121.28468,24.15229],[121.28346,24.1537],[121.28103,24.15449],[121.28033,24.15787],[121.28198,24.15819],[121.2862,24.15708],[121.28835,24.15774],[121.28784,24.17246],[121.2862,24.17736],[121.29299,24.1772],[121.29644,24.17832],[121.29879,24.18009],[121.30708,24.18033],[121.31103,24.18325],[121.31579,24.18517],[121.31992,24.19124],[121.32291,24.19188],[121.32562,24.19612],[121.33581,24.19911],[121.34086,24.19846],[121.34509,24.19995],[121.3494,24.19973],[121.34833,24.20719],[121.34938,24.21044],[121.34302,24.22355],[121.34918,24.23181],[121.35251,24.235],[121.35323,24.23951],[121.35253,24.24376],[121.35599,24.24463],[121.35854,24.2436],[121.36067,24.24394],[121.36442,24.24727],[121.36702,24.25217],[121.3699,24.25254],[121.37282,24.25414],[121.37842,24.25282],[121.38506,24.25499],[121.3858,24.25805],[121.3852,24.26183],[121.38566,24.26415],[121.38327,24.26798],[121.38216,24.27618],[121.38055,24.27976],[121.38724,24.28471],[121.39074,24.28969],[121.39352,24.28823],[121.39658,24.28874],[121.39723,24.29053],[121.40345,24.29688],[121.4051,24.30825],[121.41144,24.30726],[121.41683,24.30918],[121.41928,24.30786],[121.42201,24.30753],[121.42323,24.30822],[121.42849,24.31736],[121.43164,24.32048],[121.43461,24.32177],[121.43449,24.32558],[121.43248,24.32986],[121.43431,24.33827],[121.43778,24.34227],[121.43563,24.34758],[121.44157,24.35859],[121.44727,24.35954],[121.44866,24.36278],[121.45139,24.3644],[121.45429,24.36364],[121.4654,24.35531],[121.47526,24.35126],[121.47887,24.35188],[121.48138,24.34893],[121.48537,24.34846],[121.49237,24.34199],[121.49812,24.33923],[121.49979,24.33953],[121.50438,24.34293],[121.50781,24.34323],[121.50968,24.3412],[121.51357,24.34081],[121.51544,24.34181],[121.51799,24.341],[121.52216,24.34302],[121.52514,24.34247],[121.52775,24.33915],[121.53055,24.33876],[121.53313,24.33709],[121.53572,24.33737],[121.54054,24.33591],[121.54499,24.33777],[121.54862,24.33623],[121.55277,24.3328],[121.55592,24.33129],[121.55949,24.32315],[121.56333,24.32223],[121.56637,24.31918],[121.5699,24.31794],[121.57585,24.31967],[121.57884,24.31803],[121.58236,24.3178],[121.58752,24.31606],[121.58949,24.3138],[121.59376,24.31641],[121.59719,24.31629],[121.60192,24.31415],[121.60575,24.30942],[121.60702,24.31264],[121.60515,24.31541],[121.60523,24.31728],[121.6011,24.32058],[121.60133,24.32328],[121.59657,24.32814],[121.59575,24.33162],[121.59698,24.33347],[121.59923,24.33353],[121.60072,24.33086],[121.60447,24.32901],[121.60646,24.33006],[121.60654,24.33273],[121.60792,24.33542],[121.61221,24.33589],[121.61523,24.3333],[121.61754,24.33365],[121.61866,24.33574],[121.61632,24.33704],[121.61614,24.33813],[121.61792,24.34439],[121.61921,24.34548],[121.62062,24.34487],[121.62279,24.33947],[121.62748,24.34112],[121.62808,24.33871],[121.62669,24.33563],[121.62864,24.33369],[121.6328,24.33475],[121.63298,24.3399],[121.63137,24.34398],[121.6353,24.34482],[121.63593,24.34611],[121.63552,24.34762],[121.63324,24.34917],[121.63046,24.34822],[121.62945,24.34944],[121.62685,24.34953],[121.62677,24.35433],[121.62228,24.35668],[121.6212,24.35811],[121.62152,24.35991],[121.62357,24.36234],[121.62076,24.36255],[121.62038,24.36321],[121.62171,24.36663],[121.62589,24.36912],[121.63095,24.37055],[121.63176,24.36943]]]}},{"type":"Feature","properties":{"code":"10015030","name":"花蓮縣玉里鎮"},"geometry":{"type":"Polygon","coordinates":[[[121.41399,23.49548],[121.41687,23.49518],[121.41831,23.49345],[121.41804,23.49045],[121.41461,23.48268],[121.41457,23.48062],[121.41584,23.47882],[121.4184,23.47772],[121.42124,23.47815],[121.42217,23.47753],[121.4246,23.47879],[121.42692,23.47662],[121.42975,23.47991],[121.43087,23.48261],[121.43239,23.48253],[121.43766,23.47636],[121.44085,23.47478],[121.44103,23.47402],[121.43938,23.47243],[121.43471,23.47167],[121.43446,23.46901],[121.43896,23.46662],[121.4418,23.46085],[121.44589,23.45924],[121.44464,23.45767],[121.44336,23.45296],[121.44413,23.45192],[121.4458,23.45179],[121.44458,23.44965],[121.44422,23.44661],[121.44528,23.44476],[121.44727,23.44382],[121.44586,23.44335],[121.44435,23.44094],[121.4442,23.43871],[121.44209,23.43685],[121.44064,23.43367],[121.43923,23.43261],[121.43826,23.43327],[121.4334,23.43287],[121.43313,23.43174],[121.42877,23.4293],[121.42546,23.42602],[121.42572,23.42486],[121.42029,23.42067],[121.41957,23.41942],[121.41997,23.4169],[121.41836,23.4157],[121.41849,23.41387],[121.41721,23.41258],[121.41758,23.41196],[121.41568,23.40819],[121.4132,23.40522],[121.41043,23.39884],[121.40371,23.39041],[121.40361,23.38941],[121.40123,23.38857],[121.40001,23.38648],[121.40363,23.37581],[121.40485,23.36914],[121.40437,23.36735],[121.40757,23.36464],[121.4101,23.3649],[121.41725,23.36167],[121.41791,23.36059],[121.42288,23.35999],[121.4222,23.35498],[121.41835,23.35219],[121.41668,23.34931],[121.41402,23.34745],[121.40971,23.3459],[121.40643,23.33956],[121.40384,23.33721],[121.40207,23.33388],[121.39961,23.32659],[121.39994,23.32318],[121.39767,23.32167],[121.39214,23.32171],[121.39021,23.32057],[121.3901,23.31583],[121.38897,23.31468],[121.38785,23.31064],[121.38379,23.30813],[121.37785,23.30094],[121.37803,23.29859],[121.37628,23.29572],[121.37716,23.29135],[121.37649,23.28908],[121.37732,23.28748],[121.37714,23.28353],[121.3656,23.28238],[121.36303,23.28248],[121.36022,23.28367],[121.358,23.28209],[121.35679,23.2801],[121.35612,23.28188],[121.35412,23.28358],[121.34775,23.27894],[121.34684,23.27929],[121.34671,23.28129],[121.34587,23.28203],[121.34236,23.27999],[121.33997,23.28183],[121.34129,23.28651],[121.33895,23.28936],[121.33873,23.29075],[121.3403,23.29171],[121.33526,23.29197],[121.3356,23.29757],[121.33102,23.29958],[121.32872,23.29601],[121.32463,23.29229],[121.32483,23.28954],[121.32325,23.28542],[121.31692,23.28007],[121.3153,23.27762],[121.31018,23.27572],[121.3064,23.27802],[121.29963,23.27765],[121.295,23.27306],[121.29225,23.27179],[121.29083,23.26887],[121.28094,23.26126],[121.28096,23.26439],[121.27697,23.26586],[121.27836,23.26806],[121.27808,23.27056],[121.28156,23.27511],[121.27818,23.27805],[121.27925,23.28159],[121.27874,23.28378],[121.27555,23.28668],[121.26864,23.29086],[121.2701,23.29403],[121.2727,23.29686],[121.27653,23.29687],[121.28309,23.30083],[121.28876,23.30043],[121.29148,23.30201],[121.29035,23.30391],[121.2857,23.3056],[121.28223,23.30877],[121.27446,23.31112],[121.27367,23.31323],[121.26964,23.31823],[121.2683,23.32751],[121.27516,23.33124],[121.27929,23.33162],[121.28241,23.33358],[121.28801,23.33303],[121.28872,23.33537],[121.29667,23.33609],[121.29974,23.33928],[121.3006,23.34194],[121.30671,23.34336],[121.31731,23.34893],[121.32134,23.35427],[121.32228,23.35763],[121.32007,23.35938],[121.31136,23.36118],[121.31007,23.36255],[121.30661,23.36374],[121.3043,23.36654],[121.29891,23.36644],[121.29762,23.36917],[121.30025,23.37287],[121.30572,23.37568],[121.30995,23.37689],[121.31542,23.38202],[121.31607,23.38456],[121.31558,23.38523],[121.31638,23.38529],[121.3185,23.39043],[121.31688,23.39395],[121.31447,23.39391],[121.31337,23.39651],[121.31975,23.3982],[121.32294,23.40067],[121.32424,23.40331],[121.32575,23.40407],[121.32712,23.40761],[121.32694,23.41054],[121.32946,23.41436],[121.32964,23.41599],[121.3325,23.41711],[121.33439,23.42099],[121.33381,23.42275],[121.33057,23.4233],[121.33057,23.42481],[121.33185,23.42532],[121.33568,23.42267],[121.33697,23.42301],[121.33705,23.42469],[121.33784,23.42489],[121.33815,23.43123],[121.34043,23.43101],[121.34326,23.43339],[121.34585,23.43214],[121.34271,23.43459],[121.34404,23.43517],[121.34748,23.43466],[121.34888,23.43755],[121.34778,23.43999],[121.34857,23.44109],[121.3501,23.44115],[121.3504,23.44306],[121.35148,23.4432],[121.35175,23.44211],[121.35456,23.44072],[121.35582,23.44082],[121.35511,23.43904],[121.36248,23.43508],[121.3714,23.45405],[121.37945,23.46261],[121.3831,23.46969],[121.40144,23.48466],[121.40411,23.48542],[121.4104,23.49533],[121.41399,23.49548]]]}},{"type":"Feature","properties":{"code":"10015130","name":"花蓮縣卓溪鄉"},"geometry":{"type":"Polygon","coordinates":[[[121.24213,23.61529],[121.24615,23.61468],[121.24508,23.61054],[121.2457,23.60869],[121.24468,23.6043],[121.24525,23.60142],[121.24363,23.5982],[121.24488,23.59539],[121.24437,23.59145],[121.24745,23.58701],[121.24703,23.58037],[121.25216,23.57633],[121.25171,23.57272],[121.25026,23.57013],[121.25229,23.5645],[121.25195,23.56159],[121.25387,23.55777],[121.25156,23.55595],[121.25171,23.55422],[121.25039,23.55258],[121.24994,23.55006],[121.25454,23.54458],[121.25672,23.54483],[121.25811,23.54407],[121.25969,23.54036],[121.26397,23.53888],[121.2707,23.54219],[121.27755,23.5406],[121.28178,23.54314],[121.28402,23.54329],[121.28481,23.54809],[121.28951,23.54796],[121.29404,23.55013],[121.29774,23.55059],[121.29993,23.55378],[121.30701,23.5574],[121.30792,23.55908],[121.3102,23.56062],[121.31722,23.56259],[121.32236,23.56144],[121.32299,23.54969],[121.32073,23.54474],[121.32048,23.54121],[121.32134,23.53895],[121.32367,23.53733],[121.32208,23.53392],[121.32325,23.53112],[121.32238,23.52806],[121.32352,23.52632],[121.32386,23.5218],[121.3219,23.51644],[121.32419,23.51052],[121.32603,23.50917],[121.32584,23.50525],[121.32756,23.50277],[121.32881,23.4982],[121.32744,23.4982],[121.32681,23.50269],[121.32336,23.50206],[121.32238,23.50108],[121.31866,23.50012],[121.31844,23.49866],[121.31567,23.49527],[121.31616,23.49239],[121.31499,23.48832],[121.31836,23.48894],[121.3248,23.48761],[121.32597,23.4885],[121.32618,23.49019],[121.32651,23.48959],[121.32617,23.48795],[121.32369,23.48679],[121.3238,23.4844],[121.32153,23.48175],[121.32134,23.4776],[121.32037,23.47489],[121.31915,23.47417],[121.3202,23.47008],[121.31977,23.46626],[121.32525,23.46724],[121.32608,23.46436],[121.33128,23.46226],[121.33207,23.46027],[121.34369,23.45712],[121.34386,23.45595],[121.34483,23.45544],[121.34474,23.45295],[121.34657,23.45196],[121.34627,23.45063],[121.35049,23.44294],[121.3501,23.44115],[121.34857,23.44109],[121.34778,23.43999],[121.34888,23.43755],[121.34748,23.43466],[121.34404,23.43517],[121.34271,23.43459],[121.34585,23.43214],[121.34326,23.43339],[121.34043,23.43101],[121.33815,23.43123],[121.33784,23.42489],[121.33705,23.42469],[121.33697,23.42301],[121.33568,23.42267],[121.33185,23.42532],[121.33057,23.42481],[121.33057,23.4233],[121.33381,23.42275],[121.33439,23.42099],[121.3325,23.41711],[121.32964,23.41599],[121.32946,23.41436],[121.32694,23.41054],[121.32712,23.40761],[121.32575,23.40407],[121.32424,23.40331],[121.32294,23.40067],[121.31975,23.3982],[121.31339,23.39655],[121.31447,23.39391],[121.31688,23.39395],[121.3185,23.39043],[121.31638,23.38529],[121.31558,23.38523],[121.31607,23.38456],[121.31542,23.38202],[121.30995,23.37689],[121.30572,23.37568],[121.30025,23.37287],[121.29762,23.36917],[121.29891,23.36644],[121.3043,23.36654],[121.30661,23.36374],[121.31007,23.36255],[121.31136,23.36118],[121.32093,23.35893],[121.32232,23.3574],[121.32074,23.35339],[121.31699,23.34869],[121.30671,23.34336],[121.3006,23.34194],[121.29974,23.33928],[121.29715,23.33632],[121.28872,23.33537],[121.28801,23.33303],[121.28241,23.33358],[121.27929,23.33162],[121.27516,23.33124],[121.2683,23.32751],[121.26964,23.31823],[121.27367,23.31323],[121.27446,23.31112],[121.28223,23.30877],[121.2857,23.3056],[121.29035,23.30391],[121.29148,23.30201],[121.28876,23.30043],[121.28309,23.30083],[121.27653,23.29687],[121.2727,23.29686],[121.2701,23.29403],[121.26864,23.29086],[121.27555,23.28668],[121.27874,23.28378],[121.27925,23.28159],[121.27818,23.27805],[121.28156,23.27511],[121.27808,23.27056],[121.27836,23.26806],[121.27697,23.26586],[121.28096,23.26439],[121.28094,23.26126],[121.27724,23.25795],[121.2773,23.25468],[121.27417,23.2503],[121.27148,23.23882],[121.26713,23.23016],[121.26718,23.2217],[121.26385,23.21575],[121.25782,23.20805],[121.25445,23.20995],[121.25367,23.20959],[121.25729,23.20733],[121.25652,23.20611],[121.25252,23.20892],[121.2495,23.20865],[121.25207,23.20732],[121.25376,23.20537],[121.25239,23.20522],[121.25298,23.2041],[121.25199,23.20344],[121.25226,23.20234],[121.2505,23.20166],[121.24929,23.2024],[121.24835,23.20155],[121.24858,23.19977],[121.25104,23.19795],[121.24663,23.19169],[121.2449,23.18773],[121.24012,23.18304],[121.2422,23.17902],[121.24069,23.17684],[121.23933,23.17736],[121.2386,23.176],[121.23648,23.17494],[121.23444,23.17092],[121.23052,23.1677],[121.22293,23.16459],[121.22402,23.16261],[121.22299,23.16122],[121.22615,23.16237],[121.22731,23.1615],[121.22727,23.15989],[121.22498,23.15769],[121.22257,23.15757],[121.22067,23.15618],[121.22151,23.15395],[121.22326,23.15346],[121.22293,23.15225],[121.22005,23.14992],[121.21781,23.15011],[121.21432,23.14859],[121.21382,23.14586],[121.21208,23.14418],[121.21064,23.14806],[121.21249,23.15493],[121.2103,23.1599],[121.20649,23.16281],[121.20559,23.16458],[121.20568,23.16687],[121.19917,23.17509],[121.19977,23.17829],[121.19796,23.18555],[121.19825,23.18844],[121.19421,23.19289],[121.19103,23.2021],[121.1895,23.20372],[121.18439,23.20491],[121.17936,23.20864],[121.17563,23.21019],[121.1699,23.20707],[121.16866,23.20765],[121.16091,23.20596],[121.1547,23.19915],[121.15006,23.19856],[121.14735,23.19901],[121.13936,23.20191],[121.13809,23.20809],[121.13452,23.21126],[121.1294,23.2233],[121.1234,23.22508],[121.11469,23.22496],[121.10845,23.22349],[121.10609,23.22395],[121.10363,23.22696],[121.09886,23.22806],[121.09638,23.22965],[121.09311,23.23373],[121.08654,23.23385],[121.08364,23.23296],[121.08111,23.2338],[121.07935,23.23265],[121.07823,23.23357],[121.07845,23.23758],[121.07401,23.24441],[121.07102,23.24685],[121.06986,23.24932],[121.0701,23.25231],[121.06923,23.25517],[121.06586,23.25755],[121.06419,23.26308],[121.06242,23.26584],[121.06185,23.26802],[121.06289,23.26888],[121.06199,23.26938],[121.06181,23.27186],[121.06072,23.27303],[121.06067,23.27674],[121.06207,23.27941],[121.0599,23.28331],[121.05945,23.28615],[121.05727,23.28761],[121.05632,23.2903],[121.05239,23.29157],[121.04816,23.29474],[121.04307,23.29631],[121.0389,23.30065],[121.03459,23.29978],[121.02832,23.29712],[121.03137,23.30043],[121.03207,23.30379],[121.03643,23.3038],[121.04197,23.30718],[121.04628,23.30868],[121.04668,23.31146],[121.04804,23.31378],[121.04716,23.32001],[121.04878,23.32291],[121.04878,23.32531],[121.04513,23.32772],[121.04167,23.32803],[121.03942,23.32913],[121.0369,23.33315],[121.03252,23.33407],[121.03091,23.33703],[121.02678,23.33781],[121.02432,23.34073],[121.02236,23.34813],[121.02005,23.35038],[121.01811,23.35013],[121.01773,23.3483],[121.01519,23.34634],[121.0101,23.3459],[121.00754,23.34918],[121.00807,23.35064],[121.00757,23.35203],[121.00248,23.35525],[121.00006,23.35652],[120.99466,23.35637],[120.9871,23.35873],[120.98657,23.36342],[120.98796,23.37057],[120.99155,23.37174],[120.99389,23.37594],[121.00009,23.38237],[121.00531,23.38339],[121.00772,23.38466],[121.00739,23.38703],[121.00407,23.38864],[121.00113,23.39175],[121.00321,23.39479],[121.00643,23.39656],[121.00803,23.3966],[121.01046,23.3951],[121.01464,23.39658],[121.01924,23.40152],[121.02175,23.39997],[121.02835,23.40376],[121.02665,23.40604],[121.02741,23.40941],[121.02708,23.41278],[121.02491,23.4146],[121.02774,23.41625],[121.02938,23.42024],[121.02934,23.42263],[121.02253,23.4249],[121.02235,23.42736],[121.02094,23.42951],[121.01659,23.43097],[121.01416,23.43093],[121.01293,23.43324],[121.01501,23.43532],[121.01958,23.43643],[121.02203,23.439],[121.02652,23.43915],[121.02866,23.44161],[121.03314,23.44332],[121.03365,23.44551],[121.04396,23.44896],[121.04646,23.45087],[121.05182,23.4508],[121.05453,23.45738],[121.05579,23.45918],[121.0587,23.46087],[121.05893,23.46194],[121.05131,23.46431],[121.04965,23.46783],[121.04441,23.47012],[121.0389,23.47408],[121.04497,23.48054],[121.04855,23.48242],[121.05012,23.48653],[121.05361,23.48783],[121.05415,23.4899],[121.05279,23.49357],[121.0541,23.4956],[121.05725,23.49619],[121.06217,23.49954],[121.06298,23.50384],[121.06614,23.50631],[121.0661,23.50797],[121.06876,23.51477],[121.06846,23.51845],[121.07538,23.51733],[121.08307,23.51463],[121.08811,23.51405],[121.09185,23.51452],[121.09327,23.51778],[121.09736,23.52165],[121.10102,23.52125],[121.10367,23.51893],[121.1108,23.51906],[121.11549,23.52023],[121.1177,23.52164],[121.12045,23.521],[121.12635,23.51705],[121.12879,23.5185],[121.13113,23.51748],[121.13225,23.51511],[121.13526,23.51496],[121.13864,23.52094],[121.1444,23.5256],[121.14717,23.52725],[121.15076,23.52653],[121.1511,23.52705],[121.1501,23.53002],[121.14688,23.53411],[121.14808,23.53567],[121.14845,23.53953],[121.15106,23.54518],[121.14805,23.5524],[121.14612,23.55437],[121.14803,23.55658],[121.14995,23.55735],[121.15188,23.56047],[121.15714,23.55956],[121.15802,23.56405],[121.16034,23.56783],[121.16035,23.56976],[121.15511,23.57086],[121.15215,23.57316],[121.15198,23.58127],[121.15339,23.58678],[121.15557,23.58705],[121.15819,23.58573],[121.16051,23.58704],[121.16675,23.58714],[121.16987,23.58632],[121.1714,23.58414],[121.17824,23.58269],[121.18001,23.58746],[121.17973,23.59003],[121.18204,23.59094],[121.18347,23.59316],[121.18941,23.59481],[121.1903,23.59719],[121.19396,23.6005],[121.20013,23.5964],[121.20173,23.59679],[121.20589,23.5958],[121.20813,23.59824],[121.21335,23.60031],[121.21774,23.60078],[121.22079,23.59947],[121.22221,23.60168],[121.22483,23.60294],[121.22916,23.60668],[121.2311,23.60653],[121.23346,23.60755],[121.23502,23.60982],[121.23805,23.61058],[121.23907,23.61453],[121.24213,23.61529]]]}},{"type":"Feature","properties":{"code":"10015080","name":"花蓮縣豐濱鄉"},"geometry":{"type":"Polygon","coordinates":[[[121.56313,23.74797],[121.56407,23.7465],[121.56563,23.74717],[121.56756,23.74629],[121.56789,23.74478],[121.56702,23.74262],[121.56385,23.73903],[121.56323,23.73591],[121.56009,23.73079],[121.5602,23.72953],[121.55892,23.72879],[121.55655,23.7248],[121.55368,23.72441],[121.55224,23.72274],[121.54989,23.71656],[121.54929,23.71178],[121.54986,23.70295],[121.55066,23.70045],[121.55294,23.69939],[121.55336,23.69835],[121.55069,23.69245],[121.54904,23.68405],[121.54588,23.67504],[121.54669,23.6731],[121.54532,23.66855],[121.54536,23.66457],[121.54351,23.66254],[121.54174,23.6619],[121.541,23.66053],[121.54376,23.65601],[121.54339,23.65334],[121.53989,23.65158],[121.53659,23.64719],[121.53123,23.62647],[121.52981,23.60907],[121.53049,23.60181],[121.52947,23.59779],[121.53007,23.59717],[121.52611,23.58242],[121.52629,23.57639],[121.52309,23.57159],[121.52201,23.56706],[121.51859,23.56346],[121.51134,23.55149],[121.50697,23.53466],[121.50803,23.5315],[121.50537,23.5294],[121.50449,23.52248],[121.50346,23.52019],[121.50357,23.51745],[121.50571,23.5113],[121.50441,23.50736],[121.50497,23.50547],[121.5062,23.50523],[121.50772,23.49124],[121.51017,23.49237],[121.51245,23.4918],[121.51395,23.48716],[121.51285,23.48624],[121.51224,23.48166],[121.50971,23.47944],[121.50809,23.47172],[121.50414,23.46848],[121.50162,23.45972],[121.49983,23.45616],[121.49609,23.43483],[121.49414,23.43533],[121.49195,23.43444],[121.4905,23.43526],[121.48703,23.43361],[121.48459,23.43088],[121.4824,23.43018],[121.4798,23.43118],[121.47331,23.44062],[121.47057,23.44077],[121.46392,23.43955],[121.46338,23.43888],[121.46204,23.43955],[121.46158,23.44154],[121.4571,23.44221],[121.45442,23.44114],[121.45235,23.44175],[121.45101,23.44316],[121.44818,23.44295],[121.44515,23.44488],[121.44417,23.44712],[121.4458,23.45179],[121.44756,23.45189],[121.44953,23.45335],[121.45214,23.45384],[121.4581,23.45296],[121.46221,23.4544],[121.4634,23.45707],[121.46328,23.4591],[121.46452,23.46012],[121.46544,23.46448],[121.46655,23.46582],[121.46641,23.47047],[121.46512,23.47251],[121.46453,23.47581],[121.46667,23.47946],[121.47174,23.48433],[121.472,23.4858],[121.47405,23.48779],[121.47648,23.48719],[121.47807,23.48791],[121.48245,23.48312],[121.4867,23.48507],[121.48474,23.49224],[121.4871,23.49521],[121.48691,23.49974],[121.48941,23.50501],[121.48732,23.50909],[121.48849,23.5139],[121.48647,23.51431],[121.48453,23.51593],[121.48724,23.52582],[121.48916,23.52742],[121.48981,23.53382],[121.49211,23.53907],[121.49228,23.54276],[121.49094,23.5428],[121.48777,23.54552],[121.48592,23.54405],[121.48311,23.54522],[121.47713,23.54118],[121.474,23.54172],[121.47118,23.54346],[121.47015,23.54279],[121.46508,23.54361],[121.46341,23.54262],[121.46037,23.54392],[121.4596,23.54536],[121.45296,23.54266],[121.45005,23.54472],[121.44582,23.54482],[121.4442,23.54589],[121.44318,23.54787],[121.44035,23.54738],[121.43087,23.5482],[121.4286,23.55011],[121.42907,23.55331],[121.42771,23.55385],[121.42733,23.55542],[121.42788,23.55964],[121.42351,23.56007],[121.42147,23.56117],[121.42114,23.56379],[121.42316,23.56743],[121.42794,23.56994],[121.42926,23.57259],[121.42525,23.57693],[121.42325,23.57739],[121.42449,23.58269],[121.42641,23.58452],[121.42615,23.58688],[121.42529,23.58787],[121.42706,23.58899],[121.4308,23.59607],[121.43808,23.59722],[121.44063,23.59846],[121.44386,23.59826],[121.44569,23.60228],[121.44729,23.60355],[121.44761,23.60823],[121.45456,23.60897],[121.45462,23.60958],[121.45672,23.6097],[121.45656,23.61081],[121.45785,23.61068],[121.45794,23.61149],[121.4606,23.61305],[121.46556,23.61339],[121.46731,23.61595],[121.46635,23.61977],[121.47012,23.62044],[121.47067,23.62216],[121.47435,23.62486],[121.47557,23.62837],[121.478,23.63187],[121.47796,23.6346],[121.47904,23.63662],[121.48852,23.64633],[121.49165,23.64795],[121.49579,23.64753],[121.50012,23.64495],[121.50369,23.64397],[121.50871,23.64715],[121.51,23.65105],[121.51345,23.6553],[121.51794,23.66981],[121.52029,23.67112],[121.51997,23.67319],[121.52106,23.67745],[121.52228,23.67938],[121.52408,23.68044],[121.52501,23.68255],[121.52242,23.68657],[121.52189,23.69049],[121.51901,23.69196],[121.51669,23.69427],[121.51796,23.69687],[121.51975,23.69782],[121.51976,23.69912],[121.5214,23.70012],[121.52081,23.70351],[121.51969,23.70512],[121.52117,23.7084],[121.52089,23.71044],[121.51906,23.7104],[121.51738,23.71217],[121.51896,23.7132],[121.51944,23.71722],[121.52275,23.72045],[121.52525,23.72102],[121.52581,23.72262],[121.52514,23.72742],[121.52668,23.72931],[121.52664,23.73127],[121.52793,23.73209],[121.53169,23.73215],[121.53345,23.73336],[121.53857,23.73287],[121.54206,23.7352],[121.5454,23.73982],[121.54589,23.74197],[121.54947,23.74155],[121.55314,23.7441],[121.55542,23.74385],[121.55662,23.7447],[121.55853,23.74841],[121.55989,23.74788],[121.56183,23.74884],[121.56313,23.74797]]]}},{"type":"Feature","properties":{"code":"10015010","name":"花蓮縣花蓮市"},"geometry":{"type":"Polygon","coordinates":[[[121.64449,24.00306],[121.64168,23.99742],[121.64252,23.99958],[121.64141,23.99897],[121.63483,23.98464],[121.635,23.97982],[121.62828,23.96947],[121.6266,23.97377],[121.62219,23.97787],[121.61912,23.97624],[121.61584,23.97321],[121.60962,23.96306],[121.60773,23.96296],[121.59974,23.9648],[121.58819,23.97412],[121.58955,23.97425],[121.59196,23.97725],[121.59274,23.97677],[121.59679,23.9848],[121.5982,23.9845],[121.59904,23.98535],[121.59727,23.98578],[121.59798,23.98716],[121.59377,23.98939],[121.59249,23.99181],[121.59104,23.9897],[121.58768,23.99111],[121.58823,23.99199],[121.5876,23.99229],[121.58488,23.99165],[121.58312,23.98982],[121.55837,23.99819],[121.5577,24.00414],[121.56126,24.0055],[121.56247,24.00733],[121.56588,24.00839],[121.56672,24.00604],[121.56832,24.00465],[121.57013,24.01039],[121.57144,24.01058],[121.57177,24.00804],[121.57263,24.00727],[121.57525,24.01052],[121.57722,24.01479],[121.57861,24.01585],[121.57693,24.01802],[121.57727,24.01911],[121.57866,24.01913],[121.57996,24.01886],[121.58552,24.01418],[121.59048,24.01447],[121.59197,24.01333],[121.59395,24.01389],[121.5957,24.01312],[121.60786,24.01358],[121.60858,24.01268],[121.60848,24.00713],[121.61131,24.00542],[121.61089,24.00177],[121.61186,24.00269],[121.61567,24.00265],[121.61764,24.0102],[121.6247,24.01786],[121.62965,24.02477],[121.63339,24.02703],[121.6365,24.02388],[121.64359,24.01947],[121.64494,24.01709],[121.64792,24.00895],[121.64741,24.00693],[121.64449,24.00306]]]}},{"type":"Feature","properties":{"code":"10015040","name":"花蓮縣新城鄉"},"geometry":{"type":"Polygon","coordinates":[[[121.6429,24.13307],[121.64419,24.13313],[121.64633,24.13136],[121.65289,24.12864],[121.65642,24.1238],[121.65385,24.12012],[121.65087,24.11756],[121.63371,24.10759],[121.62836,24.10269],[121.62003,24.09161],[121.61593,24.07724],[121.61615,24.06374],[121.61919,24.05223],[121.62664,24.03643],[121.63339,24.02703],[121.62965,24.02477],[121.6247,24.01786],[121.61764,24.0102],[121.61567,24.00265],[121.61186,24.00269],[121.61094,24.00173],[121.61131,24.00542],[121.60848,24.00713],[121.60858,24.01268],[121.60786,24.01358],[121.5957,24.01312],[121.59395,24.01389],[121.59197,24.01333],[121.59048,24.01447],[121.58552,24.01418],[121.57976,24.01895],[121.57953,24.01954],[121.58188,24.02191],[121.58504,24.02383],[121.58674,24.02927],[121.58826,24.02946],[121.58883,24.03039],[121.58919,24.03783],[121.58851,24.03834],[121.58851,24.04013],[121.58621,24.0398],[121.58355,24.04249],[121.5904,24.04866],[121.59233,24.04784],[121.59352,24.04565],[121.59917,24.0529],[121.60084,24.05348],[121.60061,24.05471],[121.60717,24.06499],[121.60975,24.08156],[121.61369,24.09334],[121.6133,24.09919],[121.612,24.09976],[121.61065,24.09929],[121.60834,24.10022],[121.60837,24.10115],[121.61629,24.10516],[121.64041,24.12254],[121.63426,24.13617],[121.63319,24.14126],[121.63984,24.13484],[121.6429,24.13307]]]}},{"type":"Feature","properties":{"code":"10015020","name":"花蓮縣鳳林鎮"},"geometry":{"type":"Polygon","coordinates":[[[121.5266,23.81617],[121.52466,23.80591],[121.52024,23.80058],[121.51858,23.79699],[121.51997,23.78686],[121.5003,23.77833],[121.4974,23.77588],[121.49614,23.77321],[121.49787,23.77005],[121.49776,23.76804],[121.50029,23.7668],[121.50061,23.76581],[121.50567,23.76581],[121.5065,23.76416],[121.50955,23.76366],[121.5103,23.76287],[121.51195,23.76334],[121.51458,23.75985],[121.51798,23.75917],[121.51646,23.7573],[121.51722,23.75409],[121.51651,23.7485],[121.51961,23.74767],[121.51967,23.74036],[121.52094,23.73657],[121.52387,23.7339],[121.52418,23.73191],[121.52664,23.73127],[121.52677,23.73008],[121.52514,23.72742],[121.52581,23.72262],[121.52525,23.72102],[121.52275,23.72045],[121.51944,23.71722],[121.51877,23.71283],[121.51738,23.71217],[121.51194,23.71281],[121.50656,23.70987],[121.50562,23.71012],[121.50571,23.7063],[121.50464,23.70465],[121.50175,23.70441],[121.50075,23.70599],[121.49866,23.70675],[121.49568,23.70556],[121.49457,23.70339],[121.49173,23.70196],[121.4908,23.7022],[121.48883,23.70025],[121.48596,23.70093],[121.48118,23.69632],[121.47765,23.68986],[121.47093,23.68147],[121.46413,23.6765],[121.45755,23.67499],[121.45181,23.67609],[121.41952,23.68707],[121.40966,23.68882],[121.40714,23.68832],[121.40371,23.689],[121.40568,23.69151],[121.40556,23.69413],[121.40657,23.69699],[121.41744,23.71037],[121.41143,23.71137],[121.40988,23.71352],[121.41118,23.71435],[121.41159,23.71584],[121.40879,23.71867],[121.40821,23.71752],[121.40665,23.71728],[121.4052,23.71569],[121.40288,23.71543],[121.39688,23.71645],[121.39652,23.71838],[121.41188,23.72207],[121.41854,23.72152],[121.4234,23.71956],[121.42523,23.71977],[121.42878,23.72481],[121.43621,23.72593],[121.43256,23.72982],[121.41397,23.73724],[121.41046,23.74074],[121.42086,23.74668],[121.42228,23.74875],[121.42246,23.75428],[121.42373,23.75638],[121.42367,23.75927],[121.42247,23.76195],[121.42668,23.76453],[121.42887,23.76753],[121.43112,23.76895],[121.44252,23.76741],[121.44805,23.76352],[121.45311,23.76111],[121.45232,23.77142],[121.45303,23.77821],[121.45064,23.778],[121.44843,23.77583],[121.44718,23.77848],[121.44465,23.77956],[121.4464,23.7819],[121.44669,23.78412],[121.45359,23.78348],[121.44825,23.79069],[121.44544,23.79235],[121.44461,23.79419],[121.44443,23.80018],[121.44609,23.80919],[121.44791,23.80904],[121.44904,23.81118],[121.45113,23.8125],[121.45647,23.81053],[121.45857,23.80858],[121.46017,23.80817],[121.4909,23.80717],[121.50707,23.80998],[121.51895,23.81554],[121.52499,23.81718],[121.52634,23.81726],[121.5266,23.81617]]]}},{"type":"Feature","properties":{"code":"10015120","name":"花蓮縣萬榮鄉"},"geometry":{"type":"Polygon","coordinates":[[[121.28427,23.92334],[121.29558,23.92561],[121.30168,23.92258],[121.30261,23.92334],[121.30427,23.92185],[121.30777,23.92133],[121.30962,23.91986],[121.31152,23.92076],[121.31452,23.92037],[121.31663,23.91727],[121.32041,23.9176],[121.32086,23.91581],[121.32613,23.91668],[121.32976,23.91577],[121.33128,23.91333],[121.33007,23.90999],[121.33035,23.90672],[121.3341,23.90538],[121.33726,23.90293],[121.33673,23.89839],[121.34058,23.89842],[121.34587,23.89682],[121.34749,23.89233],[121.35414,23.88843],[121.35406,23.8876],[121.35049,23.88707],[121.35014,23.88587],[121.35175,23.88483],[121.35416,23.88468],[121.35682,23.88171],[121.35783,23.8787],[121.36039,23.87722],[121.36014,23.87545],[121.36133,23.87289],[121.35863,23.86876],[121.36022,23.8671],[121.35966,23.86565],[121.36402,23.8618],[121.36468,23.8598],[121.36834,23.85744],[121.37132,23.85334],[121.37338,23.85292],[121.37637,23.84987],[121.37732,23.84516],[121.37973,23.84283],[121.3843,23.84194],[121.38841,23.83896],[121.39335,23.83886],[121.39993,23.83745],[121.40245,23.83882],[121.40607,23.84602],[121.40739,23.84597],[121.41106,23.84311],[121.4152,23.84505],[121.42209,23.84217],[121.4255,23.83652],[121.42855,23.82906],[121.43233,23.82491],[121.44077,23.81837],[121.45113,23.8125],[121.44904,23.81118],[121.44791,23.80904],[121.44604,23.80907],[121.44443,23.80018],[121.44446,23.79527],[121.44544,23.79235],[121.44825,23.79069],[121.45359,23.78354],[121.44669,23.78412],[121.4464,23.7819],[121.44464,23.77971],[121.44749,23.77817],[121.44843,23.77583],[121.45064,23.778],[121.45303,23.77821],[121.45232,23.77142],[121.45309,23.76106],[121.44252,23.76741],[121.43053,23.76888],[121.42668,23.76453],[121.42244,23.76189],[121.42367,23.75927],[121.42372,23.75625],[121.42253,23.75458],[121.42273,23.75002],[121.42121,23.74708],[121.41046,23.74074],[121.41397,23.73724],[121.43256,23.72982],[121.43621,23.72593],[121.42878,23.72481],[121.42523,23.71977],[121.4234,23.71956],[121.41854,23.72152],[121.41188,23.72207],[121.39652,23.71838],[121.39688,23.71645],[121.40288,23.71543],[121.4052,23.71569],[121.40665,23.71728],[121.40821,23.71752],[121.40879,23.71867],[121.41159,23.71584],[121.41118,23.71435],[121.40988,23.71352],[121.41143,23.71137],[121.41744,23.71037],[121.40657,23.69699],[121.40556,23.69413],[121.40568,23.69151],[121.40371,23.689],[121.38999,23.68837],[121.38408,23.68471],[121.38047,23.68762],[121.37941,23.6899],[121.37357,23.68974],[121.37311,23.68593],[121.3708,23.68094],[121.37131,23.67863],[121.37058,23.67614],[121.37459,23.66717],[121.37942,23.6639],[121.38162,23.66103],[121.37863,23.661],[121.37494,23.65981],[121.37266,23.65765],[121.37879,23.65094],[121.37842,23.6482],[121.37985,23.64594],[121.37951,23.64347],[121.37765,23.64219],[121.37271,23.64125],[121.37141,23.63819],[121.36901,23.63529],[121.36869,23.63188],[121.36949,23.62833],[121.36798,23.62202],[121.36836,23.6163],[121.36575,23.61592],[121.36336,23.61],[121.36101,23.60669],[121.3541,23.60442],[121.35284,23.60299],[121.35227,23.59848],[121.35412,23.5949],[121.3545,23.59039],[121.35543,23.58892],[121.35522,23.58657],[121.35804,23.58228],[121.35938,23.58205],[121.35912,23.57833],[121.36012,23.57465],[121.35894,23.57453],[121.35811,23.57637],[121.35141,23.57667],[121.34877,23.57045],[121.35,23.567],[121.35254,23.56582],[121.35459,23.56743],[121.35693,23.56753],[121.3587,23.56877],[121.3602,23.5683],[121.36171,23.57021],[121.36354,23.5704],[121.36717,23.56647],[121.36753,23.56509],[121.37158,23.56242],[121.37471,23.55652],[121.37567,23.55289],[121.37487,23.5522],[121.37633,23.54864],[121.37376,23.54355],[121.37508,23.53802],[121.37403,23.53652],[121.37142,23.53685],[121.37027,23.53409],[121.36944,23.53457],[121.36922,23.53207],[121.37063,23.52895],[121.36933,23.52895],[121.36768,23.52657],[121.36868,23.52552],[121.36959,23.5218],[121.36771,23.52225],[121.3676,23.52017],[121.36579,23.52109],[121.36458,23.52487],[121.36244,23.52645],[121.35295,23.52678],[121.34884,23.52577],[121.34666,23.51865],[121.34721,23.5127],[121.34585,23.51105],[121.34712,23.50239],[121.34577,23.49578],[121.34569,23.49118],[121.34218,23.48873],[121.33719,23.4904],[121.33321,23.48785],[121.33202,23.48157],[121.33111,23.47977],[121.3295,23.47918],[121.32938,23.47715],[121.32781,23.47594],[121.32525,23.46724],[121.32369,23.46653],[121.32213,23.4669],[121.32122,23.46608],[121.31977,23.46626],[121.3202,23.47008],[121.31915,23.47417],[121.32037,23.47489],[121.32134,23.4776],[121.32148,23.48164],[121.3238,23.4844],[121.32369,23.48679],[121.32617,23.48795],[121.32651,23.48959],[121.32618,23.49019],[121.32597,23.4885],[121.3248,23.48761],[121.31836,23.48894],[121.31499,23.48832],[121.31616,23.49239],[121.31567,23.49527],[121.31844,23.49866],[121.31866,23.50012],[121.32238,23.50108],[121.32336,23.50206],[121.32681,23.50269],[121.32744,23.4982],[121.32881,23.4982],[121.32756,23.50277],[121.32584,23.50525],[121.32603,23.50917],[121.32419,23.51052],[121.3219,23.51644],[121.32386,23.5218],[121.32352,23.52632],[121.32238,23.52806],[121.32325,23.53112],[121.32208,23.53392],[121.32367,23.53733],[121.32134,23.53895],[121.32048,23.54121],[121.32073,23.54474],[121.32299,23.54969],[121.32236,23.56144],[121.31722,23.56259],[121.3102,23.56062],[121.30792,23.55908],[121.30701,23.5574],[121.29993,23.55378],[121.29774,23.55059],[121.29404,23.55013],[121.28951,23.54796],[121.28481,23.54809],[121.28402,23.54329],[121.28178,23.54314],[121.27755,23.5406],[121.27049,23.54218],[121.26481,23.53909],[121.26106,23.53955],[121.2595,23.54055],[121.25811,23.54407],[121.25672,23.54483],[121.25454,23.54458],[121.24994,23.55006],[121.25039,23.55258],[121.25171,23.55422],[121.25156,23.55595],[121.25388,23.55789],[121.25195,23.56159],[121.25229,23.5645],[121.25026,23.57013],[121.25171,23.57272],[121.25213,23.57646],[121.24715,23.58007],[121.24745,23.58701],[121.24427,23.59177],[121.24488,23.59539],[121.24363,23.5982],[121.24525,23.60142],[121.24468,23.6043],[121.24568,23.60833],[121.24508,23.61054],[121.24597,23.61502],[121.24213,23.61529],[121.23915,23.61459],[121.23805,23.61058],[121.23502,23.60982],[121.23346,23.60755],[121.2311,23.60653],[121.22916,23.60668],[121.22483,23.60294],[121.22221,23.60168],[121.22079,23.59947],[121.21774,23.60078],[121.21335,23.60031],[121.21451,23.60491],[121.21594,23.60727],[121.21732,23.6147],[121.21995,23.61693],[121.22355,23.62298],[121.22473,23.62682],[121.22412,23.63885],[121.22771,23.64518],[121.23025,23.64799],[121.23193,23.65788],[121.23584,23.66252],[121.23596,23.67077],[121.2324,23.67704],[121.23428,23.68096],[121.23943,23.68697],[121.23937,23.69469],[121.24121,23.69846],[121.23932,23.70019],[121.24091,23.70477],[121.24121,23.70873],[121.23927,23.71096],[121.23885,23.71351],[121.23955,23.7161],[121.23779,23.72007],[121.23941,23.72435],[121.23577,23.72464],[121.23357,23.72783],[121.23311,23.73013],[121.23227,23.72953],[121.22967,23.73008],[121.2298,23.73271],[121.22858,23.73508],[121.22885,23.74452],[121.23008,23.74718],[121.23332,23.7482],[121.23259,23.75048],[121.22931,23.75227],[121.22523,23.75178],[121.22148,23.75272],[121.21864,23.75638],[121.2134,23.75747],[121.21097,23.76111],[121.20648,23.76264],[121.20867,23.76585],[121.20675,23.76724],[121.20465,23.7724],[121.20601,23.77265],[121.20697,23.7751],[121.20868,23.77593],[121.21219,23.77569],[121.21297,23.77691],[121.21828,23.77972],[121.21955,23.7818],[121.22365,23.7824],[121.22629,23.78367],[121.2304,23.78797],[121.23045,23.79014],[121.22727,23.79109],[121.22662,23.79244],[121.22658,23.79609],[121.22551,23.79824],[121.22617,23.80293],[121.22669,23.80474],[121.22791,23.80533],[121.22754,23.80854],[121.22926,23.80883],[121.23033,23.81016],[121.23213,23.81036],[121.23446,23.812],[121.23477,23.81794],[121.23913,23.82186],[121.23715,23.82351],[121.23668,23.82521],[121.23811,23.82963],[121.23773,23.83249],[121.23913,23.83635],[121.23942,23.84042],[121.24348,23.84498],[121.24452,23.84891],[121.24892,23.85213],[121.24868,23.85366],[121.25022,23.85678],[121.24997,23.85982],[121.25057,23.86102],[121.25214,23.8613],[121.25292,23.86296],[121.25304,23.86789],[121.25694,23.86946],[121.25809,23.87249],[121.26519,23.87283],[121.26304,23.87901],[121.26318,23.88077],[121.26551,23.88314],[121.26845,23.88375],[121.26741,23.889],[121.26551,23.89124],[121.26605,23.89405],[121.2652,23.89688],[121.26654,23.89841],[121.26244,23.89908],[121.2627,23.90014],[121.26106,23.9026],[121.26627,23.90727],[121.27043,23.9065],[121.27445,23.90732],[121.27525,23.90813],[121.27611,23.91012],[121.27546,23.91491],[121.2763,23.91622],[121.27507,23.91858],[121.27651,23.92316],[121.27456,23.92652],[121.27935,23.92576],[121.28427,23.92334]]]}}]}