{"type":"FeatureCollection","source":"https://data.gov.tw/dataset/7441 鄉鎮市區界線(TWD97經緯度)","agency":"內政部國土測繪中心","license":"政府資料開放授權條款第1版","generatedBy":"scripts/build-geo.py","features":[{"type":"Feature","properties":{"code":"10013210","name":"屏東縣佳冬鄉"},"geometry":{"type":"Polygon","coordinates":[[[120.54845,22.46067],[120.56212,22.46166],[120.56683,22.46029],[120.57319,22.46043],[120.57659,22.45775],[120.5738,22.453],[120.5729,22.44827],[120.57164,22.44854],[120.57123,22.44766],[120.57004,22.44323],[120.57074,22.44081],[120.56906,22.43831],[120.56908,22.43354],[120.56691,22.42945],[120.5762,22.41455],[120.56738,22.41094],[120.56333,22.41022],[120.56478,22.40916],[120.56581,22.40496],[120.56575,22.40173],[120.56371,22.39885],[120.56202,22.39932],[120.56154,22.4006],[120.55677,22.40181],[120.55641,22.40109],[120.55313,22.4007],[120.55072,22.39624],[120.54586,22.39817],[120.54598,22.3974],[120.54016,22.3972],[120.51752,22.40898],[120.51811,22.41101],[120.51755,22.41149],[120.51031,22.41188],[120.51347,22.41906],[120.52149,22.42537],[120.52505,22.43006],[120.52595,22.44097],[120.52717,22.44351],[120.52427,22.44491],[120.52518,22.44821],[120.52738,22.44964],[120.53303,22.44963],[120.53525,22.45248],[120.53956,22.46156],[120.54089,22.4628],[120.54462,22.46311],[120.54604,22.46146],[120.54845,22.46067]]]}},{"type":"Feature","properties":{"code":"10013140","name":"屏東縣竹田鄉"},"geometry":{"type":"Polygon","coordinates":[[[120.53891,22.63734],[120.53805,22.63528],[120.53827,22.62797],[120.5364,22.62188],[120.53644,22.61831],[120.53777,22.61791],[120.53641,22.6153],[120.53712,22.61315],[120.53609,22.61256],[120.53557,22.60432],[120.53653,22.60221],[120.54631,22.60482],[120.54646,22.60556],[120.54788,22.60517],[120.55265,22.60647],[120.55362,22.60574],[120.55282,22.60412],[120.55311,22.60085],[120.55471,22.59832],[120.55356,22.59432],[120.55652,22.59089],[120.55761,22.58832],[120.55591,22.58413],[120.55686,22.58067],[120.55416,22.57372],[120.54625,22.57025],[120.53915,22.56376],[120.53325,22.56397],[120.52969,22.56576],[120.52643,22.56207],[120.52022,22.55882],[120.51872,22.55753],[120.52013,22.55432],[120.51882,22.55246],[120.51616,22.55304],[120.51583,22.5573],[120.51206,22.55783],[120.50914,22.55466],[120.5102,22.5501],[120.50836,22.54769],[120.50878,22.5462],[120.5082,22.54497],[120.50419,22.54273],[120.50198,22.54537],[120.50288,22.54668],[120.50595,22.54785],[120.50565,22.55136],[120.50411,22.554],[120.50469,22.55552],[120.5039,22.55593],[120.50401,22.55818],[120.49937,22.55897],[120.49936,22.55994],[120.49686,22.56119],[120.49766,22.56267],[120.49458,22.56423],[120.49588,22.5654],[120.49458,22.56922],[120.49663,22.57138],[120.49844,22.57138],[120.49966,22.57277],[120.5007,22.57201],[120.50599,22.57384],[120.50745,22.57746],[120.51052,22.58122],[120.51275,22.58198],[120.51292,22.58268],[120.51503,22.58286],[120.51729,22.58781],[120.52231,22.59344],[120.52314,22.5955],[120.5227,22.59713],[120.51869,22.60077],[120.51762,22.60372],[120.51203,22.60703],[120.51284,22.60784],[120.50681,22.61614],[120.50688,22.61817],[120.50857,22.62115],[120.51557,22.62295],[120.5199,22.62618],[120.52598,22.6281],[120.52836,22.63236],[120.52824,22.63417],[120.53005,22.63527],[120.53006,22.63707],[120.53119,22.63739],[120.53481,22.64181],[120.53891,22.63734]]]}},{"type":"Feature","properties":{"code":"10013050","name":"屏東縣萬丹鄉"},"geometry":{"type":"Polygon","coordinates":[[[120.48031,22.62873],[120.48112,22.62322],[120.48068,22.62074],[120.48292,22.62031],[120.48421,22.62015],[120.48855,22.62234],[120.49248,22.62317],[120.49304,22.61933],[120.50355,22.61917],[120.50543,22.62121],[120.50628,22.62489],[120.50743,22.62426],[120.50829,22.62301],[120.50681,22.61614],[120.51284,22.60784],[120.51203,22.60703],[120.51762,22.60372],[120.51869,22.60077],[120.5227,22.59713],[120.52314,22.5955],[120.52231,22.59344],[120.51729,22.58781],[120.51503,22.58286],[120.51292,22.58268],[120.51275,22.58198],[120.51052,22.58122],[120.50745,22.57746],[120.50599,22.57384],[120.5007,22.57201],[120.49966,22.57277],[120.49844,22.57138],[120.49663,22.57138],[120.49458,22.56922],[120.49588,22.5654],[120.49458,22.56423],[120.49766,22.56267],[120.49686,22.56119],[120.49936,22.55994],[120.49937,22.55897],[120.50401,22.55818],[120.5039,22.55593],[120.50469,22.55552],[120.50411,22.554],[120.50565,22.55136],[120.50595,22.54785],[120.50288,22.54668],[120.502,22.54556],[120.50432,22.54249],[120.50415,22.54132],[120.50064,22.53873],[120.49694,22.53942],[120.4952,22.53544],[120.49243,22.5331],[120.49179,22.52937],[120.48841,22.52767],[120.48635,22.52493],[120.48515,22.52668],[120.48304,22.52724],[120.47823,22.531],[120.47854,22.53486],[120.47592,22.53472],[120.47548,22.53138],[120.47434,22.53107],[120.47432,22.53388],[120.47303,22.53532],[120.473,22.53602],[120.4795,22.53661],[120.47993,22.53976],[120.47895,22.54019],[120.48119,22.55588],[120.47766,22.55631],[120.47815,22.56208],[120.47663,22.56029],[120.46983,22.55802],[120.47117,22.56035],[120.47048,22.5604],[120.46113,22.55898],[120.46132,22.55974],[120.45832,22.5596],[120.45349,22.55797],[120.44899,22.55754],[120.44073,22.55762],[120.44253,22.56158],[120.44435,22.56979],[120.447,22.58618],[120.44663,22.59448],[120.44484,22.60074],[120.44273,22.60335],[120.43799,22.60671],[120.43665,22.60888],[120.43445,22.61391],[120.43351,22.61979],[120.43365,22.62437],[120.43528,22.62882],[120.43767,22.6293],[120.43824,22.62861],[120.44059,22.62895],[120.4412,22.62766],[120.44337,22.62878],[120.45432,22.62897],[120.45866,22.63013],[120.45985,22.62903],[120.46503,22.62737],[120.47143,22.62624],[120.47258,22.62881],[120.47408,22.62873],[120.47445,22.6296],[120.48029,22.63029],[120.48031,22.62873]]]}},{"type":"Feature","properties":{"code":"10013010","name":"屏東縣屏東市"},"geometry":{"type":"Polygon","coordinates":[[[120.50166,22.71192],[120.50228,22.71151],[120.50476,22.71379],[120.51319,22.71294],[120.51565,22.71023],[120.52517,22.70528],[120.52852,22.70032],[120.52808,22.6987],[120.52572,22.69829],[120.52287,22.69323],[120.51936,22.69203],[120.51711,22.69303],[120.51499,22.69238],[120.5118,22.69104],[120.51079,22.68879],[120.51131,22.68477],[120.51028,22.67833],[120.51143,22.67299],[120.5081,22.66804],[120.50937,22.66778],[120.50907,22.66667],[120.5108,22.66443],[120.51199,22.66417],[120.51182,22.6632],[120.51349,22.66272],[120.51605,22.66382],[120.51821,22.66349],[120.52027,22.66262],[120.52257,22.65962],[120.52128,22.65861],[120.51981,22.65921],[120.51669,22.65811],[120.51694,22.65551],[120.51587,22.65376],[120.51736,22.64866],[120.51466,22.64791],[120.5122,22.6456],[120.51094,22.64206],[120.51105,22.63998],[120.51022,22.63951],[120.50863,22.64026],[120.50942,22.63544],[120.50653,22.63213],[120.50673,22.63139],[120.50843,22.63114],[120.50895,22.62976],[120.50685,22.62732],[120.50531,22.62104],[120.50384,22.61931],[120.5013,22.61885],[120.49304,22.61933],[120.49248,22.62317],[120.48855,22.62234],[120.48421,22.62015],[120.4807,22.6207],[120.48112,22.62322],[120.48029,22.63029],[120.47258,22.62881],[120.47143,22.62624],[120.46503,22.62737],[120.45985,22.62903],[120.45866,22.63013],[120.45432,22.62897],[120.44337,22.62878],[120.4412,22.62766],[120.44059,22.62895],[120.43528,22.62882],[120.43591,22.63136],[120.43532,22.63989],[120.4362,22.64815],[120.43606,22.66134],[120.43663,22.66502],[120.44,22.67304],[120.43959,22.67833],[120.44263,22.68456],[120.44697,22.68769],[120.44806,22.68943],[120.4497,22.68994],[120.45497,22.68943],[120.4567,22.69025],[120.46175,22.68885],[120.46387,22.68973],[120.46412,22.69211],[120.46819,22.69502],[120.46799,22.69611],[120.47147,22.70288],[120.47251,22.70223],[120.47344,22.70323],[120.47661,22.70313],[120.4794,22.70691],[120.48305,22.7065],[120.48455,22.7056],[120.48587,22.70706],[120.49055,22.70754],[120.49707,22.71264],[120.499,22.71186],[120.50043,22.71386],[120.50166,22.71192]]]}},{"type":"Feature","properties":{"code":"10013020","name":"屏東縣潮州鎮"},"geometry":{"type":"Polygon","coordinates":[[[120.55152,22.56467],[120.55497,22.56403],[120.55521,22.56108],[120.55699,22.55956],[120.56214,22.55812],[120.56458,22.55493],[120.56938,22.55379],[120.57198,22.5537],[120.57232,22.55861],[120.57677,22.55813],[120.57652,22.5593],[120.58131,22.56],[120.58304,22.55981],[120.58304,22.55873],[120.58336,22.56018],[120.58551,22.56044],[120.58865,22.5536],[120.58718,22.55032],[120.58942,22.54984],[120.5899,22.5506],[120.59345,22.54909],[120.59199,22.54595],[120.60537,22.54026],[120.59953,22.52551],[120.60564,22.52491],[120.60378,22.52109],[120.60137,22.52102],[120.58924,22.5174],[120.58824,22.51886],[120.58155,22.51673],[120.58224,22.51543],[120.55631,22.50896],[120.54761,22.50932],[120.5455,22.51091],[120.54022,22.5106],[120.53279,22.50752],[120.52989,22.50341],[120.52933,22.51131],[120.52627,22.51093],[120.52549,22.51441],[120.52408,22.5144],[120.52378,22.51561],[120.5234,22.51848],[120.52509,22.5187],[120.52475,22.52162],[120.52605,22.52182],[120.52531,22.52578],[120.52373,22.52609],[120.52333,22.52739],[120.5236,22.53335],[120.51935,22.53829],[120.52009,22.54126],[120.52336,22.54268],[120.52326,22.54684],[120.52016,22.54751],[120.51922,22.54634],[120.51717,22.5457],[120.50863,22.54668],[120.50836,22.54769],[120.5102,22.5501],[120.50914,22.55466],[120.51206,22.55783],[120.5146,22.5578],[120.51595,22.55716],[120.51616,22.55304],[120.51882,22.55246],[120.52013,22.55432],[120.51872,22.55753],[120.52643,22.56207],[120.52969,22.56576],[120.53325,22.56397],[120.5379,22.56342],[120.53974,22.56438],[120.54031,22.56361],[120.5445,22.56489],[120.54681,22.56408],[120.54963,22.56598],[120.55152,22.56467]]]}},{"type":"Feature","properties":{"code":"10013060","name":"屏東縣長治鄉"},"geometry":{"type":"Polygon","coordinates":[[[120.54775,22.72144],[120.54904,22.72185],[120.54994,22.72078],[120.5544,22.72023],[120.55481,22.71881],[120.55781,22.71844],[120.55806,22.72184],[120.56952,22.71944],[120.57644,22.72195],[120.5794,22.72066],[120.5872,22.72048],[120.58642,22.7167],[120.60461,22.71456],[120.61095,22.71863],[120.61207,22.7167],[120.60932,22.71629],[120.60813,22.71493],[120.61044,22.71302],[120.60899,22.71066],[120.61052,22.71022],[120.61252,22.71094],[120.61577,22.70653],[120.60572,22.7011],[120.58793,22.68629],[120.58359,22.68488],[120.58056,22.68208],[120.57887,22.67854],[120.5612,22.66367],[120.55884,22.66605],[120.55624,22.66386],[120.55608,22.66646],[120.55472,22.66623],[120.55315,22.66715],[120.55135,22.66654],[120.55024,22.66759],[120.54894,22.6665],[120.54722,22.66822],[120.54606,22.66696],[120.54548,22.66796],[120.54663,22.66877],[120.54511,22.67045],[120.54298,22.66929],[120.54303,22.67005],[120.54155,22.67086],[120.53739,22.66884],[120.53325,22.66926],[120.53158,22.66673],[120.53028,22.66761],[120.52865,22.66705],[120.52722,22.66762],[120.5239,22.66401],[120.52392,22.66182],[120.52485,22.66093],[120.52372,22.65946],[120.52257,22.65962],[120.52027,22.66262],[120.51821,22.66349],[120.51605,22.66382],[120.51349,22.66272],[120.51182,22.6632],[120.51199,22.66417],[120.5108,22.66443],[120.50907,22.66667],[120.50937,22.66778],[120.5081,22.66804],[120.51143,22.67299],[120.51028,22.67833],[120.51131,22.68477],[120.51082,22.68887],[120.5118,22.69104],[120.51499,22.69238],[120.51711,22.69303],[120.51936,22.69203],[120.52287,22.69323],[120.52572,22.69829],[120.52842,22.69912],[120.52849,22.70041],[120.52575,22.70479],[120.52153,22.70737],[120.52382,22.71839],[120.54049,22.72106],[120.54039,22.7226],[120.54775,22.72144]]]}},{"type":"Feature","properties":{"code":"10013070","name":"屏東縣麟洛鄉"},"geometry":{"type":"Polygon","coordinates":[[[120.54167,22.67082],[120.54307,22.66928],[120.54511,22.67045],[120.54663,22.66877],[120.54548,22.66796],[120.54606,22.66696],[120.54722,22.66822],[120.54894,22.6665],[120.55024,22.66759],[120.55135,22.66654],[120.55315,22.66715],[120.55472,22.66623],[120.55608,22.66646],[120.55624,22.66386],[120.55884,22.66605],[120.5612,22.66367],[120.54616,22.65069],[120.54434,22.64682],[120.53647,22.64001],[120.53488,22.64179],[120.53381,22.64105],[120.53331,22.63959],[120.53006,22.63707],[120.52991,22.63505],[120.52824,22.63417],[120.52836,22.63236],[120.52598,22.6281],[120.5199,22.62618],[120.51557,22.62295],[120.50795,22.62074],[120.50822,22.62337],[120.50628,22.62489],[120.50685,22.62732],[120.50895,22.63004],[120.50836,22.63119],[120.50673,22.63139],[120.50655,22.63229],[120.50942,22.63544],[120.50868,22.64034],[120.51022,22.63951],[120.51105,22.63998],[120.51094,22.64206],[120.5122,22.6456],[120.51466,22.64791],[120.51736,22.64866],[120.51587,22.65376],[120.51694,22.65551],[120.51669,22.65811],[120.51863,22.65901],[120.52128,22.65861],[120.52244,22.65958],[120.52372,22.65946],[120.52488,22.66099],[120.52374,22.66265],[120.52426,22.66485],[120.52722,22.66762],[120.52865,22.66705],[120.53028,22.66761],[120.53158,22.66673],[120.53325,22.66926],[120.53739,22.66884],[120.54167,22.67082]]]}},{"type":"Feature","properties":{"code":"10013080","name":"屏東縣九如鄉"},"geometry":{"type":"Polygon","coordinates":[[[120.45475,22.77178],[120.45867,22.77135],[120.46354,22.76952],[120.46434,22.76815],[120.46423,22.7628],[120.46697,22.75699],[120.46883,22.75569],[120.47133,22.7557],[120.47484,22.75828],[120.47954,22.75862],[120.47957,22.75936],[120.48706,22.75848],[120.48753,22.76219],[120.49265,22.76124],[120.49375,22.7671],[120.49763,22.76672],[120.49829,22.76491],[120.50561,22.76549],[120.50873,22.76676],[120.50879,22.76548],[120.51184,22.76519],[120.51226,22.76756],[120.51472,22.76775],[120.51314,22.76211],[120.51403,22.76045],[120.51282,22.75906],[120.51191,22.75219],[120.51044,22.74934],[120.51211,22.74592],[120.51167,22.7442],[120.51244,22.74179],[120.51158,22.73676],[120.50998,22.73291],[120.50846,22.73339],[120.50484,22.72988],[120.50564,22.73005],[120.50573,22.72902],[120.50691,22.72818],[120.51364,22.72775],[120.51568,22.72878],[120.51752,22.73242],[120.52248,22.73371],[120.52274,22.73168],[120.53311,22.7257],[120.53879,22.7252],[120.53938,22.72321],[120.54034,22.72319],[120.54049,22.72106],[120.52382,22.71839],[120.52153,22.70737],[120.51481,22.71077],[120.51281,22.71308],[120.50476,22.71379],[120.50205,22.71143],[120.50043,22.71386],[120.499,22.71186],[120.49728,22.71266],[120.49607,22.71217],[120.49424,22.70997],[120.49055,22.70754],[120.48587,22.70706],[120.48428,22.70556],[120.48305,22.7065],[120.47949,22.70694],[120.47661,22.70313],[120.47344,22.70323],[120.47251,22.70223],[120.47147,22.70288],[120.46799,22.69611],[120.46819,22.69502],[120.46412,22.69211],[120.46367,22.68962],[120.46175,22.68885],[120.4567,22.69025],[120.45497,22.68943],[120.4497,22.68994],[120.44806,22.68943],[120.45276,22.70405],[120.45596,22.72097],[120.456,22.73057],[120.4537,22.75623],[120.45442,22.76418],[120.45378,22.76933],[120.45475,22.77178]]]}},{"type":"Feature","properties":{"code":"10013090","name":"屏東縣里港鄉"},"geometry":{"type":"Polygon","coordinates":[[[120.56237,22.82833],[120.56107,22.8262],[120.56299,22.82451],[120.56223,22.82091],[120.55755,22.81636],[120.55518,22.81109],[120.55545,22.80696],[120.54492,22.79797],[120.55156,22.79146],[120.55004,22.78873],[120.55296,22.78535],[120.55231,22.78145],[120.55106,22.78037],[120.55082,22.77891],[120.5475,22.77616],[120.54385,22.76731],[120.54048,22.76875],[120.53986,22.76758],[120.53104,22.76944],[120.53054,22.7688],[120.5221,22.76965],[120.51912,22.76858],[120.51742,22.76682],[120.51403,22.76045],[120.51314,22.76211],[120.51472,22.76775],[120.51226,22.76756],[120.51184,22.76519],[120.50879,22.76548],[120.50873,22.76676],[120.50561,22.76549],[120.49829,22.76491],[120.49763,22.76672],[120.49375,22.7671],[120.49265,22.76124],[120.48753,22.76219],[120.48706,22.75848],[120.47957,22.75936],[120.47954,22.75862],[120.47484,22.75828],[120.47133,22.7557],[120.46883,22.75569],[120.46697,22.75699],[120.46423,22.7628],[120.46434,22.76815],[120.46354,22.76952],[120.45867,22.77135],[120.45431,22.77178],[120.45564,22.77442],[120.45596,22.78004],[120.45743,22.78539],[120.46403,22.80029],[120.4655,22.81275],[120.46735,22.81548],[120.46753,22.82235],[120.46919,22.82502],[120.46876,22.83067],[120.47404,22.83679],[120.47624,22.83819],[120.47881,22.83677],[120.48145,22.83759],[120.48213,22.83605],[120.48421,22.83555],[120.4908,22.83527],[120.49277,22.83569],[120.49146,22.83696],[120.49274,22.83729],[120.49408,22.83667],[120.4963,22.83265],[120.49769,22.83171],[120.50506,22.83152],[120.50999,22.82851],[120.51538,22.83152],[120.51994,22.83144],[120.5201,22.83236],[120.52293,22.83294],[120.52465,22.83195],[120.53057,22.83298],[120.52977,22.8317],[120.531,22.83083],[120.534,22.83057],[120.53643,22.82927],[120.54406,22.82979],[120.54803,22.82843],[120.55226,22.8283],[120.55419,22.82882],[120.55802,22.8324],[120.56279,22.83466],[120.56667,22.83834],[120.56492,22.83138],[120.56237,22.82833]]]}},{"type":"Feature","properties":{"code":"10013100","name":"屏東縣鹽埔鄉"},"geometry":{"type":"Polygon","coordinates":[[[120.57805,22.77309],[120.58001,22.77159],[120.58269,22.77126],[120.58426,22.76891],[120.58764,22.76812],[120.59551,22.76417],[120.601,22.76679],[120.60446,22.75852],[120.61307,22.7544],[120.61611,22.74822],[120.61686,22.73848],[120.61903,22.73631],[120.62435,22.73347],[120.62784,22.72902],[120.63079,22.72322],[120.6346,22.71983],[120.6332,22.71595],[120.61577,22.70653],[120.61252,22.71094],[120.61052,22.71022],[120.60899,22.71066],[120.61044,22.71302],[120.60813,22.71493],[120.60932,22.71629],[120.61207,22.7167],[120.61095,22.71863],[120.60461,22.71456],[120.58642,22.7167],[120.5872,22.72048],[120.5794,22.72066],[120.57644,22.72195],[120.56952,22.71944],[120.55806,22.72184],[120.55756,22.71846],[120.55481,22.71881],[120.5544,22.72023],[120.54994,22.72078],[120.54904,22.72185],[120.54792,22.72142],[120.54039,22.7226],[120.53926,22.7234],[120.53873,22.72524],[120.53311,22.7257],[120.52274,22.73168],[120.52248,22.73371],[120.51752,22.73242],[120.51568,22.72878],[120.51364,22.72775],[120.50691,22.72818],[120.50573,22.72902],[120.50564,22.73005],[120.50484,22.72988],[120.50846,22.73339],[120.50994,22.73287],[120.51102,22.73509],[120.51244,22.74179],[120.51167,22.7442],[120.5121,22.74597],[120.51046,22.74949],[120.51191,22.75219],[120.51288,22.7592],[120.51912,22.76858],[120.52423,22.76989],[120.53054,22.7688],[120.53104,22.76944],[120.53986,22.76758],[120.54048,22.76875],[120.54385,22.76731],[120.54544,22.77067],[120.54776,22.76964],[120.5538,22.76981],[120.55376,22.77114],[120.55639,22.77129],[120.56047,22.77303],[120.57176,22.77234],[120.57466,22.77152],[120.57805,22.77309]]]}},{"type":"Feature","properties":{"code":"10013110","name":"屏東縣高樹鄉"},"geometry":{"type":"Polygon","coordinates":[[[120.64762,22.88017],[120.64769,22.87957],[120.64576,22.87997],[120.64453,22.87803],[120.64502,22.87322],[120.64781,22.87322],[120.64317,22.8645],[120.64296,22.86249],[120.64098,22.85996],[120.64002,22.85709],[120.64056,22.85473],[120.64007,22.85208],[120.63898,22.85231],[120.6349,22.84882],[120.62786,22.84663],[120.63023,22.84348],[120.63172,22.84335],[120.63254,22.84226],[120.63125,22.84114],[120.63093,22.83872],[120.62918,22.83617],[120.62995,22.8304],[120.63204,22.82935],[120.6304,22.82847],[120.62986,22.82545],[120.62804,22.82361],[120.62794,22.821],[120.62705,22.81965],[120.6294,22.81926],[120.63066,22.81764],[120.63556,22.81517],[120.6325,22.81275],[120.62913,22.8116],[120.63034,22.79335],[120.62919,22.79207],[120.63006,22.79124],[120.62933,22.7856],[120.63088,22.7822],[120.62973,22.78163],[120.63042,22.7805],[120.62875,22.77641],[120.63076,22.77563],[120.63307,22.77638],[120.63784,22.77185],[120.6375,22.77081],[120.64075,22.77146],[120.64344,22.77093],[120.64592,22.7681],[120.64537,22.7675],[120.64335,22.76836],[120.64223,22.76778],[120.64144,22.76614],[120.63516,22.76164],[120.63134,22.75138],[120.63228,22.74905],[120.63198,22.74708],[120.63429,22.74454],[120.63466,22.74044],[120.63602,22.73826],[120.63708,22.73813],[120.63814,22.73609],[120.63938,22.73551],[120.63874,22.7262],[120.63786,22.72407],[120.6365,22.72321],[120.63659,22.72168],[120.6346,22.71983],[120.63079,22.72322],[120.62784,22.72902],[120.62435,22.73347],[120.61903,22.73631],[120.6169,22.73842],[120.61612,22.74816],[120.61461,22.75233],[120.61258,22.75488],[120.60446,22.75852],[120.601,22.76679],[120.59551,22.76417],[120.58764,22.76812],[120.58426,22.76891],[120.58269,22.77126],[120.58001,22.77159],[120.57833,22.77309],[120.57466,22.77152],[120.57176,22.77234],[120.56047,22.77303],[120.55639,22.77129],[120.55376,22.77114],[120.5538,22.76981],[120.54776,22.76964],[120.54538,22.7707],[120.5475,22.77616],[120.55082,22.77891],[120.55106,22.78037],[120.55231,22.78145],[120.55296,22.78535],[120.55004,22.78873],[120.55156,22.79146],[120.54492,22.79797],[120.55545,22.80696],[120.55518,22.81109],[120.55755,22.81636],[120.56199,22.82042],[120.56265,22.82229],[120.56296,22.82464],[120.56119,22.82567],[120.56118,22.82687],[120.56483,22.83118],[120.56667,22.83834],[120.56959,22.84316],[120.57481,22.8482],[120.59518,22.8636],[120.60234,22.87069],[120.60582,22.87321],[120.61293,22.87607],[120.61635,22.87686],[120.62117,22.87569],[120.62785,22.8791],[120.63437,22.88075],[120.64483,22.88514],[120.6465,22.88379],[120.64762,22.88017]]]}},{"type":"Feature","properties":{"code":"10013120","name":"屏東縣萬巒鄉"},"geometry":{"type":"Polygon","coordinates":[[[120.62923,22.65138],[120.6293,22.64719],[120.62847,22.64734],[120.62779,22.64499],[120.62926,22.6445],[120.62787,22.64287],[120.62833,22.64224],[120.62673,22.64198],[120.62582,22.63928],[120.6262,22.62908],[120.63135,22.62465],[120.63312,22.6244],[120.63368,22.62605],[120.63941,22.62602],[120.63655,22.62335],[120.63542,22.62042],[120.63084,22.61603],[120.63198,22.61368],[120.63184,22.61164],[120.63029,22.61289],[120.62886,22.61125],[120.62851,22.60854],[120.63233,22.6082],[120.63174,22.60105],[120.63086,22.59946],[120.62873,22.59815],[120.62918,22.59753],[120.62619,22.59833],[120.6239,22.59614],[120.62493,22.59147],[120.62373,22.58956],[120.62376,22.58715],[120.62422,22.58551],[120.62571,22.58512],[120.62465,22.58775],[120.62491,22.58859],[120.62617,22.58861],[120.62595,22.59151],[120.62711,22.59138],[120.62663,22.59397],[120.62871,22.59384],[120.62822,22.59117],[120.63159,22.5904],[120.62941,22.58777],[120.63123,22.58862],[120.63213,22.5851],[120.63215,22.58213],[120.63126,22.58125],[120.63094,22.57898],[120.63185,22.57781],[120.63075,22.57707],[120.63643,22.57606],[120.63659,22.57547],[120.63185,22.57497],[120.63247,22.57171],[120.63183,22.57123],[120.63074,22.57295],[120.6301,22.57076],[120.629,22.57095],[120.62967,22.57389],[120.62791,22.57385],[120.62779,22.57456],[120.62878,22.57478],[120.62734,22.57581],[120.62609,22.57444],[120.62486,22.57535],[120.62467,22.57291],[120.62589,22.5735],[120.62656,22.5726],[120.62601,22.57144],[120.62687,22.57079],[120.62544,22.5683],[120.62668,22.5682],[120.6267,22.56657],[120.62821,22.56655],[120.62707,22.56493],[120.62815,22.56426],[120.62732,22.56263],[120.62785,22.56],[120.63051,22.56176],[120.62972,22.55998],[120.63082,22.56096],[120.63127,22.56022],[120.62982,22.55945],[120.6314,22.55896],[120.62973,22.55863],[120.63149,22.55711],[120.62942,22.55753],[120.62835,22.55631],[120.63061,22.55588],[120.63,22.55544],[120.6308,22.55477],[120.63023,22.5538],[120.62773,22.55441],[120.62626,22.55645],[120.62614,22.55531],[120.62545,22.55539],[120.62615,22.55457],[120.62487,22.5544],[120.62558,22.55077],[120.62475,22.54943],[120.62435,22.5454],[120.62582,22.54464],[120.62677,22.5427],[120.62449,22.54039],[120.62452,22.5383],[120.62238,22.53696],[120.62361,22.53631],[120.62293,22.53447],[120.62426,22.53251],[120.62375,22.53207],[120.62422,22.52946],[120.62599,22.52988],[120.62561,22.52759],[120.62683,22.52745],[120.62611,22.52655],[120.63321,22.5259],[120.63356,22.52475],[120.63146,22.52448],[120.6248,22.52648],[120.62125,22.52332],[120.59953,22.52551],[120.60537,22.54026],[120.59199,22.54595],[120.59345,22.54909],[120.5899,22.5506],[120.58942,22.54984],[120.58718,22.55032],[120.58865,22.5536],[120.58716,22.55596],[120.58687,22.55865],[120.58547,22.56047],[120.58329,22.56013],[120.58304,22.55873],[120.58304,22.55981],[120.58131,22.56],[120.57652,22.5593],[120.57677,22.55813],[120.57232,22.55861],[120.57198,22.5537],[120.57068,22.55365],[120.56458,22.55493],[120.56214,22.55812],[120.55699,22.55956],[120.55521,22.56108],[120.55497,22.56403],[120.5505,22.56487],[120.54981,22.56594],[120.54756,22.56514],[120.54681,22.56408],[120.5445,22.56489],[120.54022,22.56361],[120.53974,22.56438],[120.54625,22.57025],[120.55416,22.57372],[120.55684,22.58091],[120.56024,22.57904],[120.56508,22.57949],[120.5665,22.58054],[120.56704,22.58211],[120.56398,22.58567],[120.56376,22.58759],[120.565,22.58834],[120.57106,22.58773],[120.5726,22.5898],[120.57299,22.59348],[120.57448,22.59647],[120.5765,22.59484],[120.57851,22.5957],[120.57847,22.59703],[120.57648,22.59826],[120.57768,22.59956],[120.57757,22.60065],[120.5762,22.60136],[120.58032,22.6075],[120.58304,22.60831],[120.58304,22.60779],[120.58357,22.60891],[120.5847,22.60861],[120.58477,22.61152],[120.58711,22.61187],[120.5881,22.61447],[120.58635,22.61553],[120.59384,22.62044],[120.59539,22.62483],[120.59695,22.62638],[120.59865,22.62649],[120.59919,22.62581],[120.60056,22.62755],[120.60284,22.62833],[120.6034,22.62963],[120.60604,22.63045],[120.61071,22.635],[120.61553,22.63576],[120.61712,22.63685],[120.6193,22.64021],[120.61916,22.64172],[120.62104,22.64334],[120.62235,22.65061],[120.62468,22.65169],[120.62826,22.65143],[120.62923,22.65253],[120.62983,22.6523],[120.62923,22.65138]]]}},{"type":"Feature","properties":{"code":"10013130","name":"屏東縣內埔鄉"},"geometry":{"type":"Polygon","coordinates":[[[120.63616,22.71105],[120.64357,22.71196],[120.64945,22.71067],[120.65054,22.7082],[120.65122,22.70285],[120.64683,22.69678],[120.64256,22.69536],[120.64013,22.69201],[120.63739,22.69047],[120.63444,22.69037],[120.63459,22.68951],[120.63538,22.68993],[120.63753,22.68895],[120.63833,22.68725],[120.63759,22.68566],[120.63442,22.68344],[120.63448,22.68226],[120.63606,22.68096],[120.63485,22.67924],[120.63581,22.67919],[120.63509,22.67833],[120.63585,22.67673],[120.63279,22.67126],[120.63247,22.6693],[120.63394,22.66767],[120.63226,22.66741],[120.63167,22.66656],[120.6329,22.66372],[120.63194,22.66262],[120.63277,22.66226],[120.63075,22.66091],[120.63069,22.65878],[120.6298,22.65851],[120.63128,22.65604],[120.63077,22.65461],[120.63297,22.65325],[120.62915,22.6525],[120.62826,22.65143],[120.62468,22.65169],[120.62235,22.65061],[120.62104,22.64334],[120.61916,22.64172],[120.6193,22.64021],[120.61712,22.63685],[120.61553,22.63576],[120.61071,22.635],[120.60604,22.63045],[120.6034,22.62963],[120.60284,22.62833],[120.60056,22.62755],[120.59919,22.62581],[120.59781,22.62653],[120.59614,22.62579],[120.59384,22.62044],[120.58635,22.61553],[120.58766,22.61524],[120.5881,22.61427],[120.58711,22.61187],[120.58469,22.61139],[120.5847,22.60861],[120.58351,22.60889],[120.58304,22.60779],[120.58304,22.60831],[120.58103,22.60802],[120.57845,22.60544],[120.5762,22.60136],[120.57757,22.60065],[120.57768,22.59956],[120.57648,22.59826],[120.57847,22.59703],[120.57851,22.5957],[120.5765,22.59484],[120.57448,22.59647],[120.57299,22.59348],[120.5726,22.5898],[120.57106,22.58773],[120.565,22.58834],[120.56379,22.58764],[120.56398,22.58567],[120.56704,22.58211],[120.5665,22.58054],[120.56508,22.57949],[120.56077,22.57904],[120.55794,22.58002],[120.55684,22.58091],[120.55587,22.58358],[120.55754,22.58858],[120.55353,22.59446],[120.55471,22.59832],[120.55311,22.60085],[120.55282,22.60412],[120.55362,22.60574],[120.55265,22.60647],[120.54788,22.60517],[120.54646,22.60556],[120.54631,22.60482],[120.53653,22.60221],[120.5356,22.60423],[120.53609,22.61256],[120.53712,22.61315],[120.53641,22.6153],[120.53777,22.61791],[120.53644,22.61831],[120.5364,22.62188],[120.53827,22.62797],[120.53806,22.63537],[120.53919,22.63707],[120.53647,22.64001],[120.54434,22.64682],[120.54616,22.65069],[120.57887,22.67854],[120.58056,22.68208],[120.58354,22.68484],[120.58819,22.68648],[120.60586,22.7012],[120.62908,22.71368],[120.63288,22.71153],[120.63616,22.71105]]]}},{"type":"Feature","properties":{"code":"10013150","name":"屏東縣新埤鄉"},"geometry":{"type":"Polygon","coordinates":[[[120.62688,22.52556],[120.63146,22.52448],[120.63455,22.52483],[120.63064,22.52247],[120.6316,22.52121],[120.62435,22.51245],[120.62078,22.50614],[120.62052,22.50241],[120.62121,22.50098],[120.61998,22.49918],[120.61993,22.49535],[120.6231,22.49352],[120.62266,22.49195],[120.62137,22.49276],[120.62065,22.49121],[120.62066,22.49241],[120.61945,22.49217],[120.61929,22.49065],[120.61724,22.48851],[120.61506,22.48752],[120.61596,22.48743],[120.61611,22.48656],[120.61853,22.48796],[120.61774,22.48681],[120.61892,22.4873],[120.61856,22.48493],[120.61663,22.48588],[120.61506,22.48526],[120.61885,22.48391],[120.62015,22.48171],[120.62322,22.48263],[120.62153,22.48104],[120.62432,22.48026],[120.62542,22.47838],[120.62261,22.47939],[120.6225,22.48016],[120.62234,22.47895],[120.62064,22.47953],[120.62012,22.47887],[120.62146,22.47762],[120.61919,22.47702],[120.61634,22.47398],[120.61659,22.46933],[120.61592,22.46895],[120.617,22.46836],[120.61565,22.46814],[120.61521,22.46666],[120.61726,22.4665],[120.61861,22.46518],[120.61719,22.46502],[120.61709,22.46408],[120.61498,22.46388],[120.61731,22.46327],[120.6163,22.46177],[120.61864,22.4609],[120.61694,22.46091],[120.61716,22.46032],[120.61596,22.45991],[120.61947,22.45844],[120.61547,22.45863],[120.61711,22.45765],[120.61612,22.45682],[120.61772,22.45624],[120.61591,22.4553],[120.61692,22.45518],[120.61635,22.45387],[120.61853,22.4525],[120.62071,22.45308],[120.62466,22.45171],[120.62699,22.45262],[120.62673,22.45135],[120.62314,22.45087],[120.62277,22.45023],[120.6239,22.44941],[120.6216,22.44914],[120.62052,22.44994],[120.61766,22.44868],[120.61656,22.44913],[120.61637,22.44795],[120.61968,22.44554],[120.61767,22.44631],[120.61498,22.44581],[120.61427,22.44764],[120.61114,22.44897],[120.60908,22.44518],[120.6009,22.4466],[120.57955,22.45501],[120.57901,22.45641],[120.57319,22.46043],[120.56683,22.46029],[120.56097,22.46176],[120.54853,22.46066],[120.54604,22.46146],[120.54462,22.46311],[120.54046,22.46288],[120.54007,22.46513],[120.54278,22.46788],[120.5444,22.46792],[120.54356,22.47067],[120.5425,22.47068],[120.54249,22.47751],[120.54082,22.47794],[120.5415,22.48056],[120.54419,22.48288],[120.54497,22.48562],[120.54642,22.48702],[120.54627,22.48941],[120.54156,22.49128],[120.53789,22.49528],[120.53616,22.49524],[120.53605,22.49845],[120.53069,22.49833],[120.53062,22.50165],[120.52986,22.5019],[120.52977,22.50303],[120.53279,22.50752],[120.54016,22.51058],[120.54291,22.51099],[120.54602,22.51083],[120.54761,22.50932],[120.55621,22.50895],[120.56951,22.51184],[120.58224,22.51543],[120.58155,22.51673],[120.58824,22.51886],[120.58924,22.5174],[120.60137,22.52102],[120.60373,22.52107],[120.60564,22.52491],[120.62125,22.52332],[120.6248,22.52648],[120.62688,22.52556]]]}},{"type":"Feature","properties":{"code":"10013180","name":"屏東縣崁頂鄉"},"geometry":{"type":"Polygon","coordinates":[[[120.52336,22.54597],[120.52336,22.54268],[120.52009,22.54126],[120.51935,22.53829],[120.5236,22.53335],[120.52333,22.52739],[120.52373,22.52609],[120.52531,22.52578],[120.52605,22.52182],[120.52475,22.52162],[120.52509,22.5187],[120.5234,22.51848],[120.52378,22.51561],[120.52408,22.5144],[120.52549,22.51441],[120.52627,22.51093],[120.52933,22.51131],[120.52986,22.5019],[120.52776,22.50218],[120.5264,22.5035],[120.52348,22.50279],[120.52335,22.49914],[120.52193,22.49575],[120.51791,22.49486],[120.51273,22.49608],[120.51263,22.49703],[120.51059,22.49698],[120.50966,22.49636],[120.50968,22.49368],[120.50817,22.49153],[120.50207,22.49335],[120.49484,22.49162],[120.49212,22.49216],[120.4905,22.49372],[120.48851,22.49856],[120.47939,22.50046],[120.4772,22.4991],[120.47651,22.49518],[120.47033,22.49138],[120.46855,22.48941],[120.46816,22.49298],[120.46647,22.49686],[120.46745,22.497],[120.46726,22.49976],[120.46549,22.50615],[120.47216,22.51727],[120.47616,22.52002],[120.48098,22.52188],[120.48007,22.52323],[120.48342,22.52652],[120.48515,22.52668],[120.48647,22.52499],[120.48841,22.52767],[120.49179,22.52937],[120.49243,22.5331],[120.4952,22.53544],[120.49694,22.53942],[120.49984,22.53854],[120.50237,22.53965],[120.50424,22.54144],[120.50419,22.54273],[120.50805,22.5447],[120.50863,22.54668],[120.51757,22.54571],[120.52032,22.54752],[120.52324,22.54686],[120.52336,22.54597]]]}},{"type":"Feature","properties":{"code":"10013200","name":"屏東縣南州鄉"},"geometry":{"type":"Polygon","coordinates":[[[120.52716,22.50315],[120.52853,22.50183],[120.53057,22.50172],[120.53072,22.49829],[120.53605,22.49845],[120.53616,22.49524],[120.53789,22.49528],[120.54156,22.49128],[120.54627,22.48941],[120.54642,22.48702],[120.54497,22.48562],[120.54419,22.48288],[120.5415,22.48056],[120.54082,22.47794],[120.54249,22.47751],[120.5425,22.47068],[120.54356,22.47067],[120.54436,22.46762],[120.53626,22.46853],[120.53625,22.46712],[120.5288,22.46418],[120.52876,22.46096],[120.50888,22.45875],[120.50813,22.46102],[120.50336,22.45996],[120.50168,22.46046],[120.50195,22.46659],[120.5014,22.46817],[120.50048,22.46853],[120.50137,22.47374],[120.49903,22.47438],[120.49882,22.47579],[120.49167,22.47477],[120.49026,22.47268],[120.48759,22.47199],[120.48717,22.48034],[120.48908,22.48365],[120.48944,22.48822],[120.49108,22.48829],[120.49315,22.49199],[120.49484,22.49162],[120.50207,22.49335],[120.50817,22.49153],[120.50968,22.49368],[120.50966,22.49636],[120.51086,22.49706],[120.51791,22.49486],[120.52193,22.49575],[120.52335,22.49914],[120.52335,22.50268],[120.52511,22.50343],[120.52716,22.50315]]]}},{"type":"Feature","properties":{"code":"10013220","name":"屏東縣琉球鄉"},"geometry":{"type":"Polygon","coordinates":[[[120.37964,22.35598],[120.38425,22.35237],[120.38849,22.35068],[120.38889,22.3474],[120.38801,22.34273],[120.37675,22.33573],[120.37551,22.33358],[120.3715,22.33113],[120.36737,22.32631],[120.36312,22.32358],[120.35894,22.3222],[120.35465,22.32326],[120.35319,22.325],[120.35362,22.32941],[120.36034,22.33471],[120.36128,22.338],[120.36324,22.34002],[120.36292,22.34408],[120.3611,22.34535],[120.36111,22.34652],[120.36742,22.35211],[120.37206,22.35319],[120.37696,22.35572],[120.37964,22.35598]]]}},{"type":"Feature","properties":{"code":"10013260","name":"屏東縣三地門鄉"},"geometry":{"type":"Polygon","coordinates":[[[120.72502,22.88083],[120.73177,22.87589],[120.74242,22.87374],[120.7462,22.86943],[120.74658,22.86779],[120.74926,22.86568],[120.75504,22.86468],[120.75656,22.86222],[120.75877,22.86093],[120.76215,22.85681],[120.76416,22.84899],[120.76609,22.8486],[120.76851,22.8452],[120.76991,22.84455],[120.77153,22.84187],[120.77289,22.8411],[120.77418,22.83796],[120.77311,22.83575],[120.76788,22.83213],[120.76342,22.83215],[120.76208,22.82966],[120.75942,22.82963],[120.75814,22.83043],[120.75248,22.82701],[120.73948,22.8221],[120.74084,22.81428],[120.73592,22.80394],[120.73335,22.79598],[120.72964,22.79423],[120.72686,22.79095],[120.72736,22.78743],[120.7261,22.78405],[120.72282,22.78331],[120.71883,22.77846],[120.711,22.77227],[120.71087,22.77069],[120.71185,22.77065],[120.71267,22.7687],[120.71485,22.76815],[120.7145,22.76654],[120.7158,22.76475],[120.71592,22.76293],[120.71719,22.76174],[120.71773,22.75819],[120.71869,22.75785],[120.71858,22.75381],[120.71976,22.74977],[120.71622,22.7462],[120.71437,22.7488],[120.71202,22.74916],[120.70549,22.74785],[120.70175,22.74582],[120.70273,22.74269],[120.7027,22.73878],[120.70387,22.73686],[120.70318,22.73387],[120.7044,22.73079],[120.70307,22.72634],[120.70573,22.72519],[120.70906,22.72144],[120.71222,22.72032],[120.71496,22.71621],[120.71269,22.70954],[120.71317,22.70717],[120.71005,22.70267],[120.70996,22.69936],[120.70709,22.69552],[120.70609,22.69268],[120.70686,22.69225],[120.70665,22.6912],[120.70328,22.69204],[120.70108,22.69359],[120.69614,22.69345],[120.69415,22.69639],[120.69202,22.6978],[120.6878,22.69646],[120.68615,22.6996],[120.68192,22.69892],[120.67867,22.70285],[120.67746,22.70645],[120.67534,22.70628],[120.673,22.70475],[120.66833,22.70809],[120.66465,22.70953],[120.66366,22.70908],[120.66289,22.70697],[120.66149,22.70672],[120.65997,22.7082],[120.66109,22.71258],[120.65913,22.71417],[120.65721,22.71355],[120.65524,22.70944],[120.64357,22.71196],[120.64052,22.71194],[120.63829,22.71101],[120.63265,22.71163],[120.62908,22.71368],[120.63326,22.716],[120.6346,22.71983],[120.63659,22.72168],[120.6365,22.72321],[120.63807,22.72446],[120.63938,22.73551],[120.63814,22.73609],[120.63708,22.73813],[120.63602,22.73826],[120.63466,22.74044],[120.63429,22.74454],[120.63198,22.74708],[120.63228,22.74905],[120.63134,22.75138],[120.63516,22.76164],[120.64144,22.76614],[120.64223,22.76778],[120.64335,22.76836],[120.64537,22.7675],[120.64592,22.7681],[120.64344,22.77093],[120.64075,22.77146],[120.6375,22.77081],[120.63784,22.77185],[120.63307,22.77638],[120.63076,22.77563],[120.62875,22.77641],[120.63042,22.7805],[120.62973,22.78163],[120.63088,22.7822],[120.62933,22.7856],[120.63006,22.79124],[120.62919,22.79207],[120.63034,22.79335],[120.62913,22.8116],[120.6325,22.81275],[120.63556,22.81517],[120.63066,22.81764],[120.6294,22.81926],[120.62705,22.81965],[120.62794,22.821],[120.62804,22.82361],[120.62986,22.82545],[120.6304,22.82847],[120.63204,22.82935],[120.62995,22.8304],[120.62918,22.83617],[120.63093,22.83872],[120.63125,22.84114],[120.63254,22.84226],[120.63172,22.84335],[120.63023,22.84348],[120.62786,22.84663],[120.6349,22.84882],[120.63898,22.85231],[120.64007,22.85208],[120.64056,22.85473],[120.64002,22.85709],[120.64098,22.85996],[120.64296,22.86249],[120.64317,22.8645],[120.64781,22.87322],[120.64502,22.87322],[120.64453,22.87803],[120.64607,22.87998],[120.64769,22.87957],[120.64844,22.87713],[120.65102,22.87721],[120.65398,22.88098],[120.65648,22.88134],[120.65832,22.87848],[120.65842,22.87434],[120.65966,22.87012],[120.65865,22.86607],[120.66005,22.86066],[120.6609,22.85967],[120.66429,22.85881],[120.66857,22.85871],[120.66988,22.85687],[120.67211,22.85635],[120.67672,22.85725],[120.67897,22.86287],[120.68404,22.86351],[120.68622,22.86466],[120.69054,22.86487],[120.69198,22.86845],[120.69737,22.87255],[120.70136,22.87648],[120.7026,22.87931],[120.70454,22.88067],[120.70825,22.88165],[120.71651,22.88087],[120.72051,22.882],[120.72502,22.88083]]]}},{"type":"Feature","properties":{"code":"10013270","name":"屏東縣霧臺鄉"},"geometry":{"type":"Polygon","coordinates":[[[120.82832,22.86579],[120.83304,22.86627],[120.8375,22.86407],[120.84094,22.86038],[120.84165,22.85855],[120.84134,22.85675],[120.84331,22.85383],[120.84474,22.85302],[120.84835,22.85195],[120.85319,22.85762],[120.8562,22.85513],[120.85729,22.85268],[120.85993,22.85146],[120.85943,22.84924],[120.86231,22.84713],[120.86462,22.84302],[120.86399,22.83943],[120.8654,22.83561],[120.86455,22.83217],[120.86163,22.82666],[120.8649,22.82507],[120.86863,22.81685],[120.87171,22.81479],[120.87473,22.81525],[120.87716,22.81307],[120.88113,22.81451],[120.89119,22.81162],[120.90167,22.80327],[120.90365,22.79827],[120.90297,22.79653],[120.90325,22.79303],[120.90169,22.78754],[120.90413,22.78358],[120.90324,22.78046],[120.90382,22.77558],[120.90296,22.7735],[120.90115,22.77206],[120.90021,22.76922],[120.89356,22.76678],[120.89196,22.7637],[120.89481,22.76258],[120.89445,22.75914],[120.89563,22.75616],[120.8941,22.75161],[120.89535,22.7482],[120.89414,22.74371],[120.89564,22.74182],[120.89503,22.7386],[120.89228,22.73519],[120.89144,22.72938],[120.88865,22.72729],[120.88728,22.72237],[120.88351,22.71707],[120.87942,22.71607],[120.8759,22.71714],[120.87265,22.71702],[120.86941,22.7159],[120.86719,22.71689],[120.86167,22.7167],[120.85839,22.71362],[120.85488,22.71755],[120.84851,22.71695],[120.84452,22.71086],[120.84248,22.70984],[120.84336,22.70765],[120.84024,22.70667],[120.83967,22.70395],[120.8379,22.70143],[120.83829,22.69894],[120.83679,22.69708],[120.8333,22.69664],[120.82869,22.69766],[120.82545,22.69571],[120.81988,22.6956],[120.81886,22.69436],[120.81911,22.69103],[120.81144,22.69204],[120.8091,22.68826],[120.80802,22.68919],[120.7972,22.6892],[120.79554,22.69062],[120.78912,22.69329],[120.78705,22.69316],[120.78748,22.69023],[120.78948,22.68649],[120.78926,22.68383],[120.79157,22.67918],[120.78622,22.67204],[120.78582,22.66143],[120.77977,22.65253],[120.77713,22.65047],[120.77383,22.64623],[120.77198,22.64218],[120.76892,22.63885],[120.76765,22.63619],[120.76424,22.63371],[120.76312,22.63114],[120.76127,22.62978],[120.75528,22.63975],[120.75228,22.64226],[120.75068,22.64926],[120.7489,22.65054],[120.74688,22.65547],[120.74961,22.65883],[120.75089,22.6644],[120.74996,22.6666],[120.74496,22.67238],[120.74384,22.67699],[120.74495,22.67936],[120.74474,22.68098],[120.73802,22.68387],[120.73062,22.68225],[120.73069,22.68463],[120.72537,22.68477],[120.72444,22.68744],[120.72253,22.68832],[120.72145,22.69042],[120.71316,22.68592],[120.7122,22.68809],[120.70923,22.68868],[120.70665,22.6912],[120.70686,22.69225],[120.70609,22.69268],[120.70709,22.69552],[120.70996,22.69936],[120.71005,22.70267],[120.71317,22.70717],[120.71269,22.70954],[120.71496,22.71621],[120.71222,22.72032],[120.70906,22.72144],[120.70573,22.72519],[120.70307,22.72634],[120.7044,22.73079],[120.70318,22.73387],[120.70387,22.73686],[120.7027,22.73878],[120.70273,22.74269],[120.70175,22.74582],[120.70549,22.74785],[120.71202,22.74916],[120.71437,22.7488],[120.71622,22.7462],[120.71967,22.74948],[120.71858,22.75381],[120.71869,22.75785],[120.71773,22.75819],[120.71719,22.76174],[120.71592,22.76293],[120.7158,22.76475],[120.7145,22.76654],[120.71485,22.76815],[120.71267,22.7687],[120.71185,22.77065],[120.71087,22.77069],[120.71096,22.77216],[120.71883,22.77846],[120.72282,22.78331],[120.7261,22.78405],[120.72736,22.78743],[120.72686,22.79095],[120.72964,22.79423],[120.73335,22.79598],[120.73592,22.80394],[120.74084,22.81428],[120.73948,22.8221],[120.75248,22.82701],[120.75814,22.83043],[120.75942,22.82963],[120.76208,22.82966],[120.76342,22.83215],[120.76788,22.83213],[120.77311,22.83575],[120.77418,22.83796],[120.77931,22.83523],[120.78206,22.83646],[120.78584,22.8399],[120.7925,22.841],[120.79299,22.8423],[120.7917,22.84837],[120.79335,22.85203],[120.80108,22.85103],[120.80707,22.85487],[120.81366,22.85747],[120.81418,22.86045],[120.81555,22.86195],[120.81909,22.86235],[120.82434,22.86636],[120.82832,22.86579]]]}},{"type":"Feature","properties":{"code":"10013280","name":"屏東縣瑪家鄉"},"geometry":{"type":"Polygon","coordinates":[[[120.66036,22.70957],[120.65997,22.7082],[120.6618,22.70661],[120.66289,22.70697],[120.66366,22.70908],[120.66465,22.70953],[120.66833,22.70809],[120.673,22.70475],[120.67534,22.70628],[120.67746,22.70645],[120.67867,22.70285],[120.68192,22.69892],[120.68615,22.6996],[120.6878,22.69646],[120.69095,22.69794],[120.69238,22.69766],[120.69614,22.69345],[120.70108,22.69359],[120.70328,22.69204],[120.70685,22.69113],[120.70923,22.68868],[120.7122,22.68809],[120.71294,22.68598],[120.71466,22.68628],[120.72145,22.69042],[120.72253,22.68832],[120.72444,22.68744],[120.72537,22.68477],[120.73069,22.68463],[120.73062,22.68225],[120.73802,22.68387],[120.74405,22.68141],[120.74501,22.68057],[120.74384,22.67699],[120.74496,22.67238],[120.75079,22.66498],[120.74961,22.65883],[120.74688,22.65547],[120.74232,22.65475],[120.73954,22.65235],[120.73534,22.65092],[120.7315,22.6537],[120.72619,22.65489],[120.72426,22.65719],[120.72115,22.65816],[120.71952,22.65662],[120.70572,22.65638],[120.69368,22.65446],[120.69305,22.65334],[120.69584,22.65027],[120.69768,22.6459],[120.69753,22.64249],[120.69195,22.64568],[120.68337,22.64714],[120.68197,22.64861],[120.67763,22.65061],[120.67527,22.65001],[120.67395,22.65139],[120.67263,22.64985],[120.6695,22.6497],[120.66817,22.64741],[120.66653,22.64722],[120.66541,22.64585],[120.66356,22.64615],[120.66284,22.64499],[120.66005,22.64515],[120.66109,22.64351],[120.65905,22.64194],[120.65648,22.64311],[120.65431,22.64549],[120.65071,22.64525],[120.64992,22.64402],[120.65011,22.64251],[120.64698,22.64314],[120.64507,22.64062],[120.6431,22.6403],[120.64234,22.63625],[120.63969,22.63413],[120.63957,22.63252],[120.63753,22.63178],[120.63631,22.62851],[120.63319,22.62801],[120.63218,22.62536],[120.63106,22.62476],[120.6262,22.62908],[120.62582,22.63928],[120.62673,22.64198],[120.62833,22.64224],[120.62787,22.64287],[120.62926,22.6445],[120.62779,22.64499],[120.62847,22.64734],[120.6293,22.64719],[120.62958,22.64959],[120.62888,22.65071],[120.63013,22.65253],[120.63297,22.65325],[120.63077,22.65461],[120.63128,22.65604],[120.6298,22.65851],[120.63069,22.65878],[120.63075,22.66091],[120.63277,22.66226],[120.63194,22.66262],[120.6329,22.66372],[120.63167,22.66656],[120.63226,22.66741],[120.63394,22.66767],[120.63247,22.6693],[120.63279,22.67126],[120.63585,22.67673],[120.63509,22.67833],[120.63581,22.67919],[120.63485,22.67924],[120.63606,22.68096],[120.63448,22.68226],[120.63442,22.68344],[120.63759,22.68566],[120.63833,22.68725],[120.63753,22.68895],[120.63538,22.68993],[120.63459,22.68951],[120.63444,22.69037],[120.63739,22.69047],[120.64013,22.69201],[120.64256,22.69536],[120.64779,22.69752],[120.65122,22.70285],[120.65054,22.7082],[120.64945,22.71067],[120.65524,22.70944],[120.65721,22.71355],[120.65887,22.71421],[120.66109,22.71258],[120.66036,22.70957]]]}},{"type":"Feature","properties":{"code":"10013290","name":"屏東縣泰武鄉"},"geometry":{"type":"Polygon","coordinates":[[[120.72287,22.65723],[120.72426,22.65719],[120.72619,22.65489],[120.7315,22.6537],[120.73513,22.65091],[120.73954,22.65235],[120.74232,22.65475],[120.74688,22.65547],[120.7489,22.65054],[120.75068,22.64926],[120.75228,22.64226],[120.75528,22.63975],[120.76127,22.62978],[120.76124,22.62621],[120.75791,22.6229],[120.75288,22.61208],[120.75406,22.60855],[120.75464,22.60078],[120.7458,22.58955],[120.74667,22.58401],[120.74908,22.57863],[120.74868,22.57196],[120.74153,22.56867],[120.73969,22.56298],[120.73995,22.55833],[120.72941,22.56247],[120.72697,22.5614],[120.72423,22.56207],[120.7219,22.56162],[120.71847,22.56026],[120.71539,22.56344],[120.70894,22.56202],[120.70523,22.56341],[120.70265,22.56074],[120.70106,22.56186],[120.69898,22.56196],[120.69349,22.55745],[120.6912,22.55929],[120.68717,22.55946],[120.6838,22.56067],[120.67914,22.56358],[120.67593,22.5622],[120.66846,22.56515],[120.66035,22.56312],[120.65359,22.56496],[120.65045,22.56811],[120.64984,22.57154],[120.64884,22.56487],[120.64563,22.56137],[120.64672,22.54821],[120.64419,22.54289],[120.64439,22.53987],[120.64056,22.5383],[120.63798,22.54086],[120.63199,22.53876],[120.62817,22.54072],[120.62582,22.54464],[120.62435,22.5454],[120.62475,22.54943],[120.62558,22.55077],[120.62487,22.5544],[120.62615,22.55457],[120.62545,22.55539],[120.62614,22.55531],[120.62626,22.55645],[120.62788,22.55431],[120.63034,22.55386],[120.63079,22.55483],[120.63,22.55544],[120.63061,22.55588],[120.62833,22.55623],[120.62942,22.55753],[120.6314,22.55679],[120.62972,22.55871],[120.6314,22.55902],[120.62984,22.55939],[120.63127,22.56022],[120.63082,22.56096],[120.62972,22.55998],[120.63038,22.56181],[120.62785,22.56],[120.62732,22.56263],[120.62815,22.56426],[120.62707,22.56493],[120.62821,22.56655],[120.6267,22.56657],[120.62668,22.5682],[120.62544,22.5683],[120.62687,22.57079],[120.62601,22.57144],[120.62656,22.5726],[120.62589,22.5735],[120.62467,22.57291],[120.62486,22.57535],[120.62609,22.57444],[120.62734,22.57581],[120.62878,22.57478],[120.62779,22.57456],[120.62791,22.57385],[120.62967,22.57389],[120.629,22.57095],[120.6301,22.57076],[120.63074,22.57295],[120.63183,22.57123],[120.63247,22.57171],[120.63185,22.57497],[120.63305,22.57547],[120.63529,22.57493],[120.63657,22.57585],[120.63075,22.57707],[120.63185,22.57781],[120.63094,22.57898],[120.63126,22.58125],[120.63215,22.58213],[120.63213,22.5851],[120.63123,22.58862],[120.62941,22.58777],[120.63159,22.5904],[120.62822,22.59117],[120.62866,22.59388],[120.62663,22.59397],[120.62711,22.59138],[120.62595,22.59151],[120.62617,22.58861],[120.62491,22.58859],[120.62465,22.58775],[120.62576,22.58523],[120.62422,22.58551],[120.62372,22.58951],[120.62493,22.59147],[120.62384,22.59597],[120.62619,22.59833],[120.62918,22.59753],[120.62873,22.59815],[120.63157,22.60053],[120.63233,22.6082],[120.62851,22.60854],[120.62886,22.61125],[120.63029,22.61289],[120.63184,22.61164],[120.63198,22.61368],[120.63084,22.61603],[120.63542,22.62042],[120.63655,22.62335],[120.63941,22.62602],[120.63368,22.62605],[120.63312,22.6244],[120.63158,22.62465],[120.63319,22.62801],[120.63631,22.62851],[120.63753,22.63178],[120.63953,22.63248],[120.63969,22.63413],[120.6423,22.63619],[120.6431,22.6403],[120.64507,22.64062],[120.64698,22.64314],[120.65011,22.64251],[120.64993,22.64406],[120.65081,22.64527],[120.65431,22.64549],[120.65648,22.64311],[120.65905,22.64194],[120.66109,22.64351],[120.66005,22.64515],[120.66284,22.64499],[120.66356,22.64615],[120.66541,22.64585],[120.66653,22.64722],[120.66817,22.64741],[120.6695,22.6497],[120.67263,22.64985],[120.67395,22.65139],[120.67527,22.65001],[120.67763,22.65061],[120.68197,22.64861],[120.68337,22.64714],[120.69195,22.64568],[120.69753,22.64249],[120.69763,22.64604],[120.69584,22.65027],[120.69305,22.65334],[120.69317,22.65424],[120.70572,22.65638],[120.71952,22.65662],[120.72115,22.65816],[120.72287,22.65723]]]}},{"type":"Feature","properties":{"code":"10013300","name":"屏東縣來義鄉"},"geometry":{"type":"Polygon","coordinates":[[[120.65395,22.5649],[120.66035,22.56312],[120.66846,22.56515],[120.67612,22.56219],[120.67914,22.56358],[120.6838,22.56067],[120.68717,22.55946],[120.6912,22.55929],[120.69349,22.55745],[120.69898,22.56196],[120.70106,22.56186],[120.70265,22.56074],[120.70523,22.56341],[120.70894,22.56202],[120.71539,22.56344],[120.71847,22.56026],[120.7219,22.56162],[120.72423,22.56207],[120.72697,22.5614],[120.72941,22.56247],[120.73995,22.55833],[120.73905,22.55366],[120.73948,22.55145],[120.74396,22.5431],[120.74794,22.53854],[120.75002,22.53402],[120.74991,22.52936],[120.75166,22.52532],[120.75132,22.52197],[120.75303,22.51839],[120.75363,22.51104],[120.75847,22.50735],[120.7627,22.5011],[120.76434,22.49539],[120.76368,22.49092],[120.76045,22.48853],[120.75855,22.48841],[120.75746,22.48183],[120.75081,22.47915],[120.75226,22.47761],[120.75457,22.4714],[120.75163,22.46421],[120.7512,22.45676],[120.74516,22.45595],[120.74068,22.44984],[120.73848,22.44897],[120.73556,22.44628],[120.73051,22.44525],[120.72931,22.45112],[120.7266,22.45433],[120.72532,22.45983],[120.72342,22.46064],[120.72318,22.46539],[120.7198,22.46831],[120.71698,22.46886],[120.71487,22.46888],[120.71032,22.46708],[120.70778,22.46716],[120.70119,22.4709],[120.69882,22.46859],[120.69887,22.46408],[120.69708,22.45972],[120.69754,22.45687],[120.693,22.45008],[120.68566,22.44673],[120.68143,22.44591],[120.67378,22.44659],[120.67158,22.44542],[120.67034,22.44238],[120.66218,22.44019],[120.65919,22.44006],[120.65799,22.44186],[120.64998,22.44301],[120.64665,22.44121],[120.64512,22.43915],[120.64478,22.43616],[120.6416,22.43273],[120.63692,22.43313],[120.6322,22.43636],[120.6247,22.43897],[120.62009,22.43963],[120.6126,22.44433],[120.60908,22.44518],[120.61106,22.44897],[120.61427,22.44764],[120.61498,22.44581],[120.61767,22.44631],[120.61968,22.44554],[120.61637,22.44795],[120.61656,22.44913],[120.61766,22.44868],[120.62052,22.44994],[120.6216,22.44914],[120.6239,22.44941],[120.62277,22.45023],[120.62329,22.451],[120.62517,22.45078],[120.62699,22.45195],[120.62693,22.45274],[120.62542,22.45167],[120.62071,22.45308],[120.61853,22.4525],[120.61635,22.45387],[120.61692,22.45518],[120.61591,22.4553],[120.61772,22.45624],[120.61612,22.45682],[120.61711,22.45765],[120.61547,22.45863],[120.61947,22.45844],[120.61596,22.45991],[120.61716,22.46032],[120.61694,22.46091],[120.61864,22.4609],[120.6163,22.46177],[120.61731,22.46327],[120.61498,22.46388],[120.61709,22.46408],[120.61719,22.46502],[120.61861,22.46518],[120.61726,22.4665],[120.61521,22.46666],[120.61565,22.46814],[120.617,22.46836],[120.61592,22.46895],[120.61659,22.46933],[120.61634,22.47398],[120.61919,22.47702],[120.62146,22.47762],[120.62012,22.47887],[120.62064,22.47953],[120.62234,22.47895],[120.6225,22.48016],[120.62261,22.47939],[120.62542,22.47838],[120.62432,22.48026],[120.62153,22.48104],[120.62322,22.48263],[120.62015,22.48171],[120.61885,22.48391],[120.61506,22.48526],[120.61663,22.48588],[120.61856,22.48493],[120.61892,22.4873],[120.61774,22.48681],[120.61853,22.48796],[120.61611,22.48656],[120.61596,22.48743],[120.61506,22.48752],[120.61724,22.48851],[120.61929,22.49065],[120.61945,22.49217],[120.62061,22.49245],[120.62065,22.49121],[120.62137,22.49276],[120.62266,22.49195],[120.6231,22.49352],[120.61993,22.49535],[120.61998,22.49918],[120.62121,22.50098],[120.62052,22.50241],[120.62078,22.50614],[120.62435,22.51245],[120.6316,22.52121],[120.63064,22.52247],[120.63455,22.52483],[120.63332,22.52475],[120.63328,22.52588],[120.63028,22.52644],[120.62641,22.52624],[120.62682,22.52753],[120.6256,22.52765],[120.62599,22.52988],[120.62417,22.52958],[120.62426,22.53251],[120.62293,22.53447],[120.62361,22.53631],[120.62238,22.53696],[120.62452,22.5383],[120.62449,22.54039],[120.62676,22.54275],[120.63081,22.53884],[120.63793,22.54086],[120.64056,22.5383],[120.64429,22.53977],[120.64423,22.54303],[120.64672,22.54821],[120.64565,22.56144],[120.64884,22.56487],[120.64984,22.57154],[120.65093,22.56732],[120.65395,22.5649]]]}},{"type":"Feature","properties":{"code":"10013310","name":"屏東縣春日鄉"},"geometry":{"type":"Polygon","coordinates":[[[120.70826,22.46704],[120.71698,22.46886],[120.7198,22.46831],[120.72318,22.46539],[120.72342,22.46064],[120.72532,22.45983],[120.7266,22.45433],[120.72931,22.45112],[120.73051,22.44525],[120.73605,22.44651],[120.74207,22.45119],[120.7447,22.45567],[120.75018,22.45621],[120.75129,22.45691],[120.7515,22.45848],[120.75524,22.45721],[120.75818,22.45852],[120.7651,22.45306],[120.77587,22.45035],[120.77645,22.44894],[120.77513,22.4433],[120.77648,22.44044],[120.78002,22.43743],[120.78229,22.43417],[120.78477,22.42812],[120.78687,22.42518],[120.78822,22.41944],[120.78964,22.41765],[120.78693,22.41614],[120.78487,22.41307],[120.78344,22.4126],[120.7829,22.41121],[120.78036,22.40945],[120.77702,22.40889],[120.77556,22.40965],[120.77339,22.40693],[120.77058,22.4069],[120.76833,22.40862],[120.76531,22.40905],[120.76321,22.40716],[120.75812,22.4049],[120.75342,22.40506],[120.75536,22.40328],[120.7576,22.39818],[120.7538,22.39643],[120.75214,22.39267],[120.75648,22.38838],[120.7505,22.38409],[120.74862,22.38038],[120.74878,22.37325],[120.74752,22.3714],[120.74449,22.36982],[120.74342,22.36723],[120.73364,22.36694],[120.72631,22.35865],[120.71891,22.35468],[120.71339,22.35544],[120.70901,22.35336],[120.70797,22.35355],[120.7026,22.3485],[120.70127,22.34927],[120.70075,22.3482],[120.6984,22.34759],[120.69736,22.34837],[120.69394,22.34843],[120.69381,22.34719],[120.68951,22.34578],[120.68932,22.34293],[120.68771,22.34126],[120.68208,22.34427],[120.67747,22.34443],[120.67483,22.34353],[120.67304,22.3446],[120.66894,22.34425],[120.66828,22.3457],[120.66703,22.34549],[120.66601,22.34402],[120.6629,22.34696],[120.66055,22.34533],[120.66092,22.34315],[120.65894,22.34108],[120.65587,22.34314],[120.6547,22.34497],[120.65065,22.34646],[120.64886,22.34898],[120.6453,22.34833],[120.64333,22.34944],[120.64086,22.35254],[120.64132,22.35523],[120.64004,22.35533],[120.63908,22.35647],[120.63896,22.35903],[120.63408,22.35932],[120.62971,22.35789],[120.62598,22.35979],[120.62577,22.36184],[120.625,22.36231],[120.62041,22.36126],[120.62296,22.36376],[120.62173,22.36291],[120.62021,22.36344],[120.62053,22.36677],[120.61948,22.36733],[120.6179,22.37061],[120.6206,22.36901],[120.62154,22.36965],[120.62265,22.36904],[120.6237,22.37047],[120.62525,22.37048],[120.62483,22.37128],[120.62131,22.37155],[120.61938,22.37497],[120.61946,22.37676],[120.61824,22.37674],[120.61822,22.38316],[120.61744,22.38412],[120.61835,22.38497],[120.61595,22.38684],[120.61764,22.38836],[120.61694,22.38973],[120.61877,22.39136],[120.62308,22.39119],[120.62325,22.39278],[120.62424,22.39287],[120.62442,22.3939],[120.63052,22.39542],[120.63296,22.39304],[120.6369,22.3941],[120.63538,22.39447],[120.63571,22.39601],[120.63412,22.396],[120.63311,22.39686],[120.63304,22.39914],[120.63158,22.39858],[120.63147,22.39921],[120.62963,22.39862],[120.6291,22.39912],[120.6309,22.40138],[120.62882,22.40106],[120.62954,22.40228],[120.6275,22.40201],[120.62527,22.40445],[120.6236,22.40505],[120.62376,22.40586],[120.62557,22.40582],[120.62494,22.40736],[120.62753,22.40877],[120.62728,22.40955],[120.62852,22.40977],[120.63045,22.41242],[120.63119,22.41155],[120.63247,22.41176],[120.63142,22.41278],[120.63212,22.41415],[120.63146,22.41503],[120.62734,22.41571],[120.62829,22.41758],[120.62802,22.42001],[120.63072,22.42294],[120.62317,22.42186],[120.6242,22.42559],[120.62989,22.42782],[120.62942,22.42832],[120.63088,22.43167],[120.63284,22.43382],[120.63264,22.43582],[120.63692,22.43313],[120.6416,22.43273],[120.64478,22.43616],[120.64512,22.43915],[120.64665,22.44121],[120.65022,22.44309],[120.65808,22.44183],[120.65919,22.44006],[120.66218,22.44019],[120.67034,22.44238],[120.67178,22.44566],[120.67412,22.44669],[120.67987,22.44583],[120.68588,22.44682],[120.693,22.45008],[120.69606,22.45405],[120.69771,22.45738],[120.69708,22.45972],[120.69887,22.46408],[120.69882,22.46859],[120.69975,22.46971],[120.70135,22.47091],[120.70826,22.46704]]]}},{"type":"Feature","properties":{"code":"10013320","name":"屏東縣獅子鄉"},"geometry":{"type":"Polygon","coordinates":[[[120.74126,22.36737],[120.74346,22.36726],[120.75267,22.36039],[120.75554,22.3604],[120.75799,22.35942],[120.76056,22.36043],[120.76201,22.35987],[120.76318,22.35897],[120.76359,22.35224],[120.76703,22.34776],[120.76919,22.34741],[120.77518,22.34935],[120.78106,22.34637],[120.78472,22.34578],[120.78639,22.34224],[120.78847,22.34157],[120.7897,22.33764],[120.79247,22.33562],[120.79251,22.3284],[120.79341,22.32364],[120.7951,22.32257],[120.79655,22.31941],[120.79659,22.31717],[120.79269,22.31215],[120.78713,22.30921],[120.7832,22.30946],[120.77815,22.3085],[120.77683,22.30258],[120.77774,22.29797],[120.78083,22.29495],[120.7899,22.29331],[120.79113,22.29065],[120.79098,22.28841],[120.79321,22.28579],[120.80562,22.28394],[120.80586,22.28118],[120.80721,22.28019],[120.80677,22.27716],[120.80039,22.27733],[120.79801,22.27626],[120.7962,22.26794],[120.7996,22.26499],[120.79862,22.26384],[120.79883,22.25987],[120.7979,22.25794],[120.79972,22.25718],[120.80613,22.25978],[120.80802,22.25936],[120.81256,22.26211],[120.81391,22.26187],[120.81528,22.26326],[120.82225,22.25806],[120.82591,22.25665],[120.83462,22.24537],[120.83629,22.24538],[120.83961,22.24363],[120.8414,22.24456],[120.8426,22.24336],[120.84465,22.24286],[120.85084,22.24366],[120.85867,22.24082],[120.859,22.23863],[120.86253,22.23674],[120.8643,22.23429],[120.86212,22.23075],[120.86395,22.23111],[120.86683,22.22901],[120.86765,22.22621],[120.86672,22.22428],[120.8678,22.22089],[120.86619,22.22025],[120.8652,22.21833],[120.86712,22.21583],[120.86691,22.21261],[120.86585,22.21112],[120.8637,22.2112],[120.86361,22.21041],[120.86061,22.20966],[120.85803,22.21129],[120.85618,22.21063],[120.85043,22.21152],[120.84819,22.21327],[120.83807,22.21353],[120.83794,22.21237],[120.83495,22.21209],[120.83362,22.21104],[120.83246,22.21141],[120.82906,22.20905],[120.82673,22.20915],[120.82411,22.20687],[120.81517,22.20791],[120.81506,22.20647],[120.8135,22.20474],[120.81131,22.20371],[120.80472,22.20374],[120.80275,22.20483],[120.79701,22.19782],[120.79288,22.19769],[120.78997,22.19573],[120.78634,22.19604],[120.78161,22.19395],[120.77995,22.19415],[120.77767,22.19145],[120.77047,22.18771],[120.76782,22.18453],[120.76225,22.18125],[120.76162,22.18171],[120.75895,22.17833],[120.75557,22.17664],[120.75029,22.17795],[120.74509,22.17723],[120.74266,22.17569],[120.73945,22.17501],[120.73643,22.17635],[120.73304,22.17503],[120.73262,22.17393],[120.73503,22.1681],[120.73285,22.16375],[120.73437,22.15931],[120.73742,22.1564],[120.73711,22.15309],[120.73816,22.1508],[120.73823,22.14814],[120.73715,22.14691],[120.73767,22.14488],[120.73631,22.14194],[120.73744,22.13976],[120.7355,22.13474],[120.73498,22.12971],[120.73661,22.12062],[120.73605,22.11827],[120.73187,22.11801],[120.72838,22.11612],[120.72379,22.11581],[120.72122,22.11289],[120.72021,22.1131],[120.71623,22.11132],[120.71542,22.11252],[120.71755,22.1158],[120.71843,22.12165],[120.71773,22.12319],[120.71506,22.12484],[120.70854,22.13228],[120.70377,22.14274],[120.7003,22.14256],[120.70141,22.14606],[120.70107,22.1499],[120.70187,22.15046],[120.70068,22.15123],[120.70055,22.15423],[120.69984,22.15446],[120.69937,22.15641],[120.70008,22.15741],[120.70151,22.1572],[120.69891,22.15854],[120.69655,22.16826],[120.69469,22.17105],[120.69537,22.17501],[120.69273,22.18144],[120.69457,22.1834],[120.69392,22.18644],[120.6967,22.19084],[120.69522,22.19249],[120.69712,22.19359],[120.69516,22.19575],[120.69533,22.19766],[120.69636,22.19896],[120.69978,22.2023],[120.70094,22.2014],[120.70063,22.2],[120.70244,22.19907],[120.70419,22.19934],[120.7054,22.20097],[120.70342,22.20214],[120.70231,22.20414],[120.70513,22.20423],[120.70683,22.20636],[120.71752,22.2077],[120.71158,22.21215],[120.70746,22.21323],[120.7046,22.2113],[120.6959,22.20996],[120.69347,22.20702],[120.69086,22.20695],[120.6894,22.20782],[120.68296,22.21577],[120.67898,22.21905],[120.67759,22.2225],[120.67825,22.22434],[120.67617,22.22569],[120.67573,22.22703],[120.67663,22.22803],[120.67877,22.22799],[120.67489,22.22991],[120.66999,22.23776],[120.67125,22.2394],[120.67077,22.24375],[120.66865,22.24515],[120.663,22.25576],[120.66101,22.25811],[120.66897,22.26166],[120.67401,22.26067],[120.67253,22.26322],[120.67043,22.26406],[120.66593,22.26443],[120.66432,22.26315],[120.66196,22.26271],[120.66225,22.26596],[120.66126,22.26642],[120.65948,22.26664],[120.65712,22.26529],[120.65333,22.26595],[120.65289,22.2689],[120.65002,22.27479],[120.64908,22.27954],[120.64482,22.28919],[120.64546,22.28956],[120.6452,22.29407],[120.64588,22.29561],[120.64475,22.30499],[120.6465,22.30664],[120.64645,22.30767],[120.64815,22.30834],[120.64839,22.30974],[120.64585,22.31074],[120.6415,22.30908],[120.63955,22.31155],[120.63617,22.31789],[120.63645,22.32175],[120.63375,22.32536],[120.63262,22.33163],[120.63175,22.33175],[120.6291,22.33875],[120.62893,22.34],[120.63033,22.34173],[120.62913,22.34256],[120.62777,22.34166],[120.62716,22.34257],[120.62758,22.34355],[120.62526,22.34367],[120.62455,22.34461],[120.62558,22.34604],[120.63053,22.3482],[120.63481,22.3516],[120.64047,22.35123],[120.64138,22.35187],[120.64457,22.34856],[120.64886,22.34898],[120.65065,22.34646],[120.6547,22.34497],[120.65587,22.34314],[120.65894,22.34108],[120.66092,22.34315],[120.66055,22.34533],[120.6629,22.34696],[120.66601,22.34402],[120.66703,22.34549],[120.66828,22.3457],[120.66894,22.34425],[120.67304,22.3446],[120.67483,22.34353],[120.67747,22.34443],[120.68208,22.34427],[120.68771,22.34126],[120.68932,22.34293],[120.68951,22.34578],[120.69381,22.34719],[120.69394,22.34843],[120.69979,22.34777],[120.70127,22.34927],[120.70269,22.34854],[120.70802,22.35357],[120.70901,22.35336],[120.71339,22.35544],[120.71938,22.35482],[120.72675,22.35901],[120.73364,22.36694],[120.74126,22.36737]]]}},{"type":"Feature","properties":{"code":"10013030","name":"屏東縣東港鎮"},"geometry":{"type":"Polygon","coordinates":[[[120.4821,22.49993],[120.48851,22.49856],[120.4905,22.49372],[120.49315,22.49199],[120.49108,22.48829],[120.48944,22.48822],[120.48908,22.48365],[120.48717,22.48034],[120.48759,22.47199],[120.49026,22.47268],[120.49167,22.47477],[120.49882,22.47579],[120.49903,22.47438],[120.50137,22.47374],[120.50048,22.46853],[120.5014,22.46817],[120.50195,22.46659],[120.50168,22.46046],[120.49951,22.46018],[120.49706,22.4557],[120.499,22.4559],[120.49963,22.4553],[120.4998,22.45151],[120.50174,22.44972],[120.50358,22.44973],[120.50341,22.44829],[120.50146,22.44813],[120.4986,22.44434],[120.49606,22.43607],[120.49209,22.43517],[120.49164,22.43422],[120.48725,22.43612],[120.48399,22.43324],[120.4833,22.43132],[120.48229,22.43181],[120.48277,22.43099],[120.48059,22.42686],[120.45854,22.43936],[120.44708,22.44934],[120.43973,22.4568],[120.43851,22.45936],[120.43601,22.45947],[120.43471,22.46378],[120.43498,22.46464],[120.44411,22.46857],[120.44594,22.47153],[120.45076,22.47262],[120.46155,22.47914],[120.46545,22.48366],[120.46788,22.48857],[120.47033,22.49138],[120.47672,22.49542],[120.47744,22.49939],[120.47946,22.50047],[120.4821,22.49993]]]}},{"type":"Feature","properties":{"code":"10013160","name":"屏東縣枋寮鄉"},"geometry":{"type":"Polygon","coordinates":[[[120.57964,22.45498],[120.59615,22.44813],[120.6126,22.44433],[120.62009,22.43963],[120.62766,22.4381],[120.6322,22.43636],[120.63297,22.43517],[120.63258,22.43314],[120.63107,22.43199],[120.62942,22.42832],[120.62989,22.42782],[120.6242,22.42559],[120.62317,22.42186],[120.63072,22.42294],[120.62802,22.42001],[120.62829,22.41758],[120.62734,22.41571],[120.63146,22.41503],[120.63212,22.41415],[120.63142,22.41278],[120.63247,22.41176],[120.63119,22.41155],[120.63045,22.41242],[120.62852,22.40977],[120.62728,22.40955],[120.62753,22.40877],[120.62494,22.40736],[120.62557,22.40582],[120.62376,22.40586],[120.6236,22.40505],[120.62527,22.40445],[120.6275,22.40201],[120.62954,22.40228],[120.62882,22.40106],[120.6309,22.40138],[120.6291,22.39912],[120.62963,22.39862],[120.63147,22.39921],[120.63158,22.39858],[120.63304,22.39914],[120.63311,22.39686],[120.63412,22.396],[120.63571,22.39601],[120.63538,22.39447],[120.63685,22.39393],[120.63296,22.39304],[120.63058,22.39543],[120.62442,22.3939],[120.62424,22.39287],[120.62325,22.39278],[120.62308,22.39119],[120.6189,22.39139],[120.61734,22.39018],[120.61692,22.38959],[120.61764,22.38836],[120.61595,22.38684],[120.61829,22.38522],[120.61744,22.38412],[120.61823,22.38306],[120.61803,22.37788],[120.61824,22.37674],[120.61946,22.37676],[120.62004,22.37347],[120.62147,22.37143],[120.62483,22.37128],[120.62523,22.37064],[120.6237,22.37047],[120.62265,22.36904],[120.62154,22.36965],[120.62067,22.36901],[120.6179,22.37061],[120.61948,22.36733],[120.62053,22.36677],[120.62021,22.36344],[120.62173,22.36291],[120.62296,22.36376],[120.62041,22.36126],[120.625,22.36231],[120.62577,22.36184],[120.62598,22.35979],[120.62971,22.35789],[120.63408,22.35932],[120.63896,22.35903],[120.63908,22.35647],[120.64024,22.35524],[120.63507,22.3566],[120.63108,22.35452],[120.62509,22.35361],[120.62365,22.35218],[120.61815,22.35055],[120.61774,22.34927],[120.61529,22.3484],[120.61213,22.34579],[120.61163,22.34345],[120.60638,22.34056],[120.60516,22.34115],[120.60511,22.34268],[120.59894,22.35575],[120.59016,22.36332],[120.59131,22.3643],[120.58936,22.36637],[120.58557,22.36939],[120.57417,22.376],[120.57123,22.37805],[120.57075,22.3794],[120.56035,22.38607],[120.54016,22.3972],[120.54598,22.3974],[120.54586,22.39817],[120.55084,22.39626],[120.55313,22.4007],[120.55778,22.40193],[120.56174,22.40051],[120.56202,22.39932],[120.56365,22.39882],[120.56575,22.40173],[120.56581,22.40496],[120.56478,22.40916],[120.56333,22.41022],[120.56738,22.41094],[120.5762,22.41455],[120.56691,22.42945],[120.56908,22.43354],[120.56906,22.43831],[120.57074,22.44081],[120.57004,22.44323],[120.57123,22.44766],[120.57164,22.44854],[120.5729,22.44827],[120.57502,22.45579],[120.57659,22.45775],[120.57901,22.45641],[120.57964,22.45498]]]}},{"type":"Feature","properties":{"code":"10013170","name":"屏東縣新園鄉"},"geometry":{"type":"Polygon","coordinates":[[[120.47781,22.55827],[120.47766,22.55631],[120.48119,22.55588],[120.47895,22.54019],[120.47993,22.53976],[120.4795,22.53661],[120.473,22.53602],[120.47303,22.53532],[120.47432,22.53388],[120.47434,22.53107],[120.47548,22.53138],[120.47592,22.53472],[120.47854,22.53486],[120.4782,22.53104],[120.48442,22.52669],[120.48085,22.52433],[120.48007,22.52323],[120.48076,22.5217],[120.47616,22.52002],[120.47216,22.51727],[120.46763,22.51056],[120.46644,22.50688],[120.46561,22.50667],[120.46728,22.49955],[120.46745,22.497],[120.46647,22.49686],[120.46816,22.49298],[120.46855,22.48941],[120.4658,22.48416],[120.46187,22.47941],[120.45881,22.4773],[120.45076,22.47262],[120.44594,22.47153],[120.44411,22.46857],[120.43684,22.4653],[120.43498,22.46464],[120.4331,22.46836],[120.42443,22.46871],[120.42394,22.47995],[120.42573,22.49817],[120.42366,22.50652],[120.42286,22.51845],[120.42513,22.52847],[120.43114,22.54448],[120.43657,22.54756],[120.43834,22.55352],[120.44073,22.55762],[120.44899,22.55754],[120.45349,22.55797],[120.45832,22.5596],[120.46132,22.55974],[120.46113,22.55898],[120.47048,22.5604],[120.47117,22.56035],[120.46983,22.55802],[120.47663,22.56029],[120.47815,22.56208],[120.47781,22.55827]]]}},{"type":"Feature","properties":{"code":"10013190","name":"屏東縣林邊鄉"},"geometry":{"type":"Polygon","coordinates":[[[120.53713,22.46856],[120.54278,22.46788],[120.54004,22.46506],[120.54046,22.46288],[120.54148,22.4631],[120.53956,22.46156],[120.53525,22.45248],[120.53303,22.44963],[120.52738,22.44964],[120.52518,22.44821],[120.52427,22.44491],[120.52717,22.44351],[120.52595,22.44097],[120.52505,22.43006],[120.52149,22.42537],[120.51347,22.41906],[120.51031,22.41188],[120.50854,22.41215],[120.49557,22.41982],[120.48059,22.42686],[120.48277,22.43099],[120.48229,22.43181],[120.4833,22.43132],[120.48399,22.43324],[120.48725,22.43612],[120.49164,22.43422],[120.49209,22.43517],[120.49606,22.43607],[120.4986,22.44434],[120.50146,22.44813],[120.50341,22.44829],[120.50358,22.44973],[120.50174,22.44972],[120.4998,22.45151],[120.49963,22.4553],[120.49706,22.4557],[120.49956,22.46023],[120.50336,22.45996],[120.50813,22.46102],[120.50877,22.45879],[120.51179,22.45877],[120.51422,22.45965],[120.52876,22.46096],[120.52888,22.46426],[120.53479,22.46635],[120.53625,22.46712],[120.53626,22.46853],[120.53713,22.46856]]]}},{"type":"Feature","properties":{"code":"10013230","name":"屏東縣車城鄉"},"geometry":{"type":"Polygon","coordinates":[[[120.70383,22.14247],[120.70854,22.13228],[120.71506,22.12484],[120.71773,22.12319],[120.71843,22.12165],[120.71755,22.1158],[120.71546,22.11266],[120.71562,22.11154],[120.72122,22.11289],[120.72242,22.11496],[120.72394,22.11586],[120.72833,22.11611],[120.73187,22.11801],[120.73605,22.11827],[120.73828,22.11153],[120.73684,22.10387],[120.73943,22.09955],[120.7419,22.0993],[120.74527,22.09686],[120.74698,22.09854],[120.74853,22.09797],[120.74891,22.10181],[120.75493,22.10988],[120.7542,22.11252],[120.75591,22.11279],[120.76091,22.11187],[120.76833,22.10866],[120.77112,22.10876],[120.77744,22.10585],[120.77965,22.10587],[120.78061,22.10354],[120.78191,22.10404],[120.78609,22.10321],[120.79,22.10157],[120.79086,22.10003],[120.79289,22.1001],[120.79351,22.08951],[120.79572,22.08633],[120.79365,22.08454],[120.79376,22.08187],[120.79486,22.07958],[120.79486,22.07612],[120.79409,22.07477],[120.79546,22.06975],[120.7902,22.06117],[120.78759,22.05836],[120.78605,22.05472],[120.78604,22.05244],[120.78453,22.05041],[120.78046,22.05266],[120.77759,22.05317],[120.77658,22.05496],[120.77274,22.05485],[120.77094,22.05575],[120.77027,22.05672],[120.77322,22.06049],[120.76978,22.05974],[120.76439,22.06192],[120.76005,22.06086],[120.75336,22.06274],[120.75275,22.05993],[120.75027,22.05815],[120.75035,22.05453],[120.74756,22.05028],[120.74607,22.04928],[120.74337,22.04979],[120.74342,22.04788],[120.74029,22.04831],[120.73821,22.04771],[120.73327,22.05254],[120.73021,22.05138],[120.72749,22.05197],[120.72714,22.05377],[120.72425,22.05284],[120.722,22.0542],[120.7176,22.0545],[120.71758,22.05345],[120.71964,22.05249],[120.71878,22.05014],[120.71672,22.04986],[120.71584,22.05061],[120.71269,22.04955],[120.7105,22.04645],[120.70598,22.04448],[120.70566,22.04078],[120.70348,22.03949],[120.70152,22.03518],[120.69994,22.0339],[120.69506,22.03416],[120.69279,22.03578],[120.69084,22.03181],[120.69079,22.02571],[120.69329,22.01959],[120.69792,22.01235],[120.69837,22.00994],[120.69234,22.0096],[120.68893,22.01564],[120.68478,22.02562],[120.68714,22.03277],[120.69348,22.03983],[120.69385,22.04153],[120.6954,22.04188],[120.69616,22.04061],[120.69689,22.04094],[120.69644,22.04307],[120.69468,22.04333],[120.69543,22.04594],[120.69441,22.04826],[120.69757,22.05499],[120.69925,22.05607],[120.70223,22.05551],[120.70448,22.05604],[120.70594,22.05994],[120.70483,22.06785],[120.70573,22.07074],[120.70334,22.07832],[120.70064,22.08011],[120.6993,22.08279],[120.70131,22.08614],[120.70767,22.08793],[120.71272,22.09084],[120.71452,22.09078],[120.71533,22.09156],[120.71432,22.09196],[120.71538,22.09163],[120.71687,22.09331],[120.71563,22.09688],[120.71586,22.10483],[120.71516,22.1065],[120.7125,22.10834],[120.7131,22.11147],[120.71178,22.11462],[120.70969,22.11591],[120.71058,22.11726],[120.70905,22.12275],[120.70232,22.12984],[120.70206,22.13328],[120.69849,22.13682],[120.69803,22.13817],[120.69803,22.14244],[120.70383,22.14247]]]}},{"type":"Feature","properties":{"code":"10013240","name":"屏東縣滿州鄉"},"geometry":{"type":"Polygon","coordinates":[[[120.85242,22.14469],[120.8544,22.14527],[120.85792,22.14464],[120.85928,22.1432],[120.8645,22.14204],[120.86611,22.14064],[120.86866,22.14064],[120.86978,22.14154],[120.86926,22.14437],[120.87228,22.14482],[120.87323,22.14436],[120.87384,22.14158],[120.87629,22.142],[120.87809,22.14037],[120.88331,22.13945],[120.88419,22.13863],[120.88699,22.1411],[120.89294,22.14168],[120.89704,22.14405],[120.89579,22.13978],[120.89106,22.13464],[120.88786,22.1333],[120.88662,22.12805],[120.8875,22.12268],[120.88845,22.12206],[120.8883,22.11981],[120.89071,22.11489],[120.89066,22.11351],[120.89125,22.11391],[120.89171,22.11322],[120.89246,22.10974],[120.90067,22.1059],[120.90084,22.10497],[120.90204,22.1053],[120.90185,22.10428],[120.90042,22.10398],[120.8988,22.10099],[120.89822,22.0981],[120.89848,22.09461],[120.89914,22.09443],[120.89408,22.08861],[120.89296,22.06798],[120.89418,22.05598],[120.89392,22.04836],[120.89825,22.03914],[120.89969,22.03921],[120.89845,22.03865],[120.89931,22.03692],[120.90018,22.03679],[120.8997,22.03642],[120.90121,22.03437],[120.90106,22.03324],[120.88923,22.02576],[120.88715,22.02038],[120.88708,22.01645],[120.88373,22.01325],[120.87823,22.01071],[120.87929,22.00573],[120.87579,21.99885],[120.86728,21.99496],[120.86159,21.99082],[120.8558,21.98896],[120.85159,21.98905],[120.84669,21.98715],[120.84417,21.97932],[120.83945,21.97533],[120.83769,21.97482],[120.83439,21.97081],[120.83073,21.97116],[120.82777,21.97048],[120.82418,21.97493],[120.81852,21.97387],[120.8175,21.97636],[120.8152,21.97829],[120.8147,21.9805],[120.81372,21.98016],[120.81144,21.98129],[120.8049,21.98001],[120.7932,21.9822],[120.79007,21.97963],[120.78791,21.98079],[120.7844,21.97984],[120.78145,21.98034],[120.77448,21.97911],[120.77073,21.97945],[120.77014,21.98448],[120.7707,21.98583],[120.77343,21.98629],[120.77608,21.98989],[120.77964,21.99001],[120.78096,21.99194],[120.78093,21.9934],[120.78219,21.99424],[120.78249,21.99612],[120.78668,21.99843],[120.78556,22.00063],[120.78529,22.00439],[120.78591,22.00516],[120.78518,22.0097],[120.78295,22.01144],[120.78123,22.01449],[120.77763,22.01415],[120.77675,22.01718],[120.77367,22.02014],[120.77254,22.02374],[120.77455,22.02494],[120.77677,22.02376],[120.78114,22.02565],[120.78387,22.02447],[120.78491,22.02496],[120.78612,22.03053],[120.78939,22.03203],[120.79334,22.03744],[120.7919,22.03895],[120.792,22.04199],[120.7904,22.04479],[120.78417,22.04813],[120.78737,22.05794],[120.79464,22.06812],[120.79719,22.06427],[120.80016,22.06163],[120.80189,22.06068],[120.80379,22.0609],[120.80658,22.05931],[120.81071,22.06053],[120.8119,22.06305],[120.8145,22.06443],[120.81549,22.06822],[120.81691,22.06886],[120.81783,22.07045],[120.81802,22.07569],[120.81917,22.07645],[120.82115,22.07558],[120.82221,22.07649],[120.82064,22.08158],[120.81653,22.08582],[120.81766,22.08936],[120.82358,22.09019],[120.82688,22.09647],[120.82843,22.10334],[120.83303,22.10701],[120.83977,22.10959],[120.84324,22.11446],[120.84891,22.11625],[120.85336,22.12039],[120.8552,22.12322],[120.85409,22.1253],[120.85591,22.1277],[120.85656,22.13045],[120.85514,22.13181],[120.85492,22.13453],[120.85355,22.13557],[120.85306,22.13751],[120.84868,22.14228],[120.85054,22.14471],[120.85177,22.14534],[120.85242,22.14469]]]}},{"type":"Feature","properties":{"code":"10013250","name":"屏東縣枋山鄉"},"geometry":{"type":"Polygon","coordinates":[[[120.63627,22.35604],[120.64132,22.35523],[120.64078,22.35275],[120.64138,22.35187],[120.64047,22.35123],[120.63481,22.3516],[120.63053,22.3482],[120.62558,22.34604],[120.62461,22.34436],[120.62758,22.34355],[120.62716,22.34257],[120.62777,22.34166],[120.62913,22.34256],[120.63033,22.34173],[120.62893,22.34],[120.6291,22.33875],[120.63175,22.33175],[120.63262,22.33163],[120.63375,22.32536],[120.63645,22.32175],[120.63617,22.31789],[120.63955,22.31155],[120.6415,22.30908],[120.64585,22.31074],[120.64839,22.30974],[120.64815,22.30834],[120.64645,22.30767],[120.6465,22.30664],[120.64475,22.30499],[120.64588,22.29561],[120.6452,22.29407],[120.64546,22.28956],[120.64482,22.28919],[120.64908,22.27954],[120.65002,22.27479],[120.65289,22.2689],[120.65333,22.26595],[120.65712,22.26529],[120.65948,22.26664],[120.66126,22.26642],[120.66225,22.26596],[120.66196,22.26271],[120.66432,22.26315],[120.66593,22.26443],[120.67043,22.26406],[120.67253,22.26322],[120.67401,22.26067],[120.66897,22.26166],[120.66101,22.25811],[120.663,22.25576],[120.66865,22.24515],[120.67077,22.24375],[120.67125,22.2394],[120.66999,22.23776],[120.67489,22.22991],[120.67877,22.22799],[120.67663,22.22803],[120.67573,22.22703],[120.67617,22.22569],[120.67825,22.22434],[120.67759,22.2225],[120.67893,22.21914],[120.68296,22.21577],[120.6894,22.20782],[120.69086,22.20695],[120.69347,22.20702],[120.6959,22.20996],[120.7046,22.2113],[120.70746,22.21323],[120.71158,22.21215],[120.71752,22.2077],[120.70683,22.20636],[120.70513,22.20423],[120.70231,22.20414],[120.70342,22.20214],[120.7054,22.20097],[120.70419,22.19934],[120.70244,22.19907],[120.70063,22.2],[120.70094,22.2014],[120.69968,22.20229],[120.69533,22.19766],[120.6952,22.19565],[120.69712,22.19359],[120.69523,22.19244],[120.6967,22.19084],[120.69392,22.18644],[120.69457,22.1834],[120.69273,22.18144],[120.69537,22.17501],[120.69469,22.17105],[120.69655,22.16826],[120.69891,22.15854],[120.70151,22.1572],[120.70008,22.15741],[120.69937,22.15641],[120.69984,22.15446],[120.70055,22.15423],[120.70068,22.15123],[120.70187,22.15046],[120.70107,22.1499],[120.70139,22.14596],[120.69963,22.14205],[120.69802,22.14243],[120.69796,22.14337],[120.69974,22.1469],[120.69979,22.14913],[120.69459,22.15739],[120.69604,22.1604],[120.69547,22.16645],[120.6937,22.16793],[120.69381,22.17248],[120.69109,22.17509],[120.69157,22.17763],[120.68967,22.18658],[120.68554,22.19251],[120.68392,22.19742],[120.68424,22.20038],[120.68578,22.20321],[120.68478,22.21046],[120.68217,22.21439],[120.68037,22.21524],[120.6804,22.21682],[120.67833,22.21865],[120.67675,22.22274],[120.67399,22.2232],[120.67276,22.22482],[120.67224,22.2272],[120.67381,22.2292],[120.67188,22.23342],[120.67013,22.23537],[120.66771,22.23648],[120.666,22.23933],[120.66403,22.23928],[120.65792,22.24286],[120.65791,22.2471],[120.65016,22.25237],[120.64928,22.25575],[120.65056,22.26233],[120.65209,22.26567],[120.6521,22.26824],[120.65045,22.27049],[120.65067,22.27167],[120.648,22.28007],[120.64412,22.28756],[120.64389,22.29],[120.64271,22.29107],[120.64274,22.30162],[120.63755,22.30901],[120.63618,22.31278],[120.6305,22.31922],[120.60538,22.34073],[120.60641,22.34057],[120.61163,22.34345],[120.61213,22.34579],[120.61529,22.3484],[120.61774,22.34927],[120.61815,22.35055],[120.62365,22.35218],[120.62518,22.35364],[120.63108,22.35452],[120.63507,22.3566],[120.63627,22.35604]]]}},{"type":"Feature","properties":{"code":"10013330","name":"屏東縣牡丹鄉"},"geometry":{"type":"Polygon","coordinates":[[[120.89883,22.23474],[120.89927,22.23404],[120.89848,22.2317],[120.89913,22.23037],[120.89649,22.22848],[120.89417,22.2206],[120.8942,22.21646],[120.89596,22.20593],[120.89661,22.20561],[120.89641,22.20349],[120.89364,22.19796],[120.8907,22.19533],[120.89237,22.18542],[120.89228,22.18148],[120.89395,22.17771],[120.89357,22.17542],[120.89423,22.17256],[120.89209,22.16244],[120.89342,22.16041],[120.89397,22.15578],[120.89256,22.15032],[120.89699,22.14411],[120.89294,22.14168],[120.88699,22.1411],[120.88419,22.13863],[120.88331,22.13945],[120.87809,22.14037],[120.87629,22.142],[120.87384,22.14158],[120.87323,22.14436],[120.87228,22.14482],[120.86926,22.14437],[120.86978,22.14154],[120.86866,22.14064],[120.86611,22.14064],[120.8645,22.14204],[120.85959,22.14308],[120.85801,22.1446],[120.85607,22.14505],[120.85242,22.14469],[120.85177,22.14534],[120.85023,22.14446],[120.84872,22.14211],[120.85306,22.13751],[120.85355,22.13557],[120.85492,22.13453],[120.85514,22.13181],[120.85656,22.13045],[120.85591,22.1277],[120.85409,22.1253],[120.8552,22.12322],[120.85336,22.12039],[120.84891,22.11625],[120.84324,22.11446],[120.83977,22.10959],[120.83303,22.10701],[120.82843,22.10334],[120.82688,22.09647],[120.82358,22.09019],[120.81766,22.08936],[120.81653,22.08582],[120.82064,22.08158],[120.82221,22.07649],[120.82077,22.07551],[120.81917,22.07645],[120.81807,22.07576],[120.8178,22.07037],[120.81549,22.06822],[120.8145,22.06443],[120.8119,22.06305],[120.81071,22.06053],[120.80687,22.05928],[120.80372,22.06092],[120.80178,22.06072],[120.79728,22.06417],[120.79464,22.06812],[120.79546,22.0698],[120.79409,22.07477],[120.79486,22.07612],[120.79486,22.07958],[120.79376,22.08187],[120.79365,22.08454],[120.79572,22.08633],[120.79351,22.08951],[120.79289,22.1001],[120.79086,22.10003],[120.79,22.10157],[120.78609,22.10321],[120.78191,22.10404],[120.78061,22.10354],[120.77965,22.10587],[120.77744,22.10585],[120.77112,22.10876],[120.76833,22.10866],[120.76091,22.11187],[120.75591,22.11279],[120.7542,22.11252],[120.75493,22.10988],[120.74891,22.10181],[120.74853,22.09797],[120.74698,22.09854],[120.74527,22.09686],[120.7419,22.0993],[120.73924,22.09972],[120.73684,22.10387],[120.73828,22.11153],[120.73623,22.11659],[120.73661,22.12062],[120.73498,22.12941],[120.7355,22.13474],[120.73744,22.13976],[120.73631,22.14194],[120.73767,22.14488],[120.73715,22.14691],[120.73823,22.14814],[120.73816,22.1508],[120.73711,22.15309],[120.73742,22.1564],[120.73437,22.15931],[120.73285,22.16375],[120.73503,22.1681],[120.73262,22.17393],[120.73292,22.17494],[120.73638,22.17635],[120.73945,22.17501],[120.74266,22.17569],[120.74509,22.17723],[120.75029,22.17795],[120.75557,22.17664],[120.75895,22.17833],[120.76162,22.18171],[120.76225,22.18125],[120.76782,22.18453],[120.77047,22.18771],[120.77767,22.19145],[120.77995,22.19415],[120.78161,22.19395],[120.78634,22.19604],[120.78997,22.19573],[120.79288,22.19769],[120.79701,22.19782],[120.80275,22.20483],[120.80472,22.20374],[120.81131,22.20371],[120.8135,22.20474],[120.81506,22.20647],[120.81517,22.20791],[120.82411,22.20687],[120.82673,22.20915],[120.82906,22.20905],[120.83246,22.21141],[120.83362,22.21104],[120.83495,22.21209],[120.83794,22.21237],[120.83807,22.21353],[120.84819,22.21327],[120.85043,22.21152],[120.85618,22.21063],[120.85803,22.21129],[120.86061,22.20966],[120.86361,22.21041],[120.8637,22.2112],[120.8659,22.21114],[120.86691,22.21261],[120.86712,22.21583],[120.8652,22.21833],[120.86619,22.22025],[120.8678,22.22089],[120.86665,22.22498],[120.86765,22.22621],[120.86643,22.22982],[120.86867,22.23128],[120.87084,22.23139],[120.87153,22.23301],[120.87473,22.23425],[120.87909,22.23522],[120.88062,22.2347],[120.88403,22.24059],[120.89138,22.2443],[120.89224,22.24552],[120.89629,22.24643],[120.89883,22.23474]]]}},{"type":"Feature","properties":{"code":"10013040","name":"屏東縣恆春鎮"},"geometry":{"type":"Polygon","coordinates":[[[120.75995,22.06087],[120.76428,22.06194],[120.76867,22.05992],[120.77322,22.06049],[120.77027,22.05672],[120.77094,22.05575],[120.77274,22.05485],[120.77658,22.05496],[120.77759,22.05317],[120.78046,22.05266],[120.78451,22.05046],[120.78417,22.04813],[120.78631,22.04653],[120.78898,22.04609],[120.79056,22.04459],[120.792,22.04199],[120.7919,22.03895],[120.79337,22.03765],[120.78939,22.03203],[120.78612,22.03053],[120.78491,22.02496],[120.78387,22.02447],[120.78114,22.02565],[120.77677,22.02376],[120.77455,22.02494],[120.77258,22.02394],[120.77352,22.02043],[120.77675,22.01718],[120.77763,22.01415],[120.78123,22.01449],[120.78295,22.01144],[120.78518,22.0097],[120.78591,22.00516],[120.78529,22.00439],[120.78556,22.00063],[120.78669,21.99849],[120.78249,21.99612],[120.78219,21.99424],[120.78093,21.9934],[120.78096,21.99194],[120.77964,21.99001],[120.77608,21.98989],[120.77343,21.98629],[120.7707,21.98583],[120.77014,21.98448],[120.77073,21.97945],[120.77448,21.97911],[120.78145,21.98034],[120.7844,21.97984],[120.78791,21.98079],[120.79007,21.97963],[120.7932,21.9822],[120.8049,21.98001],[120.81144,21.98129],[120.81372,21.98016],[120.8147,21.9805],[120.8152,21.97829],[120.8175,21.97636],[120.81852,21.97387],[120.82429,21.9749],[120.82563,21.97249],[120.8283,21.97036],[120.83073,21.97116],[120.83439,21.97081],[120.83769,21.97482],[120.83945,21.97533],[120.84417,21.97932],[120.84548,21.97636],[120.84452,21.9738],[120.84485,21.97032],[120.84138,21.95738],[120.84295,21.95424],[120.84233,21.95132],[120.84276,21.94772],[120.84874,21.93603],[120.84892,21.93381],[120.85425,21.92945],[120.85955,21.92109],[120.86201,21.9189],[120.86292,21.91377],[120.86202,21.90895],[120.86334,21.9056],[120.86713,21.90273],[120.86689,21.90055],[120.86492,21.89817],[120.8586,21.8956],[120.85325,21.89562],[120.85114,21.89636],[120.8479,21.89994],[120.84661,21.90291],[120.84563,21.91442],[120.83625,21.91652],[120.83448,21.9187],[120.83184,21.9248],[120.83022,21.92532],[120.82373,21.93105],[120.82222,21.93436],[120.81956,21.935],[120.81263,21.93354],[120.80822,21.93559],[120.80422,21.93962],[120.80293,21.93984],[120.80179,21.93723],[120.79915,21.93741],[120.79663,21.94218],[120.79431,21.94316],[120.78472,21.94403],[120.78302,21.94354],[120.7776,21.94928],[120.77421,21.94989],[120.77107,21.95153],[120.76634,21.95763],[120.76645,21.95867],[120.76468,21.95913],[120.76139,21.95887],[120.76062,21.95723],[120.75855,21.95631],[120.75755,21.95739],[120.75597,21.95669],[120.75583,21.95568],[120.75509,21.95643],[120.75316,21.95523],[120.7533,21.95367],[120.7549,21.95382],[120.75267,21.95075],[120.75113,21.95085],[120.74844,21.94946],[120.74902,21.945],[120.74847,21.94181],[120.74717,21.94189],[120.74602,21.94338],[120.74517,21.94273],[120.74544,21.93834],[120.74685,21.93427],[120.74612,21.93275],[120.74709,21.93181],[120.74571,21.93116],[120.74536,21.93238],[120.74405,21.93221],[120.74338,21.92892],[120.73996,21.92664],[120.73962,21.91943],[120.73401,21.91853],[120.73251,21.9191],[120.72872,21.91831],[120.72681,21.91877],[120.72335,21.92147],[120.71903,21.92726],[120.71906,21.93314],[120.71633,21.93487],[120.71265,21.93331],[120.71058,21.93411],[120.70993,21.94148],[120.71143,21.95166],[120.71152,21.96392],[120.71503,21.97114],[120.71414,21.97876],[120.71006,21.98564],[120.70694,21.9875],[120.70559,21.99355],[120.70469,21.99469],[120.70069,21.996],[120.69383,22.00259],[120.69234,22.0096],[120.69833,22.01034],[120.69792,22.01235],[120.69329,22.01959],[120.69079,22.02571],[120.69089,22.03198],[120.6929,22.03587],[120.69473,22.03426],[120.69768,22.03357],[120.69988,22.03387],[120.70152,22.03518],[120.70342,22.03941],[120.70566,22.04078],[120.70598,22.04448],[120.7105,22.04645],[120.71269,22.04955],[120.71584,22.05061],[120.71672,22.04986],[120.71878,22.05014],[120.71964,22.05249],[120.71758,22.05345],[120.7176,22.0545],[120.722,22.0542],[120.72425,22.05284],[120.72714,22.05377],[120.72749,22.05197],[120.73021,22.05138],[120.73327,22.05254],[120.73821,22.04771],[120.74029,22.04831],[120.74342,22.04788],[120.74337,22.04979],[120.74607,22.04928],[120.74756,22.05028],[120.75035,22.05453],[120.75027,22.05815],[120.75275,22.05993],[120.75336,22.06274],[120.75995,22.06087]]]}}]}