{"type":"FeatureCollection","source":"https://data.gov.tw/dataset/7441 鄉鎮市區界線(TWD97經緯度)","agency":"內政部國土測繪中心","license":"政府資料開放授權條款第1版","generatedBy":"scripts/build-geo.py","features":[{"type":"Feature","properties":{"code":"10017030","name":"基隆市暖暖區"},"geometry":{"type":"Polygon","coordinates":[[[121.73398,25.11342],[121.73776,25.11331],[121.73897,25.11141],[121.73918,25.1067],[121.74013,25.1062],[121.74221,25.10688],[121.74555,25.10594],[121.74918,25.1097],[121.75274,25.10684],[121.7539,25.10867],[121.75485,25.10878],[121.75741,25.10663],[121.75805,25.10343],[121.7567,25.10275],[121.7568,25.10182],[121.75989,25.10062],[121.75947,25.09636],[121.75836,25.09413],[121.75982,25.09024],[121.75912,25.08461],[121.76003,25.08102],[121.7616,25.07842],[121.76709,25.07877],[121.76952,25.07783],[121.7757,25.07],[121.77305,25.06684],[121.77173,25.06321],[121.77001,25.06349],[121.76735,25.06182],[121.76481,25.05954],[121.76403,25.05744],[121.76244,25.05694],[121.75929,25.05945],[121.75688,25.05934],[121.75555,25.05825],[121.75115,25.05726],[121.74818,25.05505],[121.74761,25.05371],[121.74312,25.05247],[121.7398,25.05306],[121.7375,25.05476],[121.73211,25.05271],[121.72822,25.05496],[121.72932,25.06067],[121.72786,25.06237],[121.72832,25.06574],[121.72357,25.07706],[121.72392,25.08044],[121.72478,25.08195],[121.72664,25.08281],[121.72555,25.0855],[121.72552,25.08903],[121.72911,25.0914],[121.72918,25.09271],[121.72689,25.09574],[121.72392,25.09609],[121.71961,25.099],[121.71956,25.10046],[121.72411,25.10249],[121.72691,25.1094],[121.72958,25.1111],[121.73047,25.11311],[121.73398,25.11342]]]}},{"type":"Feature","properties":{"code":"10017020","name":"基隆市七堵區"},"geometry":{"type":"Polygon","coordinates":[[[121.67625,25.15548],[121.6776,25.15573],[121.67777,25.15471],[121.67969,25.15439],[121.67966,25.15181],[121.68216,25.15097],[121.6822,25.14794],[121.68113,25.14569],[121.686,25.14353],[121.68886,25.13974],[121.69568,25.13694],[121.69775,25.13376],[121.70007,25.13393],[121.70038,25.12879],[121.70264,25.12636],[121.70303,25.12107],[121.70824,25.12171],[121.71096,25.1179],[121.71342,25.11622],[121.71414,25.11683],[121.71596,25.1154],[121.71866,25.11577],[121.72076,25.11366],[121.72111,25.11192],[121.72434,25.11199],[121.72441,25.11324],[121.72616,25.11445],[121.72639,25.11588],[121.73047,25.11311],[121.72958,25.1111],[121.72691,25.1094],[121.72411,25.10249],[121.71956,25.10046],[121.71961,25.099],[121.72392,25.09609],[121.72689,25.09574],[121.72918,25.09271],[121.72911,25.0914],[121.72552,25.08903],[121.72555,25.0855],[121.72664,25.08281],[121.72478,25.08195],[121.72392,25.08044],[121.72357,25.07706],[121.72832,25.06574],[121.72786,25.06237],[121.72932,25.06067],[121.72822,25.05496],[121.72621,25.05812],[121.72248,25.05858],[121.72199,25.06011],[121.7191,25.06152],[121.71782,25.06382],[121.71237,25.06803],[121.70661,25.06655],[121.70421,25.06794],[121.69952,25.06739],[121.69654,25.07009],[121.69207,25.07031],[121.69024,25.0717],[121.68842,25.07174],[121.6815,25.07704],[121.68031,25.0771],[121.67897,25.07958],[121.68049,25.08188],[121.67993,25.08433],[121.68164,25.08472],[121.68121,25.08802],[121.67881,25.0874],[121.67403,25.08292],[121.66791,25.08576],[121.6646,25.08928],[121.6618,25.0894],[121.66091,25.09089],[121.6557,25.09345],[121.65586,25.09514],[121.65072,25.09845],[121.65044,25.10044],[121.64893,25.10176],[121.65015,25.10332],[121.65188,25.1035],[121.65222,25.10474],[121.65024,25.10955],[121.64617,25.1138],[121.64569,25.11903],[121.64624,25.12105],[121.64472,25.12213],[121.6449,25.12337],[121.64318,25.12768],[121.63846,25.13069],[121.63314,25.13099],[121.63255,25.1324],[121.62818,25.13533],[121.6268,25.13974],[121.6309,25.14253],[121.63453,25.14389],[121.63856,25.14419],[121.63982,25.14584],[121.6422,25.14493],[121.64568,25.14582],[121.64962,25.14489],[121.65146,25.14796],[121.65554,25.14905],[121.65828,25.15223],[121.66427,25.15222],[121.66912,25.15335],[121.66963,25.15462],[121.67147,25.15556],[121.67625,25.15548]]]}},{"type":"Feature","properties":{"code":"10017040","name":"基隆市仁愛區"},"geometry":{"type":"Polygon","coordinates":[[[121.74758,25.12879],[121.75371,25.1281],[121.75551,25.12527],[121.75192,25.11883],[121.75274,25.11841],[121.75144,25.11445],[121.75183,25.11101],[121.74788,25.10893],[121.74555,25.10594],[121.74221,25.10688],[121.74013,25.1062],[121.73918,25.1067],[121.73897,25.11141],[121.73776,25.11331],[121.73196,25.11349],[121.73478,25.11929],[121.73473,25.12063],[121.73355,25.12182],[121.73321,25.12619],[121.73526,25.12915],[121.73753,25.12879],[121.73797,25.131],[121.74105,25.13571],[121.74349,25.13451],[121.74199,25.13179],[121.74758,25.12879]]]}},{"type":"Feature","properties":{"code":"10017070","name":"基隆市信義區"},"geometry":{"type":"Polygon","coordinates":[[[121.78102,25.14479],[121.78308,25.14152],[121.7827,25.13875],[121.78432,25.13678],[121.78467,25.13378],[121.78978,25.13224],[121.79174,25.12926],[121.79444,25.12715],[121.79421,25.12335],[121.79884,25.11933],[121.79758,25.11772],[121.79863,25.11666],[121.79777,25.11431],[121.79569,25.11374],[121.79468,25.11257],[121.79237,25.11287],[121.79035,25.11219],[121.78592,25.11819],[121.78338,25.11661],[121.77603,25.11862],[121.77339,25.12026],[121.77193,25.11906],[121.76973,25.11497],[121.76691,25.11252],[121.76329,25.11344],[121.76145,25.11239],[121.75939,25.11259],[121.75714,25.11012],[121.75183,25.11101],[121.75144,25.11445],[121.75274,25.11841],[121.75192,25.11883],[121.75552,25.12522],[121.75371,25.1281],[121.74806,25.12864],[121.74625,25.1295],[121.74786,25.13212],[121.75217,25.13375],[121.75757,25.134],[121.76312,25.13671],[121.76687,25.13558],[121.76834,25.13626],[121.76947,25.13524],[121.77216,25.13727],[121.77655,25.1442],[121.78102,25.14479]]]}},{"type":"Feature","properties":{"code":"10017010","name":"基隆市中正區"},"geometry":{"type":"MultiPolygon","coordinates":[[[[121.76358,25.16373],[121.76662,25.16304],[121.76743,25.16241],[121.76666,25.16189],[121.76892,25.16214],[121.77065,25.16015],[121.77289,25.16088],[121.78036,25.15878],[121.77682,25.15891],[121.77667,25.15798],[121.7727,25.15559],[121.7738,25.15536],[121.77455,25.15626],[121.77769,25.15147],[121.77986,25.15321],[121.78198,25.15274],[121.78395,25.15164],[121.78507,25.14955],[121.78916,25.14816],[121.79143,25.14838],[121.7932,25.14687],[121.79491,25.14684],[121.79534,25.14806],[121.7994,25.14742],[121.80725,25.14899],[121.80815,25.14774],[121.80786,25.14649],[121.80437,25.14429],[121.80387,25.14312],[121.80461,25.14259],[121.80309,25.14195],[121.80369,25.14114],[121.80244,25.14064],[121.8032,25.14053],[121.80431,25.13799],[121.80253,25.13433],[121.80403,25.13345],[121.80545,25.13037],[121.80532,25.12912],[121.80378,25.12745],[121.80502,25.12533],[121.80301,25.12204],[121.80227,25.1218],[121.79981,25.12312],[121.79911,25.12435],[121.79461,25.12639],[121.78978,25.13224],[121.78477,25.13365],[121.78432,25.13678],[121.7827,25.13875],[121.78308,25.14152],[121.78066,25.14501],[121.77655,25.1442],[121.77216,25.13727],[121.76947,25.13524],[121.76834,25.13626],[121.76687,25.13558],[121.76277,25.13663],[121.75757,25.134],[121.75217,25.13375],[121.74877,25.13258],[121.74624,25.12951],[121.74199,25.13179],[121.74566,25.13786],[121.75316,25.14266],[121.75542,25.14571],[121.75663,25.15112],[121.75338,25.15927],[121.75487,25.16229],[121.75557,25.16218],[121.75616,25.15952],[121.75766,25.15979],[121.75797,25.16091],[121.75996,25.16126],[121.76032,25.1604],[121.76195,25.16027],[121.76256,25.16159],[121.76165,25.16223],[121.76363,25.16255],[121.76231,25.16336],[121.76358,25.16373]]],[[[121.7881,25.19568],[121.78943,25.19517],[121.78892,25.19207],[121.78296,25.18967],[121.78162,25.19003],[121.7824,25.19301],[121.78456,25.19494],[121.7881,25.19568]]],[[[122.10697,25.48736],[122.10821,25.48683],[122.10695,25.48519],[122.10781,25.48388],[122.10518,25.48201],[122.10351,25.48348],[122.10327,25.48602],[122.10453,25.48599],[122.10448,25.48733],[122.10525,25.48777],[122.10697,25.48736]]],[[[122.07836,25.63314],[122.08396,25.63319],[122.08506,25.63034],[122.08442,25.62745],[122.08098,25.62539],[122.08187,25.62466],[122.08165,25.62368],[122.07922,25.62297],[122.07729,25.62361],[122.0769,25.62519],[122.07591,25.62471],[122.07568,25.62544],[122.07527,25.62499],[122.0752,25.62563],[122.073,25.62641],[122.07203,25.62853],[122.07366,25.63249],[122.07836,25.63314]]]]}},{"type":"Feature","properties":{"code":"10017050","name":"基隆市中山區"},"geometry":{"type":"Polygon","coordinates":[[[121.71738,25.16627],[121.72366,25.16517],[121.72468,25.16578],[121.72684,25.16425],[121.73028,25.164],[121.7351,25.16017],[121.73404,25.1594],[121.73425,25.15863],[121.7336,25.15903],[121.73417,25.15818],[121.73852,25.16101],[121.74398,25.15686],[121.74352,25.15648],[121.74431,25.15699],[121.74399,25.15749],[121.7453,25.15681],[121.74707,25.15726],[121.7485,25.15625],[121.75338,25.15927],[121.75666,25.15086],[121.75487,25.1446],[121.75205,25.14177],[121.74589,25.13808],[121.74349,25.13451],[121.74105,25.13571],[121.73797,25.131],[121.73753,25.12879],[121.73678,25.12907],[121.73499,25.13091],[121.73481,25.13373],[121.73127,25.13762],[121.72633,25.14159],[121.72447,25.14217],[121.72316,25.14129],[121.72273,25.13991],[121.72127,25.14164],[121.72092,25.13936],[121.71604,25.1435],[121.7149,25.14786],[121.71248,25.14889],[121.71194,25.15215],[121.71078,25.15311],[121.7114,25.15462],[121.70985,25.15853],[121.71503,25.16127],[121.71272,25.16603],[121.71576,25.16609],[121.71698,25.16732],[121.71738,25.16627]]]}},{"type":"Feature","properties":{"code":"10017060","name":"基隆市安樂區"},"geometry":{"type":"Polygon","coordinates":[[[121.71016,25.17604],[121.70996,25.17414],[121.70882,25.17379],[121.70847,25.17268],[121.71009,25.17002],[121.7082,25.16888],[121.70867,25.16756],[121.70725,25.16603],[121.71117,25.16492],[121.71263,25.16569],[121.71506,25.16234],[121.71415,25.16036],[121.70985,25.15853],[121.7114,25.15462],[121.71078,25.15311],[121.71194,25.15215],[121.71248,25.14889],[121.7149,25.14786],[121.71604,25.1435],[121.72092,25.13936],[121.72127,25.14164],[121.72273,25.13991],[121.72316,25.14129],[121.72447,25.14217],[121.72633,25.14159],[121.73127,25.13762],[121.73481,25.13373],[121.73499,25.13091],[121.73641,25.1293],[121.73513,25.12905],[121.73321,25.12619],[121.73355,25.12182],[121.73473,25.12063],[121.73478,25.11929],[121.73257,25.1142],[121.73137,25.11326],[121.73047,25.11311],[121.72639,25.11588],[121.72616,25.11445],[121.72441,25.11324],[121.72434,25.11199],[121.72111,25.11192],[121.72076,25.11366],[121.71866,25.11577],[121.71596,25.1154],[121.71414,25.11683],[121.71342,25.11622],[121.71096,25.1179],[121.70824,25.12171],[121.70303,25.12107],[121.70264,25.12636],[121.70038,25.12879],[121.70007,25.13393],[121.69775,25.13376],[121.69568,25.13694],[121.68886,25.13974],[121.686,25.14353],[121.68113,25.14569],[121.6822,25.14794],[121.68216,25.15097],[121.67966,25.15181],[121.67969,25.15439],[121.67764,25.15481],[121.6784,25.15743],[121.68102,25.15917],[121.68273,25.15936],[121.68318,25.16065],[121.68483,25.1601],[121.68728,25.16156],[121.68883,25.16409],[121.69102,25.16465],[121.69129,25.16632],[121.69895,25.16722],[121.69905,25.16886],[121.70091,25.16923],[121.70225,25.17352],[121.70661,25.17396],[121.70966,25.17656],[121.71016,25.17604]]]}}]}