{"type":"FeatureCollection","source":"https://data.gov.tw/dataset/7441 鄉鎮市區界線(TWD97經緯度)","agency":"內政部國土測繪中心","license":"政府資料開放授權條款第1版","generatedBy":"scripts/build-geo.py","features":[{"type":"Feature","properties":{"code":"10018020","name":"新竹市北區"},"geometry":{"type":"Polygon","coordinates":[[[120.93012,24.85301],[120.9346,24.85256],[120.94045,24.84996],[120.94316,24.8465],[120.94482,24.84107],[120.95529,24.83436],[120.96264,24.83255],[120.96832,24.83244],[120.97503,24.82991],[120.97827,24.82974],[120.98137,24.83122],[120.98309,24.83093],[120.98543,24.82939],[120.98769,24.82556],[120.99105,24.82402],[120.98675,24.82219],[120.97885,24.8243],[120.97846,24.82233],[120.98097,24.81599],[120.98026,24.81536],[120.97722,24.81621],[120.97386,24.81511],[120.97011,24.8159],[120.97035,24.81472],[120.96825,24.81294],[120.96992,24.81094],[120.96884,24.80843],[120.97022,24.80664],[120.96393,24.80182],[120.96485,24.8012],[120.96277,24.79936],[120.96363,24.7986],[120.96309,24.798],[120.96452,24.79696],[120.9618,24.79625],[120.9588,24.79679],[120.95915,24.79482],[120.96239,24.7919],[120.96384,24.79169],[120.9644,24.7901],[120.96308,24.78936],[120.96099,24.79011],[120.9601,24.78913],[120.96016,24.7864],[120.9594,24.78513],[120.95515,24.78464],[120.95414,24.78825],[120.94972,24.79159],[120.95366,24.79453],[120.95702,24.79896],[120.95382,24.80091],[120.95059,24.8017],[120.94692,24.80121],[120.94501,24.80258],[120.9439,24.80509],[120.94324,24.80509],[120.94332,24.80702],[120.94573,24.80682],[120.94671,24.80932],[120.94497,24.81113],[120.94329,24.81113],[120.94329,24.81305],[120.94085,24.8134],[120.93898,24.81485],[120.93808,24.81649],[120.93999,24.81859],[120.93983,24.81957],[120.93034,24.82493],[120.92269,24.82584],[120.92015,24.8248],[120.90577,24.82851],[120.91004,24.83519],[120.91313,24.83655],[120.91576,24.84113],[120.91553,24.84581],[120.91676,24.84875],[120.91324,24.85192],[120.91297,24.85408],[120.91639,24.8528],[120.92523,24.85481],[120.93012,24.85301]]]}},{"type":"Feature","properties":{"code":"10018030","name":"新竹市香山區"},"geometry":{"type":"Polygon","coordinates":[[[120.91948,24.82499],[120.92269,24.82584],[120.92506,24.82515],[120.92621,24.82583],[120.93034,24.82493],[120.93983,24.81957],[120.93999,24.81859],[120.93808,24.81649],[120.93898,24.81485],[120.94085,24.8134],[120.94329,24.81305],[120.94329,24.81113],[120.94497,24.81113],[120.94671,24.80932],[120.94573,24.80682],[120.94332,24.80702],[120.94324,24.80509],[120.9439,24.80509],[120.94501,24.80258],[120.94692,24.80121],[120.95059,24.8017],[120.95382,24.80091],[120.95702,24.79896],[120.95366,24.79453],[120.94972,24.79159],[120.95414,24.78825],[120.95503,24.78474],[120.95773,24.78383],[120.95953,24.77938],[120.96146,24.77756],[120.96041,24.77621],[120.96065,24.76774],[120.96139,24.76703],[120.96327,24.7679],[120.96372,24.76536],[120.96108,24.76084],[120.9596,24.76029],[120.95811,24.75714],[120.95804,24.75629],[120.95953,24.7555],[120.95901,24.75351],[120.96078,24.75088],[120.95863,24.74924],[120.95729,24.74938],[120.95762,24.74535],[120.9541,24.74342],[120.94893,24.74445],[120.94811,24.74523],[120.9457,24.74525],[120.94394,24.74398],[120.94321,24.73904],[120.94178,24.73728],[120.94169,24.73501],[120.93986,24.73274],[120.94233,24.73044],[120.94182,24.72856],[120.94062,24.72843],[120.93895,24.72976],[120.93801,24.72942],[120.93894,24.72768],[120.93783,24.72724],[120.93927,24.72542],[120.93829,24.7216],[120.93863,24.71661],[120.93603,24.71469],[120.93543,24.71259],[120.93158,24.71426],[120.93031,24.71662],[120.92884,24.71529],[120.92512,24.71545],[120.92364,24.71455],[120.92059,24.71673],[120.91769,24.71622],[120.91367,24.71733],[120.91628,24.72153],[120.9138,24.7242],[120.91418,24.72706],[120.91207,24.73231],[120.90851,24.73651],[120.90867,24.74011],[120.90781,24.74107],[120.90587,24.74068],[120.89743,24.73346],[120.89379,24.73233],[120.89235,24.73316],[120.89104,24.73177],[120.88746,24.73387],[120.8848,24.73279],[120.88357,24.73453],[120.88104,24.73329],[120.87454,24.73832],[120.87777,24.74259],[120.88263,24.74647],[120.89319,24.76136],[120.89778,24.76468],[120.89676,24.76806],[120.89515,24.76558],[120.89481,24.76772],[120.89297,24.76897],[120.89268,24.77318],[120.89175,24.77326],[120.89137,24.77478],[120.89321,24.78078],[120.89211,24.79193],[120.89265,24.79436],[120.89615,24.80082],[120.89695,24.80922],[120.90281,24.82407],[120.90577,24.82851],[120.91948,24.82499]]]}},{"type":"Feature","properties":{"code":"10018010","name":"新竹市東區"},"geometry":{"type":"Polygon","coordinates":[[[120.97885,24.8243],[120.98675,24.82219],[120.99105,24.82402],[121.00039,24.82206],[121.00828,24.81621],[121.01514,24.80856],[121.01816,24.80735],[121.02141,24.80152],[121.02574,24.79907],[121.02061,24.79881],[121.02315,24.79605],[121.02062,24.7941],[121.02181,24.79045],[121.02335,24.79064],[121.02459,24.78907],[121.02432,24.78756],[121.02509,24.78624],[121.02305,24.7851],[121.02752,24.78271],[121.02675,24.7809],[121.02495,24.77999],[121.02614,24.77888],[121.02795,24.77881],[121.02766,24.77705],[121.0297,24.77701],[121.02816,24.77316],[121.03038,24.77204],[121.02927,24.7709],[121.02989,24.76647],[121.03307,24.76489],[121.03354,24.76389],[121.03263,24.7619],[121.03052,24.76115],[121.02827,24.75835],[121.02366,24.75679],[121.0204,24.75671],[121.01834,24.7638],[121.01695,24.76486],[121.01702,24.76581],[121.0136,24.7709],[121.00971,24.77379],[121.00545,24.77478],[120.99944,24.77839],[120.99316,24.7806],[120.99028,24.77689],[120.98818,24.77742],[120.98476,24.77592],[120.98838,24.76807],[120.98666,24.76842],[120.98197,24.76743],[120.97942,24.76329],[120.97713,24.76311],[120.97657,24.76441],[120.97495,24.76403],[120.97442,24.765],[120.97302,24.76422],[120.97099,24.76574],[120.96984,24.76516],[120.96755,24.76059],[120.96741,24.75646],[120.96282,24.75501],[120.96146,24.75122],[120.96078,24.75088],[120.95998,24.7518],[120.95901,24.75351],[120.95953,24.7555],[120.95804,24.75629],[120.95811,24.75714],[120.9596,24.76029],[120.96108,24.76084],[120.96372,24.76536],[120.96327,24.7679],[120.96139,24.76703],[120.96065,24.76774],[120.96041,24.77621],[120.96146,24.77756],[120.95953,24.77938],[120.95815,24.78336],[120.95621,24.78456],[120.9594,24.78513],[120.96016,24.7864],[120.9601,24.78913],[120.96099,24.79011],[120.96308,24.78936],[120.9644,24.7901],[120.96384,24.79169],[120.96239,24.7919],[120.95915,24.79482],[120.9588,24.79679],[120.9618,24.79625],[120.96452,24.79696],[120.96309,24.798],[120.96363,24.7986],[120.96277,24.79936],[120.96485,24.8012],[120.96393,24.80182],[120.97022,24.80664],[120.96884,24.80843],[120.96992,24.81094],[120.96825,24.81294],[120.97035,24.81472],[120.97011,24.8159],[120.97386,24.81511],[120.97722,24.81621],[120.98026,24.81536],[120.98097,24.81599],[120.97846,24.82233],[120.97885,24.8243]]]}}]}