{"type":"FeatureCollection","source":"https://data.gov.tw/dataset/7441 鄉鎮市區界線(TWD97經緯度)","agency":"內政部國土測繪中心","license":"政府資料開放授權條款第1版","generatedBy":"scripts/build-geo.py","features":[{"type":"Feature","properties":{"code":"10014020","name":"臺東縣成功鎮"},"geometry":{"type":"Polygon","coordinates":[[[121.36149,23.229],[121.36537,23.22932],[121.36834,23.22674],[121.36957,23.22718],[121.37165,23.22647],[121.37369,23.22718],[121.37864,23.22636],[121.38255,23.22764],[121.3831,23.22657],[121.38448,23.22696],[121.38723,23.22526],[121.38636,23.22363],[121.38689,23.22303],[121.39141,23.22301],[121.3924,23.22198],[121.39409,23.2224],[121.3967,23.2217],[121.39753,23.22369],[121.4003,23.22133],[121.40125,23.22293],[121.40252,23.22148],[121.40383,23.22242],[121.40381,23.22083],[121.40571,23.21871],[121.40539,23.21761],[121.40669,23.2171],[121.40621,23.21516],[121.40996,23.21352],[121.40932,23.21402],[121.4079,23.21285],[121.40478,23.21308],[121.40243,23.21192],[121.40018,23.20872],[121.39813,23.20797],[121.3962,23.20112],[121.39646,23.19588],[121.39872,23.18455],[121.39995,23.18218],[121.40389,23.17809],[121.40394,23.17649],[121.4027,23.17422],[121.40294,23.17182],[121.40682,23.17028],[121.40775,23.16684],[121.40759,23.16228],[121.405,23.15411],[121.40308,23.1513],[121.40038,23.15069],[121.39944,23.14898],[121.39997,23.14699],[121.40109,23.14605],[121.3998,23.13512],[121.40418,23.12722],[121.41115,23.12398],[121.41368,23.12409],[121.41713,23.12701],[121.42089,23.12685],[121.42315,23.12776],[121.42474,23.12635],[121.42415,23.12491],[121.42161,23.12446],[121.41849,23.12269],[121.41545,23.12338],[121.41409,23.12274],[121.4131,23.12367],[121.41167,23.12329],[121.41247,23.12236],[121.40762,23.11648],[121.40291,23.11378],[121.40096,23.11349],[121.39752,23.11457],[121.39516,23.11343],[121.39161,23.10828],[121.38862,23.10572],[121.38741,23.1056],[121.38762,23.10231],[121.38531,23.10087],[121.38429,23.09852],[121.38503,23.09761],[121.38294,23.09549],[121.37507,23.09652],[121.37104,23.09578],[121.36665,23.09645],[121.36144,23.09158],[121.35784,23.08541],[121.35802,23.08255],[121.35508,23.07966],[121.35671,23.07377],[121.35415,23.07143],[121.35284,23.07134],[121.35268,23.07024],[121.34813,23.06463],[121.34651,23.05893],[121.34588,23.05111],[121.34371,23.04833],[121.34412,23.04638],[121.3433,23.04365],[121.34164,23.04244],[121.33853,23.0333],[121.33824,23.02926],[121.33951,23.02872],[121.33916,23.02591],[121.33661,23.02522],[121.33504,23.02293],[121.33515,23.02182],[121.33719,23.02011],[121.33442,23.01829],[121.33037,23.01699],[121.32873,23.0152],[121.32743,23.00966],[121.32834,23.00924],[121.32732,23.00711],[121.32532,23.00468],[121.32323,23.00485],[121.32191,23.00176],[121.32161,22.99715],[121.32376,22.99389],[121.32067,22.98969],[121.31488,22.97849],[121.3111,22.97442],[121.30456,22.97603],[121.30041,22.97849],[121.2988,22.98204],[121.29956,22.9841],[121.30547,22.98782],[121.30827,22.99173],[121.30823,22.99282],[121.30499,22.99152],[121.30113,22.9912],[121.29732,22.98698],[121.29504,22.98677],[121.29784,22.9905],[121.29887,22.99524],[121.307,23.00115],[121.30733,23.00302],[121.30513,23.00684],[121.30475,23.00923],[121.30262,23.01158],[121.30323,23.01338],[121.30232,23.01591],[121.30283,23.0192],[121.30634,23.02401],[121.30824,23.02437],[121.30852,23.02705],[121.31343,23.03171],[121.31218,23.03566],[121.31339,23.03705],[121.30995,23.0436],[121.31353,23.04729],[121.31343,23.04848],[121.31453,23.0498],[121.3168,23.05094],[121.31641,23.05287],[121.31462,23.05405],[121.31728,23.05549],[121.31855,23.05971],[121.31764,23.06354],[121.31579,23.06367],[121.31308,23.06638],[121.31336,23.07008],[121.31575,23.074],[121.31556,23.07846],[121.31397,23.08218],[121.31632,23.08577],[121.31615,23.08854],[121.31769,23.0897],[121.31697,23.09512],[121.31473,23.10005],[121.31412,23.10582],[121.31595,23.11047],[121.31962,23.11366],[121.32197,23.11717],[121.32294,23.12377],[121.32153,23.12929],[121.32213,23.13209],[121.32035,23.13783],[121.32381,23.1433],[121.32333,23.14474],[121.32447,23.14659],[121.3244,23.14898],[121.3272,23.15219],[121.3246,23.15469],[121.32209,23.15526],[121.32137,23.15914],[121.3173,23.16497],[121.31856,23.16819],[121.32186,23.1694],[121.32221,23.17323],[121.32393,23.17479],[121.32396,23.17813],[121.3233,23.17873],[121.32837,23.17929],[121.32974,23.18037],[121.33124,23.17888],[121.33493,23.17793],[121.33531,23.1813],[121.33679,23.18247],[121.33637,23.18382],[121.33787,23.18533],[121.33758,23.18839],[121.33826,23.19069],[121.3397,23.19375],[121.34215,23.19581],[121.34429,23.20576],[121.34533,23.20826],[121.34691,23.20927],[121.34569,23.21357],[121.34646,23.2171],[121.34997,23.21789],[121.35157,23.22018],[121.35328,23.22001],[121.35716,23.22371],[121.35585,23.22396],[121.35431,23.2257],[121.35421,23.22858],[121.35262,23.23026],[121.35346,23.23337],[121.35685,23.23719],[121.35997,23.23012],[121.36149,23.229]]]}},{"type":"Feature","properties":{"code":"10014110","name":"臺東縣綠島鄉"},"geometry":{"type":"Polygon","coordinates":[[[121.49154,22.67746],[121.49347,22.67509],[121.49603,22.67646],[121.501,22.67587],[121.50476,22.67697],[121.50706,22.67864],[121.50954,22.67791],[121.51,22.67707],[121.50929,22.67147],[121.51117,22.6693],[121.50905,22.66485],[121.50876,22.66022],[121.50691,22.65717],[121.50877,22.65384],[121.50587,22.65276],[121.5056,22.65149],[121.50219,22.6522],[121.49953,22.6459],[121.50206,22.64389],[121.50213,22.64141],[121.50463,22.63827],[121.505,22.6357],[121.50774,22.6346],[121.50636,22.63434],[121.50623,22.63259],[121.50558,22.63424],[121.50271,22.6341],[121.49967,22.63508],[121.49799,22.63411],[121.49875,22.63307],[121.49829,22.63201],[121.49522,22.63249],[121.49393,22.63452],[121.49343,22.6384],[121.48881,22.6418],[121.48881,22.64262],[121.48048,22.64544],[121.4735,22.64648],[121.47484,22.65141],[121.47531,22.65871],[121.46467,22.67148],[121.46433,22.67332],[121.46602,22.67647],[121.47984,22.67408],[121.48473,22.67731],[121.48998,22.67699],[121.49174,22.67891],[121.49154,22.67746]]]}},{"type":"Feature","properties":{"code":"10014160","name":"臺東縣蘭嶼鄉"},"geometry":{"type":"MultiPolygon","coordinates":[[[[121.61179,21.9429],[121.60767,21.94296],[121.60613,21.94804],[121.60353,21.95157],[121.60445,21.95243],[121.61426,21.95506],[121.61492,21.95468],[121.61483,21.95304],[121.6162,21.9523],[121.61572,21.95012],[121.6164,21.94505],[121.61179,21.9429]]],[[[121.50489,22.08473],[121.50605,22.08475],[121.5085,22.08234],[121.51252,22.08051],[121.52556,22.08108],[121.52891,22.07965],[121.53027,22.08109],[121.53293,22.08175],[121.55205,22.08264],[121.55577,22.08213],[121.55812,22.08046],[121.55995,22.08037],[121.56646,22.08431],[121.56963,22.08291],[121.57044,22.08072],[121.56782,22.07547],[121.56782,22.07318],[121.57011,22.07012],[121.57088,22.06473],[121.57608,22.05939],[121.57098,22.05971],[121.56692,22.05757],[121.56386,22.05405],[121.56407,22.04871],[121.56724,22.04245],[121.56618,22.04149],[121.56804,22.04085],[121.56731,22.03951],[121.57053,22.03894],[121.57867,22.03243],[121.59673,22.02512],[121.6027,22.01983],[121.60209,22.01517],[121.59859,22.01193],[121.59786,22.00935],[121.59308,22.00181],[121.59079,22.00016],[121.58746,21.99978],[121.58098,22.00382],[121.58214,22.00436],[121.57971,22.00497],[121.57961,22.00397],[121.57816,22.00324],[121.57134,22.00357],[121.57027,22.00218],[121.56939,22.00876],[121.56303,22.01655],[121.55769,22.02115],[121.55342,22.02305],[121.55298,22.02436],[121.5477,22.02595],[121.53809,22.02453],[121.52738,22.03442],[121.52492,22.03854],[121.52398,22.03918],[121.52091,22.03871],[121.52008,22.04135],[121.5175,22.04402],[121.51718,22.04577],[121.51201,22.04744],[121.50865,22.04643],[121.5089,22.04767],[121.51083,22.04957],[121.50859,22.05688],[121.50683,22.05707],[121.5072,22.05915],[121.50879,22.05934],[121.51069,22.06332],[121.51002,22.06767],[121.50318,22.07734],[121.49993,22.07928],[121.49934,22.08053],[121.50224,22.08401],[121.50489,22.08473]]]]}},{"type":"Feature","properties":{"code":"10014140","name":"臺東縣金峰鄉"},"geometry":{"type":"MultiPolygon","coordinates":[[[[120.96137,22.53464],[120.96254,22.5346],[120.96218,22.53058],[120.95883,22.531],[120.95856,22.53205],[120.96007,22.53468],[120.96137,22.53464]]],[[[120.99633,22.60254],[120.99387,22.60607],[120.99769,22.60767],[120.99969,22.60572],[120.99972,22.6047],[120.99794,22.60418],[120.99831,22.60365],[120.99633,22.60254]]],[[[120.99562,22.68072],[121.00194,22.67458],[120.99644,22.66603],[120.99427,22.66606],[120.99046,22.6645],[120.98089,22.66463],[120.97869,22.66279],[120.97666,22.65782],[120.97157,22.65366],[120.96884,22.64835],[120.97541,22.64809],[120.97683,22.64694],[120.978,22.64362],[120.98018,22.6431],[120.98698,22.64433],[120.98949,22.64639],[120.99447,22.6427],[120.99459,22.64476],[120.99646,22.64553],[120.99759,22.64454],[120.99731,22.64342],[121.00064,22.64166],[120.99995,22.63943],[121.00496,22.63401],[121.00519,22.63127],[121.00432,22.63102],[121.00335,22.62871],[121.00199,22.62991],[121.00089,22.62955],[121.00007,22.62799],[121.00039,22.62577],[120.999,22.62526],[120.99718,22.62585],[120.99603,22.62805],[120.99503,22.62763],[120.99586,22.62879],[120.99488,22.62857],[120.99423,22.6297],[120.99071,22.6288],[120.98319,22.63151],[120.97981,22.63153],[120.97626,22.63011],[120.97564,22.62177],[120.97819,22.61328],[120.97671,22.61113],[120.97659,22.60841],[120.97545,22.60613],[120.9739,22.58885],[120.96942,22.58685],[120.97268,22.58451],[120.97519,22.58055],[120.97147,22.57843],[120.96911,22.57489],[120.96441,22.57229],[120.96449,22.57012],[120.96331,22.56796],[120.96154,22.56701],[120.95566,22.56967],[120.95438,22.56843],[120.95242,22.56801],[120.94872,22.56884],[120.94464,22.57137],[120.94167,22.57223],[120.93647,22.56434],[120.93462,22.56445],[120.93276,22.56586],[120.9307,22.5657],[120.92841,22.56335],[120.92296,22.5609],[120.91988,22.55831],[120.91864,22.55623],[120.91949,22.55304],[120.91904,22.54845],[120.92193,22.54367],[120.92073,22.53905],[120.92476,22.53733],[120.93007,22.5317],[120.9322,22.5304],[120.93293,22.52497],[120.93017,22.52495],[120.92393,22.52304],[120.91937,22.51837],[120.90988,22.52017],[120.90815,22.51926],[120.90847,22.51718],[120.91063,22.51427],[120.91555,22.51027],[120.9164,22.50858],[120.91413,22.50743],[120.91164,22.50386],[120.90487,22.50102],[120.90096,22.50069],[120.89786,22.49865],[120.89307,22.4983],[120.89213,22.49571],[120.88807,22.4924],[120.88087,22.49135],[120.87789,22.49017],[120.87658,22.4905],[120.87477,22.48864],[120.87163,22.48936],[120.86982,22.49203],[120.86678,22.49137],[120.86567,22.49193],[120.86326,22.48875],[120.86243,22.48597],[120.86085,22.4839],[120.85826,22.48247],[120.85758,22.48096],[120.85227,22.48009],[120.84641,22.47672],[120.84251,22.47758],[120.8393,22.47656],[120.82618,22.48115],[120.82289,22.48101],[120.81063,22.48314],[120.80281,22.48832],[120.80001,22.48863],[120.79517,22.491],[120.79458,22.49403],[120.7904,22.49371],[120.78311,22.49576],[120.77934,22.49265],[120.77781,22.49234],[120.77595,22.49585],[120.77317,22.49827],[120.77284,22.50091],[120.77054,22.5024],[120.76085,22.5034],[120.75748,22.50855],[120.75363,22.51104],[120.75303,22.51839],[120.75132,22.52197],[120.75166,22.52532],[120.74991,22.52936],[120.75002,22.53402],[120.74794,22.53854],[120.74396,22.5431],[120.73937,22.55174],[120.73969,22.56298],[120.74172,22.5689],[120.74794,22.57108],[120.74878,22.5723],[120.74908,22.57863],[120.74667,22.58401],[120.7458,22.58955],[120.75464,22.60078],[120.75406,22.60855],[120.75287,22.6118],[120.75487,22.61698],[120.75804,22.62309],[120.76124,22.62621],[120.76131,22.63004],[120.76312,22.63114],[120.76424,22.63371],[120.76765,22.63619],[120.76892,22.63885],[120.77198,22.64218],[120.77383,22.64623],[120.77713,22.65047],[120.77977,22.65253],[120.7857,22.66118],[120.78635,22.66298],[120.78629,22.67224],[120.79291,22.66853],[120.8013,22.66749],[120.80278,22.66496],[120.80874,22.66307],[120.81081,22.66296],[120.81245,22.66404],[120.81423,22.66313],[120.82101,22.66382],[120.82186,22.6603],[120.82312,22.65874],[120.82785,22.65784],[120.82946,22.65612],[120.83241,22.65585],[120.83381,22.65495],[120.83609,22.65539],[120.83778,22.6573],[120.83868,22.6568],[120.84161,22.65736],[120.84433,22.65632],[120.84566,22.6574],[120.84863,22.65518],[120.84849,22.65751],[120.85331,22.65863],[120.85258,22.66269],[120.854,22.66406],[120.85677,22.66477],[120.8592,22.66257],[120.86182,22.66308],[120.86488,22.66172],[120.86542,22.65829],[120.86902,22.6583],[120.86994,22.65561],[120.87149,22.65413],[120.87434,22.65519],[120.87904,22.65416],[120.88003,22.65186],[120.88174,22.65031],[120.88523,22.64885],[120.88667,22.64946],[120.8887,22.65253],[120.89032,22.65128],[120.89442,22.65225],[120.89542,22.65334],[120.89939,22.65294],[120.90346,22.65128],[120.90349,22.65273],[120.90423,22.65323],[120.91029,22.65196],[120.91185,22.65341],[120.91329,22.65329],[120.91439,22.65489],[120.91499,22.65154],[120.91756,22.65132],[120.9189,22.65273],[120.92274,22.65348],[120.92448,22.65708],[120.92811,22.65668],[120.93453,22.65818],[120.93683,22.65955],[120.93866,22.65943],[120.94052,22.66134],[120.94444,22.66269],[120.94596,22.66599],[120.94886,22.66692],[120.95168,22.66929],[120.95299,22.66968],[120.95554,22.66869],[120.95774,22.67258],[120.96183,22.67246],[120.96536,22.67341],[120.96699,22.67459],[120.97527,22.67723],[120.97662,22.67889],[120.97908,22.67821],[120.98127,22.67864],[120.98091,22.68096],[120.98202,22.68178],[120.98513,22.68224],[120.98744,22.68062],[120.98997,22.68195],[120.99142,22.68558],[120.99291,22.68716],[120.99242,22.69248],[120.99478,22.68825],[120.99855,22.68479],[120.99748,22.6823],[120.99562,22.68072]]]]}},{"type":"Feature","properties":{"code":"10014090","name":"臺東縣太麻里鄉"},"geometry":{"type":"Polygon","coordinates":[[[121.04239,22.70149],[121.05009,22.69958],[121.06036,22.68995],[121.06545,22.68349],[121.05536,22.6761],[121.04288,22.67192],[121.03775,22.66935],[121.03195,22.66407],[121.02574,22.65584],[121.02228,22.64923],[121.01719,22.63568],[121.01283,22.62044],[121.00916,22.58896],[121.0072,22.58618],[120.9985,22.57853],[120.99003,22.57326],[120.98583,22.56968],[120.98032,22.56108],[120.97457,22.54677],[120.96822,22.52645],[120.95953,22.50529],[120.94659,22.45748],[120.94365,22.45847],[120.93667,22.45876],[120.92996,22.46057],[120.92517,22.46291],[120.92548,22.46371],[120.92889,22.46784],[120.93305,22.46883],[120.93657,22.47383],[120.94153,22.47648],[120.94243,22.47949],[120.94141,22.47993],[120.93973,22.48373],[120.94148,22.48822],[120.94034,22.4896],[120.93739,22.49094],[120.93503,22.49441],[120.93281,22.49407],[120.93008,22.49582],[120.92302,22.50477],[120.92097,22.50536],[120.91971,22.50826],[120.9164,22.50858],[120.91555,22.51027],[120.91063,22.51427],[120.90847,22.51718],[120.90807,22.51896],[120.90988,22.52017],[120.91937,22.51837],[120.92393,22.52304],[120.93017,22.52495],[120.93291,22.52485],[120.9322,22.5304],[120.93007,22.5317],[120.92476,22.53733],[120.92073,22.53905],[120.92192,22.54378],[120.91906,22.54836],[120.91949,22.55304],[120.91864,22.55623],[120.92102,22.55955],[120.92841,22.56335],[120.93001,22.5654],[120.93222,22.56598],[120.9348,22.56438],[120.93647,22.56434],[120.94167,22.57223],[120.94464,22.57137],[120.94872,22.56884],[120.95242,22.56801],[120.95438,22.56843],[120.95566,22.56967],[120.96154,22.56701],[120.96331,22.56796],[120.96449,22.57012],[120.96441,22.57229],[120.96911,22.57489],[120.97147,22.57843],[120.97519,22.58055],[120.97268,22.58451],[120.96942,22.58685],[120.9739,22.58885],[120.97545,22.60613],[120.97659,22.60841],[120.97671,22.61113],[120.97819,22.61328],[120.97564,22.62177],[120.97626,22.63011],[120.97981,22.63153],[120.98319,22.63151],[120.99071,22.6288],[120.99423,22.6297],[120.99488,22.62857],[120.99586,22.62879],[120.99503,22.62763],[120.99603,22.62805],[120.99718,22.62585],[120.999,22.62526],[121.00039,22.62577],[121.00007,22.62799],[121.00089,22.62955],[121.00199,22.62991],[121.00335,22.62871],[121.00432,22.63102],[121.00519,22.63127],[121.00496,22.63401],[120.99995,22.63943],[121.00064,22.64166],[120.99731,22.64342],[120.99759,22.64454],[120.99646,22.64553],[120.99459,22.64476],[120.99447,22.6427],[120.98949,22.64639],[120.98698,22.64433],[120.98018,22.6431],[120.978,22.64362],[120.97683,22.64694],[120.97541,22.64809],[120.96884,22.64835],[120.97157,22.65366],[120.97666,22.65782],[120.97869,22.66279],[120.98074,22.66453],[120.99046,22.6645],[120.99427,22.66606],[120.99636,22.66595],[121.00168,22.67381],[121.00192,22.67464],[121.00057,22.67642],[120.99572,22.68016],[120.99855,22.68479],[120.99478,22.68825],[120.99242,22.69248],[120.99556,22.69221],[120.99767,22.69351],[121.00231,22.69285],[121.00423,22.69399],[121.00573,22.69632],[121.00933,22.69384],[121.01401,22.69538],[121.01952,22.69334],[121.02706,22.69617],[121.03552,22.70058],[121.03982,22.70178],[121.04239,22.70149]],[[120.99484,22.60402],[120.9963,22.60252],[120.99831,22.60365],[120.99794,22.60418],[120.99972,22.6047],[120.99976,22.60557],[120.99769,22.60767],[120.99387,22.60607],[120.99484,22.60402]],[[120.95883,22.531],[120.96218,22.53058],[120.96254,22.5346],[120.96007,22.53468],[120.95856,22.53205],[120.95883,22.531]]]}},{"type":"Feature","properties":{"code":"10014050","name":"臺東縣鹿野鄉"},"geometry":{"type":"Polygon","coordinates":[[[121.21666,23.00184],[121.21627,23.00086],[121.21753,23.00005],[121.21808,22.99577],[121.21619,22.99106],[121.21949,22.98617],[121.21842,22.98492],[121.21941,22.98148],[121.21851,22.97989],[121.21877,22.97801],[121.21472,22.97408],[121.21213,22.97006],[121.21096,22.96396],[121.21135,22.96176],[121.20909,22.96062],[121.20632,22.95672],[121.20677,22.95549],[121.20408,22.95171],[121.2039,22.94933],[121.20003,22.94592],[121.19693,22.93881],[121.19419,22.93668],[121.19053,22.93881],[121.18913,22.93882],[121.1862,22.93718],[121.18283,22.93184],[121.18112,22.93166],[121.17469,22.93647],[121.17002,22.93588],[121.16232,22.93299],[121.15851,22.92982],[121.15668,22.92718],[121.1504,22.92305],[121.14654,22.91855],[121.1429,22.91069],[121.14733,22.89377],[121.1469,22.89158],[121.14366,22.88863],[121.14044,22.8886],[121.1292,22.8926],[121.12112,22.89167],[121.11419,22.8934],[121.10386,22.89391],[121.09281,22.89285],[121.08677,22.8962],[121.08571,22.89972],[121.09534,22.90013],[121.0933,22.90272],[121.09509,22.90513],[121.09944,22.90875],[121.10924,22.9113],[121.11061,22.9137],[121.11333,22.91561],[121.1127,22.9175],[121.11411,22.91853],[121.11485,22.92114],[121.11777,22.92279],[121.11792,22.92356],[121.1158,22.92615],[121.11457,22.93384],[121.1201,22.93785],[121.12131,22.94112],[121.12033,22.9419],[121.12089,22.94427],[121.12038,22.94649],[121.12173,22.94596],[121.12631,22.95024],[121.12822,22.95436],[121.12769,22.95579],[121.12382,22.95959],[121.12457,22.96032],[121.12213,22.96312],[121.121,22.96872],[121.11815,22.97155],[121.12807,22.97348],[121.12764,22.97809],[121.12219,22.98115],[121.12998,22.98965],[121.13007,22.99344],[121.13093,22.99483],[121.13558,22.99471],[121.14285,22.99614],[121.15759,22.99663],[121.16239,22.99397],[121.16566,22.98931],[121.16937,22.98723],[121.17284,22.98714],[121.17429,22.98528],[121.18038,22.98613],[121.1819,22.98805],[121.18332,22.9883],[121.18357,22.98961],[121.1856,22.98997],[121.1883,22.99343],[121.19134,22.9931],[121.19061,22.99422],[121.19254,22.99888],[121.19467,22.99824],[121.19519,22.9994],[121.19907,23.00169],[121.20433,23.00116],[121.20928,23.00201],[121.21589,23.00934],[121.21666,23.00184]]]}},{"type":"Feature","properties":{"code":"10014060","name":"臺東縣池上鄉"},"geometry":{"type":"Polygon","coordinates":[[[121.2015,23.15048],[121.20406,23.14687],[121.20851,23.14361],[121.21005,23.14433],[121.21437,23.14394],[121.22489,23.13988],[121.23093,23.13925],[121.23845,23.12874],[121.24231,23.12802],[121.24521,23.12841],[121.2483,23.12959],[121.2494,23.13142],[121.25777,23.12598],[121.25957,23.12102],[121.26413,23.1178],[121.26431,23.11533],[121.26712,23.11432],[121.26764,23.11235],[121.2662,23.10676],[121.26259,23.1014],[121.25939,23.09452],[121.25804,23.09257],[121.2565,23.0921],[121.25625,23.09037],[121.25456,23.08836],[121.25359,23.08032],[121.25193,23.07695],[121.25076,23.07669],[121.24841,23.07279],[121.24652,23.06484],[121.23668,23.04434],[121.23174,23.03573],[121.22973,23.03365],[121.22757,23.03286],[121.2256,23.02633],[121.22182,23.02685],[121.21715,23.02631],[121.21303,23.02751],[121.20783,23.02783],[121.20458,23.03078],[121.20046,23.02876],[121.19899,23.02957],[121.19537,23.02961],[121.19422,23.03097],[121.19271,23.03022],[121.19249,23.02911],[121.19039,23.02996],[121.18921,23.02829],[121.18705,23.02895],[121.18514,23.02798],[121.18393,23.02865],[121.18162,23.03221],[121.17995,23.03311],[121.17946,23.03464],[121.18103,23.03847],[121.19064,23.04764],[121.19723,23.05557],[121.20046,23.06183],[121.20121,23.06801],[121.20044,23.07332],[121.19558,23.0843],[121.19443,23.09235],[121.19174,23.10163],[121.18743,23.1111],[121.17945,23.11963],[121.17528,23.12248],[121.17722,23.12657],[121.17962,23.12742],[121.18724,23.13699],[121.1852,23.13826],[121.1804,23.13772],[121.17748,23.1432],[121.17959,23.14481],[121.17942,23.14622],[121.17846,23.14685],[121.17289,23.14698],[121.17804,23.15429],[121.18111,23.15403],[121.18268,23.15534],[121.18575,23.15477],[121.18716,23.15067],[121.19057,23.15079],[121.19392,23.15393],[121.19114,23.15796],[121.19247,23.15925],[121.19497,23.15761],[121.2015,23.15048]]]}},{"type":"Feature","properties":{"code":"10014130","name":"臺東縣延平鄉"},"geometry":{"type":"Polygon","coordinates":[[[121.09075,22.99373],[121.10495,22.99064],[121.10855,22.99111],[121.11082,22.98666],[121.1126,22.98558],[121.11318,22.98422],[121.12219,22.98115],[121.12752,22.97823],[121.12812,22.97722],[121.12786,22.97323],[121.11852,22.97204],[121.11814,22.97136],[121.121,22.96872],[121.12213,22.96312],[121.12457,22.96032],[121.12382,22.95959],[121.12769,22.95579],[121.12822,22.95436],[121.12631,22.95024],[121.12173,22.94596],[121.12038,22.94649],[121.12089,22.94427],[121.12033,22.9419],[121.12131,22.94112],[121.1201,22.93785],[121.1146,22.93392],[121.11596,22.92563],[121.11793,22.92338],[121.11434,22.92043],[121.11411,22.91853],[121.1127,22.9175],[121.11333,22.91561],[121.11061,22.9137],[121.10851,22.91082],[121.10417,22.91042],[121.09951,22.90878],[121.09526,22.9053],[121.0933,22.90281],[121.09522,22.90005],[121.08578,22.89978],[121.08623,22.89687],[121.08858,22.89465],[121.09281,22.89285],[121.10386,22.89391],[121.11419,22.8934],[121.12112,22.89167],[121.1292,22.8926],[121.14044,22.8886],[121.14355,22.88856],[121.1469,22.89158],[121.14733,22.89377],[121.14283,22.91023],[121.14776,22.92035],[121.15044,22.92309],[121.15668,22.92718],[121.15865,22.92996],[121.16284,22.93325],[121.17002,22.93588],[121.1745,22.93652],[121.17963,22.93223],[121.18268,22.93178],[121.1862,22.93718],[121.18913,22.93882],[121.19053,22.93881],[121.19419,22.93668],[121.19404,22.93571],[121.18932,22.92836],[121.18877,22.92385],[121.18744,22.92277],[121.18412,22.91644],[121.18801,22.91103],[121.18742,22.90951],[121.18851,22.9074],[121.18811,22.90552],[121.19086,22.90154],[121.18855,22.89797],[121.18906,22.89668],[121.18854,22.89523],[121.1839,22.89241],[121.18142,22.88896],[121.1801,22.88347],[121.17448,22.87867],[121.17052,22.87099],[121.16536,22.86777],[121.16326,22.86844],[121.16132,22.87073],[121.15871,22.87067],[121.15371,22.87226],[121.15129,22.8817],[121.14924,22.88371],[121.1473,22.88441],[121.1415,22.88548],[121.11919,22.88563],[121.11633,22.88653],[121.1072,22.88577],[121.10479,22.88708],[121.10251,22.88666],[121.09869,22.88755],[121.08704,22.89505],[121.08441,22.89868],[121.08258,22.89628],[121.08494,22.89247],[121.08649,22.89185],[121.08307,22.88159],[121.08085,22.88045],[121.07941,22.87459],[121.07378,22.87236],[121.073,22.86873],[121.07366,22.86785],[121.07055,22.85995],[121.06479,22.85911],[121.06093,22.85678],[121.05476,22.85682],[121.05317,22.85434],[121.05085,22.85327],[121.04843,22.84989],[121.04363,22.8457],[121.03529,22.84467],[121.03373,22.84323],[121.02587,22.84074],[121.02223,22.84127],[121.01339,22.83363],[120.99955,22.83699],[120.99273,22.83651],[120.98953,22.83283],[120.98414,22.82381],[120.97669,22.81665],[120.97206,22.80747],[120.96837,22.80504],[120.96258,22.80287],[120.96063,22.80107],[120.95727,22.80033],[120.95321,22.79489],[120.94829,22.79779],[120.94586,22.80016],[120.94434,22.80017],[120.94296,22.79824],[120.94326,22.79537],[120.94211,22.79232],[120.93047,22.79125],[120.93005,22.7895],[120.93162,22.78744],[120.9256,22.78287],[120.92324,22.7821],[120.92035,22.7833],[120.91844,22.78033],[120.91706,22.77991],[120.91141,22.78126],[120.90809,22.77906],[120.90347,22.77751],[120.90324,22.78046],[120.90413,22.78358],[120.90169,22.78754],[120.90325,22.79303],[120.90297,22.79653],[120.90365,22.79827],[120.90089,22.80427],[120.89932,22.80471],[120.89655,22.80797],[120.89399,22.80876],[120.89097,22.81171],[120.88157,22.81445],[120.87726,22.81305],[120.87449,22.81533],[120.87171,22.81479],[120.8684,22.81713],[120.8649,22.82507],[120.86175,22.8263],[120.8654,22.83561],[120.86399,22.83943],[120.86495,22.8456],[120.86835,22.85075],[120.8666,22.85382],[120.86957,22.85776],[120.86165,22.8614],[120.85915,22.86345],[120.86379,22.86622],[120.86555,22.86966],[120.86487,22.87255],[120.85973,22.87837],[120.85516,22.87872],[120.85209,22.8781],[120.84053,22.88195],[120.83884,22.88464],[120.83823,22.88989],[120.83478,22.89353],[120.8332,22.89823],[120.83354,22.89981],[120.82866,22.90397],[120.82996,22.90953],[120.83329,22.91227],[120.83144,22.91985],[120.82916,22.92078],[120.82688,22.92813],[120.82181,22.93526],[120.82178,22.94512],[120.82475,22.95245],[120.82305,22.95492],[120.82092,22.96095],[120.82086,22.96235],[120.82232,22.96372],[120.82218,22.96463],[120.83016,22.97034],[120.83609,22.96951],[120.84398,22.96528],[120.84891,22.96454],[120.85804,22.95722],[120.85997,22.95697],[120.86132,22.95501],[120.86786,22.95606],[120.868,22.95778],[120.87143,22.9567],[120.87646,22.95753],[120.87805,22.9556],[120.87953,22.95621],[120.88162,22.95501],[120.8829,22.95544],[120.88297,22.9579],[120.88424,22.95808],[120.88622,22.95698],[120.88721,22.95909],[120.88823,22.95912],[120.89174,22.95732],[120.89251,22.95596],[120.89419,22.95578],[120.89616,22.95312],[120.89716,22.95007],[120.89936,22.94926],[120.90096,22.94967],[120.90463,22.9467],[120.90767,22.94911],[120.90893,22.94829],[120.91311,22.94934],[120.92506,22.94828],[120.92795,22.95012],[120.92917,22.9499],[120.92999,22.95159],[120.93332,22.95242],[120.93322,22.95598],[120.93729,22.95832],[120.93768,22.9605],[120.94024,22.96148],[120.9485,22.96143],[120.95049,22.96525],[120.95416,22.96751],[120.95518,22.96943],[120.96076,22.97159],[120.96179,22.9779],[120.96444,22.98118],[120.96514,22.98765],[120.97307,22.9953],[120.98421,22.99112],[120.98675,22.99176],[120.99441,22.98594],[120.99602,22.98554],[121.0007,22.98981],[121.00949,22.98967],[121.01306,22.99112],[121.01716,22.98866],[121.0274,22.98565],[121.03108,22.98655],[121.03622,22.98933],[121.04615,22.988],[121.05056,22.991],[121.05587,22.99302],[121.05807,22.99225],[121.06036,22.99334],[121.06951,22.99395],[121.07494,22.99576],[121.0792,22.99597],[121.09075,22.99373]]]}},{"type":"Feature","properties":{"code":"10014010","name":"臺東縣臺東市"},"geometry":{"type":"Polygon","coordinates":[[[121.19317,22.8191],[121.19516,22.81672],[121.1977,22.81566],[121.19716,22.81466],[121.19813,22.81481],[121.19694,22.81399],[121.19736,22.81282],[121.19653,22.81321],[121.19646,22.81269],[121.19753,22.81223],[121.19687,22.81098],[121.19963,22.80439],[121.20103,22.79585],[121.19999,22.79458],[121.19819,22.79474],[121.19846,22.79341],[121.19676,22.79258],[121.19717,22.79193],[121.196,22.79263],[121.1949,22.79029],[121.18741,22.79041],[121.1814,22.7829],[121.18031,22.77827],[121.17987,22.76926],[121.17619,22.7588],[121.17249,22.75517],[121.16599,22.75117],[121.16091,22.74968],[121.15678,22.74732],[121.14509,22.73445],[121.13726,22.72941],[121.12811,22.71936],[121.12369,22.71625],[121.11762,22.71413],[121.10152,22.70531],[121.09318,22.70371],[121.08136,22.6982],[121.07311,22.69175],[121.06545,22.68349],[121.06036,22.68995],[121.04967,22.69984],[121.03935,22.70213],[121.035,22.70173],[121.0335,22.70507],[121.03055,22.70748],[121.02705,22.71231],[121.02608,22.71473],[121.0312,22.71263],[121.03488,22.71394],[121.03522,22.71502],[121.03763,22.71642],[121.03824,22.71874],[121.03747,22.7203],[121.03904,22.72101],[121.03831,22.72203],[121.0404,22.72388],[121.04363,22.72418],[121.04284,22.7259],[121.04237,22.73196],[121.04441,22.73219],[121.04734,22.73485],[121.04585,22.73681],[121.04891,22.73965],[121.05187,22.73667],[121.05494,22.74077],[121.05624,22.74125],[121.05681,22.74713],[121.05444,22.74925],[121.05333,22.75416],[121.04974,22.75719],[121.04921,22.76022],[121.04615,22.76007],[121.04423,22.76147],[121.0482,22.76398],[121.05226,22.76456],[121.05357,22.7663],[121.05733,22.7684],[121.06748,22.7694],[121.07558,22.77262],[121.07776,22.77479],[121.0842,22.77457],[121.08838,22.77539],[121.0913,22.77447],[121.09565,22.77506],[121.09721,22.77434],[121.09937,22.77467],[121.10119,22.77637],[121.10662,22.77611],[121.10972,22.77972],[121.10074,22.78784],[121.1066,22.79344],[121.11216,22.79564],[121.11278,22.7983],[121.11167,22.79968],[121.11289,22.80289],[121.11521,22.80329],[121.1146,22.80693],[121.11616,22.80847],[121.11476,22.81023],[121.1156,22.81105],[121.11845,22.81242],[121.12267,22.81086],[121.12314,22.81202],[121.12406,22.81219],[121.12705,22.80985],[121.13296,22.80838],[121.13745,22.79635],[121.14098,22.79143],[121.14548,22.79248],[121.1493,22.79064],[121.15311,22.79104],[121.15565,22.78995],[121.15847,22.78671],[121.16201,22.79016],[121.16137,22.79341],[121.16291,22.79485],[121.16417,22.79506],[121.16947,22.79921],[121.17476,22.8011],[121.17737,22.80301],[121.18061,22.80356],[121.18274,22.80511],[121.18274,22.8115],[121.18207,22.81256],[121.18338,22.81305],[121.18431,22.8167],[121.19174,22.8195],[121.19317,22.8191]]]}},{"type":"Feature","properties":{"code":"10014040","name":"臺東縣卑南鄉"},"geometry":{"type":"Polygon","coordinates":[[[121.10251,22.88666],[121.10479,22.88708],[121.1072,22.88577],[121.11633,22.88653],[121.11919,22.88563],[121.12602,22.88527],[121.1415,22.88548],[121.14947,22.88355],[121.15129,22.8817],[121.15371,22.87226],[121.15871,22.87067],[121.16132,22.87073],[121.16326,22.86844],[121.16544,22.86778],[121.1649,22.8628],[121.16175,22.85736],[121.16708,22.85546],[121.16986,22.85266],[121.17267,22.8532],[121.17319,22.85481],[121.17563,22.85607],[121.17655,22.85414],[121.17748,22.8539],[121.17715,22.85316],[121.17812,22.8517],[121.18393,22.85358],[121.18568,22.85341],[121.18698,22.85458],[121.18839,22.85267],[121.18999,22.8525],[121.19204,22.85037],[121.18925,22.8463],[121.19006,22.84408],[121.18884,22.83788],[121.18802,22.83532],[121.18615,22.8336],[121.1867,22.8337],[121.18625,22.8329],[121.18785,22.82875],[121.1924,22.82557],[121.19182,22.82292],[121.19357,22.8213],[121.1936,22.81899],[121.19174,22.8195],[121.18431,22.8167],[121.18338,22.81305],[121.18207,22.81256],[121.18274,22.8115],[121.18274,22.80511],[121.18061,22.80356],[121.17737,22.80301],[121.17476,22.8011],[121.16947,22.79921],[121.16417,22.79506],[121.16291,22.79485],[121.16137,22.79341],[121.16201,22.79016],[121.15847,22.78671],[121.15565,22.78995],[121.15311,22.79104],[121.1493,22.79064],[121.14548,22.79248],[121.14098,22.79143],[121.13745,22.79635],[121.13306,22.80829],[121.12705,22.80985],[121.12406,22.81219],[121.12314,22.81202],[121.12267,22.81086],[121.11835,22.8124],[121.11476,22.81023],[121.11616,22.80847],[121.1146,22.80693],[121.11521,22.80329],[121.11289,22.80289],[121.11167,22.79968],[121.11278,22.7983],[121.11216,22.79564],[121.1066,22.79344],[121.10074,22.78784],[121.10972,22.77972],[121.10662,22.77611],[121.10119,22.77637],[121.09937,22.77467],[121.09721,22.77434],[121.09565,22.77506],[121.0913,22.77447],[121.08838,22.77539],[121.0842,22.77457],[121.07776,22.77479],[121.07558,22.77262],[121.06748,22.7694],[121.05733,22.7684],[121.05357,22.7663],[121.05226,22.76456],[121.0482,22.76398],[121.04432,22.76155],[121.04615,22.76007],[121.04921,22.76022],[121.04974,22.75719],[121.05333,22.75416],[121.05444,22.74925],[121.05681,22.74713],[121.05624,22.74125],[121.05494,22.74077],[121.05187,22.73667],[121.04891,22.73965],[121.04585,22.73681],[121.04734,22.73485],[121.04441,22.73219],[121.04237,22.73196],[121.04284,22.7259],[121.04363,22.72418],[121.0404,22.72388],[121.03831,22.72203],[121.03904,22.72101],[121.03747,22.7203],[121.03823,22.71888],[121.03775,22.71663],[121.03522,22.71502],[121.03499,22.71401],[121.03092,22.71264],[121.02606,22.71468],[121.03055,22.70748],[121.0335,22.70507],[121.03494,22.70178],[121.03987,22.70178],[121.03214,22.69929],[121.02706,22.69617],[121.01952,22.69334],[121.01401,22.69538],[121.00933,22.69384],[121.00573,22.69632],[121.00423,22.69399],[121.00231,22.69285],[120.99767,22.69351],[120.99556,22.69221],[120.99242,22.69248],[120.99289,22.68708],[120.99142,22.68558],[120.99047,22.68242],[120.98808,22.6808],[120.98674,22.6807],[120.98513,22.68224],[120.98202,22.68178],[120.98091,22.68096],[120.98127,22.67864],[120.97908,22.67821],[120.97662,22.67889],[120.97527,22.67723],[120.96699,22.67459],[120.96536,22.67341],[120.96183,22.67246],[120.95795,22.67267],[120.95653,22.6713],[120.95554,22.66869],[120.95299,22.66968],[120.95168,22.66929],[120.94886,22.66692],[120.94596,22.66599],[120.94444,22.66269],[120.94052,22.66134],[120.93866,22.65943],[120.93683,22.65955],[120.93453,22.65818],[120.92811,22.65668],[120.92448,22.65708],[120.92274,22.65348],[120.9189,22.65273],[120.91696,22.65123],[120.91492,22.65162],[120.91439,22.65489],[120.91329,22.65329],[120.91185,22.65341],[120.91029,22.65196],[120.90423,22.65323],[120.90349,22.65273],[120.90346,22.65128],[120.89939,22.65294],[120.89542,22.65334],[120.89442,22.65225],[120.89032,22.65128],[120.8887,22.65253],[120.88667,22.64946],[120.88512,22.64885],[120.88124,22.65074],[120.87904,22.65416],[120.87434,22.65519],[120.87149,22.65413],[120.86994,22.65561],[120.86902,22.6583],[120.86542,22.65829],[120.86488,22.66172],[120.86182,22.66308],[120.8592,22.66257],[120.85646,22.66483],[120.854,22.66406],[120.85258,22.66269],[120.85331,22.65863],[120.84849,22.65751],[120.84863,22.65518],[120.84566,22.6574],[120.84433,22.65632],[120.84161,22.65736],[120.83868,22.6568],[120.83778,22.6573],[120.83609,22.65539],[120.83372,22.65496],[120.83241,22.65585],[120.82946,22.65612],[120.82785,22.65784],[120.82312,22.65874],[120.82186,22.6603],[120.82101,22.66382],[120.81423,22.66313],[120.81245,22.66404],[120.81081,22.66296],[120.80874,22.66307],[120.80278,22.66496],[120.8013,22.66749],[120.79291,22.66853],[120.78629,22.67224],[120.79157,22.67918],[120.78926,22.68383],[120.78948,22.68649],[120.78748,22.69023],[120.78705,22.69316],[120.78912,22.69329],[120.79554,22.69062],[120.7972,22.6892],[120.80802,22.68919],[120.8091,22.68826],[120.81144,22.69204],[120.81911,22.69103],[120.81886,22.69436],[120.81988,22.6956],[120.82545,22.69571],[120.82869,22.69766],[120.83498,22.69656],[120.83723,22.69734],[120.83829,22.69894],[120.8379,22.70143],[120.83967,22.70395],[120.84024,22.70667],[120.84336,22.70765],[120.84248,22.70984],[120.84452,22.71086],[120.84851,22.71695],[120.85488,22.71755],[120.85839,22.71362],[120.86167,22.7167],[120.86719,22.71689],[120.86941,22.7159],[120.87265,22.71702],[120.8759,22.71714],[120.87942,22.71607],[120.88351,22.71707],[120.88728,22.72237],[120.88865,22.72729],[120.89144,22.72938],[120.89228,22.73519],[120.89472,22.73759],[120.89562,22.74156],[120.89414,22.74327],[120.89535,22.7482],[120.8941,22.75161],[120.89564,22.75598],[120.89445,22.75914],[120.89486,22.76229],[120.89407,22.76335],[120.89199,22.76386],[120.89356,22.76678],[120.90021,22.76922],[120.90115,22.77206],[120.90318,22.77383],[120.90386,22.77581],[120.90347,22.77751],[120.90809,22.77906],[120.91141,22.78126],[120.91706,22.77991],[120.91844,22.78033],[120.92035,22.7833],[120.92324,22.7821],[120.9256,22.78287],[120.93162,22.78744],[120.93005,22.7895],[120.93047,22.79125],[120.94211,22.79232],[120.94326,22.79537],[120.94296,22.79824],[120.94434,22.80017],[120.94586,22.80016],[120.94829,22.79779],[120.95321,22.79489],[120.95727,22.80033],[120.96063,22.80107],[120.96258,22.80287],[120.96837,22.80504],[120.97206,22.80747],[120.97669,22.81665],[120.98414,22.82381],[120.98953,22.83283],[120.99273,22.83651],[120.99955,22.83699],[121.01339,22.83363],[121.02223,22.84127],[121.02587,22.84074],[121.03373,22.84323],[121.03529,22.84467],[121.04363,22.8457],[121.04843,22.84989],[121.05085,22.85327],[121.05317,22.85434],[121.05476,22.85682],[121.06093,22.85678],[121.06479,22.85911],[121.07055,22.85995],[121.07366,22.86785],[121.073,22.86873],[121.07378,22.87236],[121.07941,22.87459],[121.08085,22.88045],[121.08307,22.88159],[121.08649,22.89185],[121.08494,22.89247],[121.08258,22.89628],[121.08427,22.89863],[121.08704,22.89505],[121.09591,22.88884],[121.10251,22.88666]]]}},{"type":"Feature","properties":{"code":"10014070","name":"臺東縣東河鄉"},"geometry":{"type":"Polygon","coordinates":[[[121.30565,23.11127],[121.3124,23.11095],[121.31584,23.10952],[121.31414,23.10541],[121.31473,23.10005],[121.31697,23.09512],[121.31769,23.0897],[121.31615,23.08854],[121.31632,23.08577],[121.31397,23.08218],[121.31556,23.07846],[121.31575,23.074],[121.31344,23.0703],[121.31305,23.06681],[121.31364,23.0653],[121.31579,23.06367],[121.31764,23.06354],[121.31855,23.05971],[121.31728,23.05549],[121.31462,23.05405],[121.31641,23.05287],[121.3168,23.05094],[121.31453,23.0498],[121.31343,23.04848],[121.31353,23.04729],[121.30995,23.0436],[121.31339,23.03705],[121.31218,23.03566],[121.31343,23.03171],[121.30852,23.02705],[121.30824,23.02437],[121.30634,23.02401],[121.30283,23.0192],[121.30232,23.01591],[121.30323,23.01338],[121.30262,23.01158],[121.30475,23.00923],[121.30513,23.00684],[121.30733,23.00302],[121.307,23.00115],[121.29887,22.99524],[121.29784,22.9905],[121.29504,22.98677],[121.29732,22.98698],[121.30113,22.9912],[121.30499,22.99152],[121.30823,22.99282],[121.30827,22.99173],[121.30547,22.98782],[121.29956,22.9841],[121.2988,22.98204],[121.30041,22.97849],[121.30456,22.97603],[121.31072,22.97462],[121.31104,22.97326],[121.29965,22.95974],[121.29597,22.95674],[121.29518,22.95452],[121.29335,22.95364],[121.2931,22.95514],[121.29141,22.95547],[121.28666,22.95184],[121.28665,22.95035],[121.28724,22.94985],[121.28798,22.95044],[121.28784,22.94942],[121.28661,22.94884],[121.2871,22.9496],[121.28598,22.95016],[121.2839,22.94917],[121.28006,22.94013],[121.27874,22.93426],[121.27887,22.93141],[121.27486,22.92495],[121.2715,22.91528],[121.2687,22.91111],[121.2622,22.90645],[121.26039,22.9014],[121.25961,22.90105],[121.25915,22.89828],[121.25558,22.89517],[121.25096,22.88608],[121.24731,22.88146],[121.2412,22.88016],[121.23891,22.87848],[121.23524,22.87097],[121.2351,22.8696],[121.23617,22.86799],[121.23335,22.86449],[121.23209,22.86413],[121.22469,22.86717],[121.21998,22.86492],[121.20904,22.86309],[121.20446,22.86022],[121.20139,22.8571],[121.19879,22.85672],[121.19732,22.85409],[121.19204,22.85037],[121.18999,22.8525],[121.18839,22.85267],[121.18693,22.85459],[121.18568,22.85341],[121.18393,22.85358],[121.17801,22.85173],[121.17748,22.8539],[121.17655,22.85414],[121.17563,22.85607],[121.17319,22.85481],[121.17267,22.8532],[121.16968,22.8527],[121.16708,22.85546],[121.16171,22.85744],[121.1649,22.8628],[121.16544,22.86778],[121.17021,22.87065],[121.1729,22.87463],[121.17448,22.87867],[121.18004,22.88338],[121.18145,22.88903],[121.18414,22.89265],[121.18854,22.89523],[121.18906,22.89668],[121.18855,22.89797],[121.19089,22.90165],[121.18811,22.90552],[121.18851,22.9074],[121.18742,22.90951],[121.18801,22.91103],[121.18466,22.91516],[121.18423,22.91701],[121.18744,22.92277],[121.18877,22.92385],[121.18922,22.92814],[121.19282,22.93471],[121.19693,22.93881],[121.20003,22.94592],[121.2039,22.94933],[121.20408,22.95171],[121.20677,22.95549],[121.20632,22.95672],[121.20909,22.96062],[121.21135,22.96176],[121.21096,22.96396],[121.21226,22.9703],[121.21472,22.97408],[121.21877,22.97801],[121.21851,22.97989],[121.21941,22.98148],[121.21842,22.98492],[121.21949,22.98617],[121.21618,22.99112],[121.218,22.99544],[121.21806,22.99742],[121.21753,23.00005],[121.21627,23.00086],[121.21679,23.00263],[121.21577,23.00999],[121.2181,23.01237],[121.22114,23.01254],[121.22207,23.01451],[121.22234,23.01825],[121.22107,23.02054],[121.22531,23.02551],[121.22757,23.03286],[121.22973,23.03365],[121.23174,23.03573],[121.23668,23.04434],[121.24652,23.06484],[121.24841,23.07279],[121.25076,23.07669],[121.25193,23.07695],[121.25359,23.08032],[121.25427,23.0847],[121.25374,23.08572],[121.2565,23.0921],[121.25804,23.09257],[121.25939,23.09452],[121.26437,23.1039],[121.27074,23.10119],[121.27274,23.09779],[121.27838,23.10088],[121.28086,23.10403],[121.28303,23.10387],[121.28441,23.10657],[121.28733,23.10671],[121.29142,23.10937],[121.29398,23.10989],[121.29695,23.1093],[121.29792,23.10995],[121.29998,23.10926],[121.30306,23.11109],[121.30565,23.11127]]]}},{"type":"Feature","properties":{"code":"10014150","name":"臺東縣達仁鄉"},"geometry":{"type":"Polygon","coordinates":[[[120.91851,22.50819],[120.91971,22.50826],[120.92097,22.50536],[120.92302,22.50477],[120.93008,22.49582],[120.93281,22.49407],[120.93503,22.49441],[120.93739,22.49094],[120.94128,22.4886],[120.93973,22.48373],[120.94141,22.47993],[120.94243,22.47949],[120.94153,22.47648],[120.93657,22.47383],[120.93305,22.46883],[120.92889,22.46784],[120.92517,22.46291],[120.91827,22.46277],[120.91683,22.46136],[120.91666,22.459],[120.91463,22.45602],[120.91528,22.4535],[120.91339,22.45271],[120.9124,22.45031],[120.91062,22.44954],[120.90853,22.44575],[120.9093,22.44384],[120.91225,22.44236],[120.91278,22.44125],[120.91206,22.43967],[120.90957,22.43933],[120.90674,22.43401],[120.90443,22.43188],[120.89563,22.42929],[120.89408,22.43029],[120.89044,22.42429],[120.88786,22.42311],[120.88548,22.42383],[120.88371,22.42559],[120.88255,22.42363],[120.87897,22.4211],[120.88185,22.41837],[120.88801,22.41481],[120.88883,22.41163],[120.88675,22.40962],[120.87932,22.40806],[120.8737,22.40504],[120.8828,22.3999],[120.88583,22.3963],[120.88595,22.39292],[120.88769,22.38887],[120.88556,22.38769],[120.88616,22.38588],[120.88799,22.38466],[120.88867,22.38125],[120.88227,22.37897],[120.88163,22.37725],[120.8781,22.37562],[120.87942,22.37332],[120.87936,22.37165],[120.87597,22.36923],[120.87884,22.36619],[120.87795,22.36336],[120.8785,22.36285],[120.87147,22.36449],[120.8701,22.36281],[120.86305,22.36158],[120.85684,22.3579],[120.85421,22.35782],[120.85469,22.35704],[120.85822,22.35599],[120.86123,22.35169],[120.86556,22.34741],[120.86309,22.3441],[120.86044,22.34277],[120.86033,22.3405],[120.86311,22.33856],[120.8646,22.33558],[120.8662,22.33439],[120.86334,22.32176],[120.85904,22.31768],[120.85859,22.31601],[120.86808,22.30945],[120.86856,22.30727],[120.86727,22.30641],[120.87202,22.30259],[120.87544,22.30454],[120.87761,22.3024],[120.88172,22.30201],[120.88566,22.29998],[120.88864,22.2949],[120.88806,22.29252],[120.88946,22.29166],[120.89184,22.29161],[120.89187,22.27749],[120.89285,22.26829],[120.89325,22.26596],[120.89477,22.26481],[120.89527,22.26251],[120.89447,22.26076],[120.89629,22.24643],[120.89205,22.24545],[120.89138,22.2443],[120.88418,22.24071],[120.88062,22.2347],[120.87909,22.23522],[120.87473,22.23425],[120.87153,22.23301],[120.87084,22.23139],[120.86867,22.23128],[120.86643,22.22982],[120.86386,22.23114],[120.86212,22.23075],[120.8643,22.23429],[120.86253,22.23674],[120.859,22.23863],[120.85867,22.24082],[120.85084,22.24366],[120.84465,22.24286],[120.8426,22.24336],[120.8414,22.24456],[120.83961,22.24363],[120.83629,22.24538],[120.83462,22.24537],[120.82591,22.25665],[120.82225,22.25806],[120.8154,22.26322],[120.81391,22.26187],[120.81275,22.26217],[120.80939,22.26069],[120.80802,22.25936],[120.80613,22.25978],[120.79972,22.25718],[120.7979,22.25794],[120.79883,22.25987],[120.79862,22.26384],[120.7996,22.26499],[120.7962,22.26794],[120.79801,22.27626],[120.80039,22.27733],[120.80677,22.27716],[120.80721,22.28019],[120.80586,22.28118],[120.80562,22.28394],[120.79321,22.28579],[120.79098,22.28841],[120.79113,22.29065],[120.7899,22.29331],[120.78083,22.29495],[120.77774,22.29797],[120.77683,22.30258],[120.77815,22.3085],[120.7832,22.30946],[120.78713,22.30921],[120.79269,22.31215],[120.79659,22.31717],[120.79655,22.31941],[120.7951,22.32257],[120.79341,22.32364],[120.79251,22.3284],[120.79247,22.33562],[120.7897,22.33764],[120.78847,22.34157],[120.78639,22.34224],[120.78472,22.34578],[120.78106,22.34637],[120.77518,22.34935],[120.76951,22.34748],[120.76726,22.34761],[120.76338,22.35278],[120.76298,22.35915],[120.761,22.36042],[120.7581,22.35942],[120.75554,22.3604],[120.75267,22.36039],[120.74346,22.36726],[120.74449,22.36982],[120.74752,22.3714],[120.74878,22.37325],[120.74862,22.38038],[120.7505,22.38409],[120.75648,22.38838],[120.75214,22.39267],[120.7538,22.39643],[120.7576,22.39818],[120.75536,22.40328],[120.75342,22.40506],[120.75812,22.4049],[120.76321,22.40716],[120.76531,22.40905],[120.76833,22.40862],[120.77058,22.4069],[120.77339,22.40693],[120.77556,22.40965],[120.77702,22.40889],[120.78036,22.40945],[120.7829,22.41121],[120.78344,22.4126],[120.78487,22.41307],[120.78693,22.41614],[120.78964,22.41765],[120.78822,22.41944],[120.78687,22.42518],[120.78477,22.42812],[120.78229,22.43417],[120.78002,22.43743],[120.77648,22.44044],[120.77513,22.4433],[120.77645,22.44894],[120.77611,22.45019],[120.77192,22.45184],[120.7651,22.45306],[120.75818,22.45852],[120.75524,22.45721],[120.7513,22.45862],[120.75163,22.46421],[120.75457,22.4714],[120.75226,22.47761],[120.75081,22.47915],[120.75746,22.48183],[120.75855,22.48841],[120.76125,22.48893],[120.76383,22.49116],[120.76434,22.49539],[120.7627,22.5011],[120.76085,22.5034],[120.77105,22.50217],[120.77305,22.50065],[120.77317,22.49827],[120.77595,22.49585],[120.77786,22.49232],[120.77934,22.49265],[120.78311,22.49576],[120.7904,22.49371],[120.79458,22.49403],[120.79517,22.491],[120.80001,22.48863],[120.80281,22.48832],[120.81076,22.48309],[120.82289,22.48101],[120.82618,22.48115],[120.8392,22.47657],[120.84251,22.47758],[120.84602,22.47667],[120.85227,22.48009],[120.85768,22.48102],[120.85826,22.48247],[120.86085,22.4839],[120.86243,22.48597],[120.86326,22.48875],[120.86567,22.49193],[120.86678,22.49137],[120.86982,22.49203],[120.87163,22.48936],[120.87453,22.4886],[120.87658,22.4905],[120.87789,22.49017],[120.88087,22.49135],[120.88807,22.4924],[120.89213,22.49571],[120.89307,22.4983],[120.89786,22.49865],[120.90096,22.50069],[120.90472,22.50098],[120.90894,22.5026],[120.91246,22.50451],[120.91468,22.50793],[120.9164,22.50858],[120.91851,22.50819]]]}},{"type":"Feature","properties":{"code":"10014100","name":"臺東縣大武鄉"},"geometry":{"type":"Polygon","coordinates":[[[120.93079,22.4603],[120.94659,22.45748],[120.94115,22.44515],[120.9331,22.42321],[120.92885,22.41718],[120.9252,22.40897],[120.92113,22.39614],[120.91487,22.38492],[120.90883,22.3592],[120.90261,22.35255],[120.8966,22.33733],[120.89524,22.33572],[120.89243,22.31809],[120.89184,22.29161],[120.88946,22.29166],[120.88806,22.29252],[120.88864,22.2949],[120.88566,22.29998],[120.88172,22.30201],[120.87761,22.3024],[120.87544,22.30454],[120.87202,22.30259],[120.86727,22.30641],[120.86856,22.30727],[120.86808,22.30945],[120.85862,22.31595],[120.85904,22.31768],[120.86334,22.32176],[120.8662,22.33439],[120.8646,22.33558],[120.86311,22.33856],[120.86033,22.3405],[120.86044,22.34277],[120.86309,22.3441],[120.86556,22.34741],[120.86123,22.35169],[120.85822,22.35599],[120.85469,22.35704],[120.85421,22.35782],[120.85684,22.3579],[120.86305,22.36158],[120.8701,22.36281],[120.87147,22.36449],[120.8785,22.36285],[120.87795,22.36336],[120.87884,22.36619],[120.87597,22.36923],[120.87936,22.37165],[120.87942,22.37332],[120.8781,22.37562],[120.88163,22.37725],[120.88227,22.37897],[120.88867,22.38125],[120.88799,22.38466],[120.88616,22.38588],[120.88556,22.38769],[120.88769,22.38887],[120.88595,22.39292],[120.88583,22.3963],[120.8828,22.3999],[120.8737,22.40504],[120.87932,22.40806],[120.88675,22.40962],[120.88883,22.41163],[120.88801,22.41481],[120.88185,22.41837],[120.87897,22.4211],[120.88255,22.42363],[120.88366,22.42557],[120.88548,22.42383],[120.88811,22.42314],[120.89193,22.42582],[120.89408,22.43029],[120.89563,22.42929],[120.89946,22.42991],[120.90401,22.43152],[120.9066,22.43384],[120.90957,22.43933],[120.91206,22.43967],[120.91282,22.44135],[120.9093,22.44384],[120.90853,22.44575],[120.91062,22.44954],[120.9124,22.45031],[120.91339,22.45271],[120.91528,22.4535],[120.91463,22.45602],[120.91806,22.46268],[120.92517,22.46291],[120.93079,22.4603]]]}},{"type":"Feature","properties":{"code":"10014030","name":"臺東縣關山鎮"},"geometry":{"type":"Polygon","coordinates":[[[121.1941,23.09363],[121.19558,23.0843],[121.20051,23.07305],[121.20124,23.06719],[121.20046,23.06183],[121.19495,23.05235],[121.18089,23.0383],[121.17955,23.0356],[121.17988,23.03322],[121.18162,23.03221],[121.18393,23.02865],[121.18514,23.02798],[121.18705,23.02895],[121.18921,23.02829],[121.19039,23.02996],[121.19249,23.02911],[121.19271,23.03022],[121.19422,23.03097],[121.19537,23.02961],[121.19899,23.02957],[121.20046,23.02876],[121.20458,23.03078],[121.20783,23.02783],[121.21303,23.02751],[121.21715,23.02631],[121.22182,23.02685],[121.2256,23.02633],[121.22104,23.02045],[121.22234,23.01825],[121.22207,23.01451],[121.22114,23.01254],[121.21725,23.0118],[121.2143,23.00718],[121.20928,23.00201],[121.20433,23.00116],[121.19907,23.00169],[121.19519,22.9994],[121.19467,22.99824],[121.19254,22.99888],[121.19061,22.99422],[121.19134,22.9931],[121.1883,22.99343],[121.1856,22.98997],[121.18357,22.98961],[121.18317,22.98814],[121.1819,22.98805],[121.17977,22.98594],[121.17594,22.98601],[121.17414,22.98527],[121.17284,22.98714],[121.16821,22.98762],[121.16499,22.9899],[121.16143,22.99484],[121.15718,22.99671],[121.13093,22.99483],[121.13178,22.99624],[121.13078,22.99774],[121.1343,23.00305],[121.1333,23.0054],[121.13419,23.00611],[121.13918,23.00618],[121.14011,23.00934],[121.14223,23.00925],[121.14306,23.01084],[121.14168,23.01199],[121.1419,23.01356],[121.1431,23.0157],[121.14574,23.01755],[121.14642,23.01939],[121.14041,23.02047],[121.13884,23.02346],[121.13402,23.0271],[121.14119,23.03277],[121.14862,23.03072],[121.15208,23.03065],[121.15097,23.03229],[121.14871,23.03165],[121.14923,23.0345],[121.1481,23.03981],[121.1493,23.04534],[121.15038,23.04628],[121.14837,23.04803],[121.15369,23.04729],[121.15489,23.04787],[121.15539,23.05099],[121.15736,23.05326],[121.15645,23.05524],[121.1593,23.0577],[121.15694,23.05946],[121.15688,23.06134],[121.1577,23.06228],[121.15942,23.06227],[121.16061,23.06399],[121.16018,23.06462],[121.16137,23.06503],[121.16011,23.06791],[121.16354,23.06774],[121.16431,23.0752],[121.16553,23.07674],[121.16331,23.08138],[121.16383,23.0834],[121.16795,23.08284],[121.17111,23.08461],[121.17122,23.08835],[121.17266,23.089],[121.17302,23.09098],[121.17613,23.09482],[121.17694,23.10006],[121.17483,23.11077],[121.1764,23.11483],[121.17471,23.11725],[121.17528,23.12248],[121.17907,23.11998],[121.18696,23.11194],[121.19174,23.10163],[121.1941,23.09363]]]}},{"type":"Feature","properties":{"code":"10014120","name":"臺東縣海端鄉"},"geometry":{"type":"Polygon","coordinates":[[[121.03994,23.29978],[121.04307,23.29631],[121.04816,23.29474],[121.05239,23.29157],[121.05594,23.29063],[121.05727,23.28761],[121.05945,23.28615],[121.0599,23.28331],[121.06207,23.27941],[121.06067,23.27674],[121.06072,23.27303],[121.06181,23.27186],[121.06199,23.26938],[121.06289,23.26888],[121.06185,23.26802],[121.06242,23.26584],[121.06419,23.26308],[121.06586,23.25755],[121.06923,23.25517],[121.0701,23.25231],[121.06986,23.24932],[121.07102,23.24685],[121.07401,23.24441],[121.07845,23.23758],[121.07795,23.23422],[121.079,23.23283],[121.08111,23.2338],[121.08364,23.23296],[121.08654,23.23385],[121.09284,23.23382],[121.09638,23.22965],[121.09886,23.22806],[121.10363,23.22696],[121.10565,23.22415],[121.10845,23.22349],[121.11469,23.22496],[121.1234,23.22508],[121.1294,23.2233],[121.13452,23.21126],[121.13809,23.20809],[121.13936,23.20191],[121.14735,23.19901],[121.15006,23.19856],[121.1547,23.19915],[121.16091,23.20596],[121.16866,23.20765],[121.1699,23.20707],[121.17563,23.21019],[121.17936,23.20864],[121.18439,23.20491],[121.18937,23.2038],[121.19103,23.2021],[121.19421,23.19289],[121.19825,23.18844],[121.19796,23.18555],[121.19977,23.17829],[121.19917,23.17509],[121.20568,23.16687],[121.20559,23.16458],[121.20649,23.16281],[121.2103,23.1599],[121.21249,23.15493],[121.21064,23.14806],[121.212,23.14408],[121.21005,23.14433],[121.20851,23.14361],[121.20425,23.14671],[121.20048,23.15175],[121.19258,23.15926],[121.19114,23.15796],[121.19392,23.15393],[121.19057,23.15079],[121.18716,23.15067],[121.18575,23.15477],[121.18268,23.15534],[121.18111,23.15403],[121.17804,23.15429],[121.17289,23.14698],[121.17846,23.14685],[121.17942,23.14622],[121.17959,23.14481],[121.17748,23.1432],[121.1804,23.13772],[121.1852,23.13826],[121.18724,23.13699],[121.17962,23.12742],[121.17722,23.12657],[121.17534,23.12305],[121.17471,23.11725],[121.1764,23.11483],[121.17483,23.11077],[121.17694,23.10006],[121.17613,23.09482],[121.17302,23.09098],[121.17266,23.089],[121.17122,23.08835],[121.17111,23.08461],[121.16795,23.08284],[121.16383,23.0834],[121.16331,23.08138],[121.16553,23.07674],[121.16431,23.0752],[121.16354,23.06774],[121.16011,23.06791],[121.16137,23.06503],[121.16018,23.06462],[121.16061,23.06399],[121.15942,23.06227],[121.1577,23.06228],[121.15688,23.06134],[121.15694,23.05946],[121.1593,23.0577],[121.15645,23.05524],[121.15736,23.05326],[121.15539,23.05099],[121.15489,23.04787],[121.15369,23.04729],[121.14837,23.04803],[121.15038,23.04628],[121.1493,23.04534],[121.1481,23.03981],[121.14923,23.0345],[121.14871,23.03165],[121.15097,23.03229],[121.15208,23.03065],[121.14862,23.03072],[121.14119,23.03277],[121.13402,23.0271],[121.13884,23.02346],[121.14041,23.02047],[121.14642,23.01939],[121.14574,23.01755],[121.1431,23.0157],[121.1419,23.01356],[121.14168,23.01199],[121.14306,23.01084],[121.14223,23.00925],[121.14011,23.00934],[121.13918,23.00618],[121.13419,23.00611],[121.1333,23.0054],[121.1343,23.00305],[121.13072,22.99759],[121.13178,22.99613],[121.13014,22.99371],[121.12998,22.98965],[121.12204,22.98112],[121.11318,22.98422],[121.1126,22.98558],[121.11082,22.98666],[121.10855,22.99111],[121.10495,22.99064],[121.08688,22.99488],[121.07853,22.99601],[121.07476,22.99572],[121.06909,22.99388],[121.06036,22.99334],[121.05807,22.99225],[121.05599,22.99305],[121.05056,22.991],[121.04568,22.98793],[121.03656,22.9894],[121.03108,22.98655],[121.0274,22.98565],[121.01716,22.98866],[121.01306,22.99112],[121.00949,22.98967],[121.0007,22.98981],[120.99602,22.98554],[120.99441,22.98594],[120.98675,22.99176],[120.98421,22.99112],[120.97333,22.99536],[120.96514,22.98765],[120.96444,22.98118],[120.96179,22.9779],[120.96084,22.97167],[120.95518,22.96943],[120.95416,22.96751],[120.95049,22.96525],[120.9486,22.96149],[120.94024,22.96148],[120.93768,22.9605],[120.93729,22.95832],[120.93322,22.95598],[120.93332,22.95242],[120.92999,22.95159],[120.92917,22.9499],[120.92795,22.95012],[120.92517,22.94831],[120.91294,22.94934],[120.90893,22.94829],[120.90767,22.94911],[120.90487,22.94665],[120.90096,22.94967],[120.89936,22.94926],[120.89716,22.95007],[120.89616,22.95312],[120.89419,22.95578],[120.89251,22.95596],[120.89174,22.95732],[120.88834,22.95909],[120.88721,22.95909],[120.88622,22.95698],[120.88424,22.95808],[120.88297,22.9579],[120.8829,22.95544],[120.88162,22.95501],[120.87953,22.95621],[120.87805,22.9556],[120.87646,22.95753],[120.87143,22.9567],[120.868,22.95778],[120.86786,22.95606],[120.86132,22.95501],[120.85997,22.95697],[120.85804,22.95722],[120.84891,22.96454],[120.84398,22.96528],[120.8364,22.96943],[120.83016,22.97034],[120.82906,22.97439],[120.83069,22.97583],[120.83246,22.98039],[120.84118,22.984],[120.84193,22.99093],[120.84703,22.99285],[120.85014,22.99642],[120.85222,23.00087],[120.85107,23.00513],[120.85823,23.00505],[120.86066,23.00805],[120.86198,23.02207],[120.8607,23.0279],[120.86161,23.03077],[120.86397,23.03249],[120.86665,23.03236],[120.872,23.03448],[120.8789,23.03444],[120.87996,23.03552],[120.88138,23.04268],[120.87975,23.04777],[120.8745,23.05094],[120.87453,23.05243],[120.87132,23.05505],[120.86921,23.05969],[120.87535,23.06854],[120.87807,23.07823],[120.88259,23.08333],[120.8836,23.08656],[120.88563,23.08911],[120.88555,23.09263],[120.88915,23.10049],[120.88814,23.10421],[120.8894,23.11044],[120.88677,23.11361],[120.88497,23.11935],[120.88806,23.12244],[120.88596,23.12804],[120.88623,23.13187],[120.88787,23.13668],[120.88576,23.14428],[120.88144,23.14623],[120.87641,23.15133],[120.88333,23.15344],[120.88626,23.15543],[120.88735,23.15824],[120.89124,23.15872],[120.895,23.16072],[120.89586,23.17143],[120.89831,23.17312],[120.89872,23.17666],[120.90591,23.18058],[120.90905,23.1798],[120.91076,23.18169],[120.91245,23.18652],[120.9116,23.1899],[120.91066,23.19252],[120.90644,23.19671],[120.90575,23.19955],[120.90715,23.20113],[120.90673,23.20565],[120.90763,23.20706],[120.91046,23.20813],[120.91163,23.20955],[120.91213,23.22514],[120.91157,23.22786],[120.9143,23.23254],[120.91546,23.23751],[120.91718,23.23832],[120.91941,23.24098],[120.92404,23.24198],[120.92653,23.24456],[120.93061,23.24246],[120.9379,23.24495],[120.9385,23.24789],[120.94125,23.25195],[120.94669,23.25311],[120.9511,23.25951],[120.95738,23.26416],[120.95968,23.27084],[120.96336,23.2721],[120.96611,23.27658],[120.96867,23.27786],[120.97028,23.28061],[120.97263,23.28219],[120.97899,23.28227],[120.98659,23.28032],[120.99064,23.28413],[120.99402,23.28444],[121.00138,23.28738],[121.00564,23.2906],[121.00853,23.29132],[121.00984,23.2925],[121.01741,23.29287],[121.02,23.29457],[121.02384,23.29373],[121.02619,23.29645],[121.03459,23.29978],[121.0389,23.30065],[121.03994,23.29978]]]}},{"type":"Feature","properties":{"code":"10014080","name":"臺東縣長濱鄉"},"geometry":{"type":"Polygon","coordinates":[[[121.44769,23.44359],[121.44834,23.44291],[121.45107,23.44314],[121.45235,23.44175],[121.45442,23.44114],[121.4571,23.44221],[121.46158,23.44154],[121.46204,23.43955],[121.46344,23.43887],[121.46392,23.43955],[121.47057,23.44077],[121.47331,23.44062],[121.4798,23.43118],[121.48245,23.43017],[121.48459,23.43088],[121.48703,23.43361],[121.4905,23.43526],[121.49195,23.43444],[121.49414,23.43533],[121.49609,23.43483],[121.49249,23.42684],[121.48923,23.42333],[121.48624,23.41289],[121.48519,23.41257],[121.48408,23.41074],[121.48339,23.40552],[121.48402,23.40413],[121.48281,23.40367],[121.48179,23.40199],[121.48204,23.39728],[121.47799,23.39529],[121.47665,23.38909],[121.47486,23.38662],[121.47389,23.37808],[121.47221,23.37154],[121.47358,23.3633],[121.4708,23.35668],[121.47186,23.35575],[121.47221,23.35243],[121.46858,23.34849],[121.46764,23.34562],[121.46775,23.33194],[121.4662,23.32872],[121.46573,23.32201],[121.46291,23.31779],[121.46239,23.31281],[121.46069,23.31291],[121.46049,23.31183],[121.45852,23.31356],[121.45405,23.31351],[121.44745,23.30932],[121.44774,23.30669],[121.4471,23.30532],[121.44346,23.30392],[121.44242,23.30249],[121.44148,23.29987],[121.44167,23.29717],[121.4406,23.29775],[121.43918,23.29686],[121.43825,23.29414],[121.43619,23.29246],[121.43432,23.28823],[121.43287,23.28813],[121.42974,23.28143],[121.42744,23.27266],[121.42707,23.26922],[121.42772,23.26669],[121.42607,23.26478],[121.42406,23.26425],[121.42193,23.25862],[121.42082,23.25762],[121.42081,23.25005],[121.41903,23.24799],[121.419,23.24531],[121.41705,23.24158],[121.41691,23.23862],[121.4149,23.23493],[121.41573,23.22788],[121.41862,23.22834],[121.42067,23.22705],[121.41675,23.22142],[121.41444,23.21972],[121.41117,23.21511],[121.40967,23.2144],[121.40996,23.21352],[121.40621,23.21516],[121.40669,23.2171],[121.40539,23.21761],[121.40571,23.21871],[121.40381,23.22083],[121.40383,23.22242],[121.40252,23.22148],[121.40125,23.22293],[121.4003,23.22133],[121.39753,23.22369],[121.3967,23.2217],[121.39409,23.2224],[121.3924,23.22198],[121.39141,23.22301],[121.38689,23.22303],[121.38636,23.22363],[121.38723,23.22526],[121.38448,23.22696],[121.3831,23.22657],[121.38255,23.22764],[121.37864,23.22636],[121.37369,23.22718],[121.37165,23.22647],[121.36957,23.22718],[121.36834,23.22674],[121.36537,23.22932],[121.36107,23.22912],[121.35775,23.2343],[121.35685,23.23719],[121.35781,23.23831],[121.35782,23.24056],[121.35977,23.24239],[121.36155,23.2465],[121.36082,23.2482],[121.35899,23.24953],[121.35901,23.2512],[121.3595,23.25281],[121.36157,23.25377],[121.36361,23.25765],[121.36586,23.25803],[121.36685,23.26018],[121.37075,23.26244],[121.37233,23.26783],[121.37414,23.26909],[121.37792,23.26962],[121.3786,23.27451],[121.37685,23.28191],[121.37732,23.28748],[121.37649,23.28908],[121.37716,23.29135],[121.37628,23.29566],[121.37803,23.29859],[121.37785,23.30094],[121.38379,23.30813],[121.38785,23.31064],[121.38897,23.31468],[121.3901,23.31583],[121.39025,23.32062],[121.39214,23.32171],[121.39767,23.32167],[121.39994,23.32318],[121.39961,23.32659],[121.40207,23.33388],[121.40384,23.33721],[121.40643,23.33956],[121.40971,23.3459],[121.41402,23.34745],[121.41672,23.34934],[121.41835,23.35219],[121.42253,23.3557],[121.42288,23.35999],[121.41791,23.36059],[121.41725,23.36167],[121.4101,23.3649],[121.40757,23.36464],[121.40437,23.36735],[121.40485,23.36914],[121.40363,23.37581],[121.39996,23.38535],[121.40009,23.38668],[121.40123,23.38857],[121.40361,23.38941],[121.40371,23.39041],[121.41043,23.39884],[121.4132,23.40522],[121.41568,23.40819],[121.41758,23.41196],[121.41721,23.41258],[121.41849,23.41387],[121.41836,23.4157],[121.41997,23.4169],[121.41957,23.41942],[121.42029,23.42067],[121.42572,23.42486],[121.42546,23.42602],[121.42877,23.4293],[121.43313,23.43174],[121.4334,23.43287],[121.44001,23.43313],[121.44209,23.43685],[121.44416,23.43864],[121.44435,23.44094],[121.44586,23.44335],[121.44769,23.44359]]]}}]}