{"type":"FeatureCollection","source":"https://data.gov.tw/dataset/7441 鄉鎮市區界線(TWD97經緯度)","agency":"內政部國土測繪中心","license":"政府資料開放授權條款第1版","generatedBy":"scripts/build-geo.py","features":[{"type":"Feature","properties":{"code":"10016020","name":"澎湖縣湖西鄉"},"geometry":{"type":"MultiPolygon","coordinates":[[[[119.67442,23.60531],[119.67712,23.60472],[119.67731,23.60408],[119.67551,23.60374],[119.67645,23.60262],[119.67422,23.6033],[119.67295,23.60198],[119.67356,23.60322],[119.67196,23.60483],[119.67479,23.6043],[119.67538,23.60457],[119.67373,23.60516],[119.67442,23.60531]]],[[[119.65142,23.60984],[119.65484,23.60888],[119.6573,23.60623],[119.65719,23.60289],[119.65442,23.60047],[119.65533,23.59854],[119.6554,23.60002],[119.65647,23.59832],[119.66083,23.59606],[119.66237,23.59637],[119.66277,23.59478],[119.66613,23.59548],[119.66243,23.59438],[119.66201,23.59576],[119.66116,23.59565],[119.6611,23.5948],[119.66014,23.59534],[119.66032,23.59462],[119.66211,23.59439],[119.65965,23.59376],[119.66021,23.59161],[119.66379,23.59055],[119.66801,23.59123],[119.66939,23.59351],[119.66916,23.59489],[119.66674,23.59514],[119.66844,23.59567],[119.66683,23.59581],[119.66768,23.5965],[119.66918,23.5958],[119.66987,23.59657],[119.6685,23.59679],[119.66953,23.59719],[119.66838,23.59804],[119.66774,23.59687],[119.66923,23.59921],[119.66815,23.60068],[119.66928,23.60172],[119.67212,23.60113],[119.67157,23.59905],[119.67292,23.59652],[119.67591,23.59378],[119.68055,23.58524],[119.68265,23.58392],[119.68118,23.58205],[119.68116,23.57993],[119.6826,23.57641],[119.68172,23.5782],[119.68083,23.57828],[119.68065,23.57776],[119.68162,23.57753],[119.68063,23.57762],[119.68073,23.57671],[119.68202,23.57659],[119.67998,23.57466],[119.68307,23.57005],[119.68311,23.56564],[119.68702,23.56204],[119.69435,23.56035],[119.69446,23.55943],[119.69341,23.55893],[119.69329,23.55963],[119.69273,23.55853],[119.69419,23.55665],[119.69374,23.55624],[119.69458,23.55459],[119.69594,23.55375],[119.69358,23.55516],[119.68987,23.5541],[119.68829,23.55469],[119.68511,23.55272],[119.68232,23.55345],[119.68055,23.55191],[119.67792,23.55137],[119.67543,23.55237],[119.6743,23.55448],[119.67517,23.55567],[119.67441,23.55786],[119.67192,23.55807],[119.67503,23.55808],[119.67524,23.55644],[119.67586,23.55644],[119.67578,23.55697],[119.67699,23.5569],[119.6762,23.5571],[119.67666,23.55804],[119.6757,23.55731],[119.67547,23.55833],[119.6765,23.55852],[119.67607,23.55973],[119.67479,23.56029],[119.67459,23.55884],[119.67438,23.56027],[119.67292,23.56029],[119.67291,23.55939],[119.67192,23.5594],[119.67196,23.56142],[119.66936,23.56101],[119.66925,23.56207],[119.66856,23.56151],[119.66828,23.56207],[119.66754,23.56199],[119.66752,23.56119],[119.66966,23.5607],[119.66812,23.56091],[119.66892,23.55989],[119.66819,23.55983],[119.66815,23.55807],[119.6696,23.55674],[119.67093,23.55699],[119.66954,23.55643],[119.66694,23.5587],[119.66659,23.56138],[119.66253,23.56011],[119.65504,23.56082],[119.64664,23.56054],[119.64181,23.55827],[119.63944,23.55571],[119.63865,23.55295],[119.64095,23.55172],[119.63777,23.55289],[119.63468,23.55106],[119.63423,23.55197],[119.62971,23.55424],[119.62608,23.55538],[119.6222,23.55539],[119.62357,23.56029],[119.62144,23.55919],[119.62026,23.5599],[119.6198,23.55786],[119.61857,23.55745],[119.61547,23.55774],[119.61247,23.55972],[119.60938,23.56058],[119.60946,23.56212],[119.60818,23.56266],[119.60985,23.56342],[119.60937,23.56449],[119.61092,23.56506],[119.6116,23.56627],[119.61093,23.57047],[119.61174,23.57991],[119.6065,23.58175],[119.60687,23.58283],[119.60601,23.58318],[119.60619,23.58527],[119.60727,23.58598],[119.60613,23.58695],[119.60716,23.5884],[119.60702,23.59228],[119.60759,23.59299],[119.60612,23.59396],[119.60737,23.59318],[119.60771,23.59371],[119.60628,23.59482],[119.60574,23.59426],[119.60663,23.59601],[119.60453,23.59612],[119.60434,23.59771],[119.60323,23.59849],[119.60382,23.59974],[119.60296,23.60062],[119.60571,23.60254],[119.6058,23.60556],[119.61067,23.60572],[119.61084,23.60478],[119.61266,23.606],[119.61322,23.60199],[119.61466,23.60295],[119.61378,23.60382],[119.61477,23.60308],[119.61363,23.60421],[119.61687,23.60384],[119.61564,23.60357],[119.61599,23.60134],[119.61682,23.60103],[119.62088,23.60215],[119.62174,23.60313],[119.62096,23.60494],[119.61965,23.60554],[119.62048,23.60573],[119.62034,23.60663],[119.61948,23.60606],[119.6195,23.60688],[119.62292,23.60723],[119.62529,23.60899],[119.62657,23.60829],[119.62524,23.6088],[119.62575,23.60792],[119.62426,23.60776],[119.62615,23.60691],[119.62697,23.60672],[119.62732,23.6076],[119.62635,23.60814],[119.62887,23.60673],[119.63094,23.60741],[119.63029,23.60549],[119.63208,23.60435],[119.63083,23.60491],[119.63087,23.60392],[119.63025,23.60435],[119.62944,23.60347],[119.62998,23.60455],[119.62903,23.60386],[119.63031,23.60294],[119.63154,23.604],[119.63046,23.60279],[119.62795,23.60396],[119.62686,23.60229],[119.62736,23.60112],[119.62583,23.60145],[119.62511,23.60043],[119.62724,23.59827],[119.62789,23.59569],[119.62466,23.59282],[119.62496,23.58912],[119.62394,23.58709],[119.62735,23.58383],[119.6265,23.58387],[119.62688,23.58294],[119.62568,23.58255],[119.62427,23.58038],[119.62882,23.58026],[119.62965,23.58199],[119.63181,23.58311],[119.63278,23.58852],[119.63433,23.58984],[119.63361,23.59283],[119.63197,23.5934],[119.63331,23.59299],[119.63263,23.59353],[119.63315,23.59397],[119.63169,23.59394],[119.63309,23.59456],[119.63298,23.59543],[119.63419,23.59642],[119.63698,23.59735],[119.63738,23.59899],[119.64139,23.59865],[119.64,23.59826],[119.64139,23.59648],[119.64015,23.59389],[119.63771,23.59155],[119.64136,23.58884],[119.63958,23.5881],[119.64022,23.58668],[119.64101,23.58784],[119.64367,23.58769],[119.64331,23.58831],[119.6446,23.5891],[119.64185,23.59035],[119.6435,23.59483],[119.64844,23.59391],[119.6436,23.5951],[119.64411,23.59611],[119.64687,23.59678],[119.64651,23.59993],[119.64741,23.60167],[119.64688,23.60193],[119.64814,23.60263],[119.64646,23.60265],[119.64987,23.60357],[119.65078,23.60596],[119.65033,23.60801],[119.64761,23.60609],[119.64655,23.60677],[119.65142,23.60984]]],[[[119.69984,23.62034],[119.70126,23.61965],[119.70079,23.61757],[119.6998,23.61702],[119.69881,23.61721],[119.69923,23.61847],[119.6986,23.61846],[119.69984,23.62034]]],[[[119.68608,23.62776],[119.68709,23.62612],[119.68562,23.62626],[119.68528,23.62477],[119.68385,23.62532],[119.68335,23.62693],[119.68423,23.6261],[119.6843,23.62737],[119.68608,23.62776]]],[[[119.65991,23.63165],[119.66217,23.62986],[119.66212,23.62904],[119.65857,23.63023],[119.65903,23.63177],[119.65991,23.63165]]]]}},{"type":"Feature","properties":{"code":"10016010","name":"澎湖縣馬公市"},"geometry":{"type":"MultiPolygon","coordinates":[[[[119.54115,23.49603],[119.5435,23.49496],[119.54353,23.49363],[119.53687,23.49194],[119.52878,23.48667],[119.51726,23.48545],[119.51503,23.48467],[119.5143,23.48356],[119.51173,23.48299],[119.50903,23.48506],[119.5095,23.49052],[119.51037,23.49146],[119.51275,23.49092],[119.51361,23.48835],[119.51447,23.48826],[119.51446,23.48759],[119.51367,23.48801],[119.51414,23.48701],[119.51545,23.48649],[119.51665,23.48797],[119.516,23.48693],[119.51713,23.48652],[119.51769,23.48727],[119.51594,23.48826],[119.51814,23.48778],[119.52067,23.49007],[119.52072,23.49222],[119.5256,23.49274],[119.52931,23.49584],[119.53502,23.49594],[119.53744,23.49807],[119.54115,23.49603]]],[[[119.52052,23.51505],[119.52181,23.51434],[119.52182,23.50969],[119.5196,23.50875],[119.51446,23.5094],[119.51595,23.51257],[119.51605,23.51465],[119.5171,23.51473],[119.51763,23.51367],[119.51911,23.51318],[119.51758,23.51266],[119.51969,23.51222],[119.52086,23.51398],[119.51923,23.51366],[119.52053,23.51424],[119.52052,23.51505]]],[[[119.53334,23.54167],[119.53344,23.53946],[119.53263,23.53871],[119.53153,23.53968],[119.53153,23.54085],[119.5301,23.54123],[119.53334,23.54167]]],[[[119.58417,23.59419],[119.58387,23.59157],[119.58286,23.59088],[119.5844,23.58952],[119.58333,23.58935],[119.5845,23.58862],[119.58571,23.58896],[119.58614,23.58671],[119.58376,23.58487],[119.58542,23.58569],[119.58347,23.58442],[119.58343,23.58317],[119.5824,23.58301],[119.58328,23.5814],[119.58576,23.58039],[119.58322,23.58118],[119.583,23.58056],[119.58554,23.58009],[119.58297,23.58045],[119.58274,23.57981],[119.58664,23.57828],[119.58794,23.5788],[119.58817,23.58041],[119.58891,23.58078],[119.58887,23.57875],[119.5856,23.57604],[119.58553,23.57361],[119.58713,23.57227],[119.58699,23.57119],[119.58742,23.57193],[119.58987,23.57228],[119.59111,23.57451],[119.59412,23.57482],[119.59393,23.57044],[119.59728,23.56899],[119.59689,23.57034],[119.59785,23.57488],[119.59884,23.57583],[119.60025,23.57564],[119.59964,23.57658],[119.60048,23.57561],[119.60015,23.57658],[119.60213,23.57707],[119.59749,23.57694],[119.59872,23.57752],[119.59938,23.57695],[119.59934,23.57785],[119.59834,23.57822],[119.59937,23.57835],[119.59805,23.57874],[119.59907,23.57901],[119.59889,23.58052],[119.59972,23.58058],[119.59843,23.5828],[119.60067,23.58471],[119.60611,23.58532],[119.60601,23.58318],[119.60687,23.58283],[119.60638,23.58186],[119.61174,23.57991],[119.61093,23.57047],[119.6116,23.56627],[119.61092,23.56506],[119.60937,23.56449],[119.60985,23.56342],[119.60818,23.56266],[119.60946,23.56212],[119.60938,23.56058],[119.61247,23.55972],[119.61547,23.55774],[119.61857,23.55745],[119.6198,23.55786],[119.62026,23.5599],[119.62144,23.55919],[119.62357,23.56029],[119.6222,23.55539],[119.62608,23.55538],[119.62971,23.55424],[119.63423,23.55197],[119.63482,23.55085],[119.63439,23.54895],[119.63535,23.54759],[119.63505,23.54673],[119.63198,23.54604],[119.6314,23.54773],[119.62914,23.54763],[119.62757,23.54576],[119.6249,23.54481],[119.62544,23.54277],[119.6248,23.54247],[119.62525,23.54429],[119.62406,23.54464],[119.62359,23.54415],[119.62491,23.54305],[119.62363,23.54384],[119.62087,23.54207],[119.62146,23.53808],[119.61966,23.53768],[119.61735,23.53891],[119.61429,23.53801],[119.61233,23.53601],[119.6117,23.53272],[119.6107,23.53311],[119.60961,23.53211],[119.60917,23.53],[119.60698,23.5297],[119.60538,23.52833],[119.60506,23.52774],[119.60707,23.52528],[119.60547,23.52712],[119.60472,23.5261],[119.60568,23.52549],[119.60464,23.52579],[119.60446,23.52514],[119.60596,23.52476],[119.60515,23.52401],[119.60643,23.52214],[119.61073,23.52287],[119.61176,23.52195],[119.61083,23.51978],[119.61161,23.51884],[119.60552,23.5164],[119.60794,23.51257],[119.60742,23.508],[119.60615,23.50785],[119.60477,23.5092],[119.60166,23.50944],[119.60062,23.511],[119.59873,23.51179],[119.59756,23.51027],[119.59832,23.51179],[119.59778,23.51141],[119.59755,23.51231],[119.5972,23.51172],[119.59679,23.51224],[119.59706,23.51328],[119.59815,23.51342],[119.59782,23.51421],[119.59666,23.51379],[119.596,23.51234],[119.59688,23.51059],[119.59561,23.51142],[119.59552,23.51251],[119.59022,23.51283],[119.58864,23.51222],[119.58896,23.51146],[119.58795,23.51069],[119.58716,23.51106],[119.5843,23.5092],[119.57888,23.50947],[119.5757,23.50737],[119.57285,23.50807],[119.57133,23.50937],[119.5707,23.51223],[119.57143,23.51439],[119.57401,23.51738],[119.57217,23.52247],[119.56744,23.52582],[119.56454,23.52628],[119.56284,23.5261],[119.56094,23.524],[119.55699,23.52347],[119.55354,23.52828],[119.55437,23.53006],[119.55341,23.532],[119.55174,23.53322],[119.54878,23.53324],[119.5483,23.53404],[119.54834,23.53549],[119.54956,23.53566],[119.55021,23.5369],[119.54947,23.53901],[119.5477,23.53952],[119.54391,23.5372],[119.54127,23.53877],[119.54145,23.54113],[119.54024,23.54149],[119.54146,23.54132],[119.54127,23.54237],[119.5404,23.54196],[119.5425,23.54549],[119.54233,23.54825],[119.54335,23.54628],[119.54346,23.54685],[119.54415,23.54679],[119.54353,23.54668],[119.54385,23.54609],[119.54533,23.54648],[119.54537,23.54783],[119.54686,23.54899],[119.54632,23.5498],[119.54723,23.55265],[119.54845,23.55414],[119.54915,23.55357],[119.54794,23.55103],[119.55186,23.54841],[119.55089,23.54771],[119.55121,23.54304],[119.55016,23.54284],[119.55074,23.54211],[119.54999,23.54122],[119.55057,23.541],[119.54978,23.54067],[119.55063,23.54013],[119.55138,23.54272],[119.55104,23.54065],[119.55682,23.53799],[119.55633,23.53534],[119.55728,23.53393],[119.55455,23.53117],[119.55475,23.5293],[119.55735,23.52678],[119.56132,23.52696],[119.55978,23.52837],[119.56086,23.53083],[119.56278,23.5302],[119.5629,23.52931],[119.56463,23.52983],[119.56608,23.53161],[119.56443,23.53357],[119.56552,23.53471],[119.56648,23.53209],[119.56778,23.53121],[119.57188,23.53198],[119.57187,23.53084],[119.5735,23.52912],[119.57228,23.53015],[119.57273,23.52888],[119.57221,23.5295],[119.57121,23.529],[119.57182,23.52804],[119.57251,23.5284],[119.57193,23.52789],[119.57234,23.52723],[119.57332,23.52774],[119.57277,23.52866],[119.57348,23.52779],[119.57446,23.5279],[119.57412,23.52692],[119.57145,23.52524],[119.57349,23.52266],[119.57441,23.51967],[119.5759,23.51994],[119.57555,23.5212],[119.57725,23.52137],[119.57958,23.52289],[119.57918,23.52394],[119.57836,23.52362],[119.58034,23.52369],[119.57992,23.52578],[119.58133,23.52625],[119.581,23.52824],[119.57978,23.52737],[119.58048,23.53144],[119.58273,23.5327],[119.58512,23.53198],[119.58641,23.52915],[119.58815,23.53003],[119.58759,23.53081],[119.58832,23.53117],[119.58767,23.53145],[119.58854,23.53063],[119.59052,23.53079],[119.59075,23.53218],[119.59089,23.53056],[119.59303,23.52872],[119.59255,23.5279],[119.59614,23.52671],[119.59671,23.52865],[119.59978,23.53109],[119.59916,23.53103],[119.59938,23.53233],[119.59889,23.53185],[119.59769,23.53276],[119.59566,23.53252],[119.59724,23.53281],[119.59491,23.53686],[119.59505,23.53802],[119.59629,23.53945],[119.5994,23.5384],[119.60045,23.54014],[119.6031,23.54027],[119.60045,23.54342],[119.60011,23.54535],[119.6021,23.54635],[119.60245,23.54779],[119.60406,23.54777],[119.60411,23.54834],[119.60225,23.54787],[119.59957,23.55028],[119.59839,23.54927],[119.5984,23.55001],[119.59595,23.54966],[119.59586,23.54812],[119.59564,23.54905],[119.5944,23.54843],[119.59542,23.55024],[119.5935,23.5499],[119.59302,23.55104],[119.59145,23.55128],[119.59283,23.55125],[119.59214,23.55275],[119.59119,23.55286],[119.59108,23.54979],[119.59041,23.55078],[119.59117,23.55104],[119.59105,23.55227],[119.58899,23.55143],[119.5885,23.55001],[119.58878,23.55139],[119.5875,23.55195],[119.58701,23.55091],[119.58805,23.55045],[119.58717,23.55076],[119.58656,23.54963],[119.58501,23.54971],[119.58363,23.54837],[119.58201,23.54874],[119.58134,23.54975],[119.57632,23.54739],[119.57444,23.54732],[119.57315,23.54629],[119.57327,23.54531],[119.57233,23.54913],[119.56865,23.54842],[119.56967,23.551],[119.56905,23.5513],[119.56805,23.55112],[119.56815,23.54986],[119.56607,23.55001],[119.56478,23.54779],[119.56507,23.54918],[119.56302,23.54986],[119.56226,23.54861],[119.56238,23.55007],[119.56294,23.55143],[119.5637,23.552],[119.56528,23.55162],[119.56556,23.55266],[119.56203,23.55246],[119.56239,23.55332],[119.56105,23.55483],[119.56261,23.55573],[119.56259,23.55713],[119.56189,23.55694],[119.56297,23.55775],[119.56395,23.5563],[119.56695,23.55529],[119.56822,23.55284],[119.57119,23.55287],[119.57355,23.55451],[119.57572,23.55487],[119.57211,23.55843],[119.57299,23.55805],[119.57343,23.55882],[119.57276,23.55932],[119.57629,23.55701],[119.57745,23.55865],[119.57465,23.56036],[119.5742,23.55991],[119.57515,23.56114],[119.57236,23.56315],[119.57343,23.56359],[119.57683,23.56055],[119.5782,23.5619],[119.57661,23.56375],[119.57844,23.56219],[119.579,23.56275],[119.57832,23.56339],[119.57955,23.5634],[119.57813,23.56467],[119.57756,23.56411],[119.57777,23.56499],[119.57683,23.5658],[119.57556,23.56458],[119.57483,23.56519],[119.57609,23.56642],[119.57543,23.56705],[119.57494,23.56658],[119.5752,23.56724],[119.5743,23.56797],[119.57187,23.56516],[119.57027,23.56663],[119.56964,23.56604],[119.57033,23.5652],[119.56948,23.56591],[119.56888,23.56532],[119.57015,23.5643],[119.5713,23.56509],[119.56824,23.56209],[119.5676,23.56246],[119.56977,23.56399],[119.569,23.56466],[119.56703,23.56274],[119.56497,23.56262],[119.56457,23.5615],[119.56478,23.56267],[119.56234,23.56188],[119.56155,23.5626],[119.56125,23.56153],[119.56099,23.56222],[119.56071,23.56162],[119.55972,23.56206],[119.55984,23.5611],[119.56098,23.56118],[119.55976,23.56101],[119.55964,23.56186],[119.55958,23.56095],[119.55809,23.56069],[119.55731,23.56229],[119.55573,23.56325],[119.55976,23.56415],[119.5605,23.56666],[119.55994,23.57036],[119.56638,23.57346],[119.56742,23.57494],[119.56655,23.5779],[119.56196,23.58374],[119.56167,23.58506],[119.56419,23.58584],[119.56588,23.58558],[119.56581,23.58475],[119.56676,23.58526],[119.56674,23.58469],[119.57071,23.58579],[119.57001,23.58516],[119.57179,23.58485],[119.57198,23.5857],[119.57111,23.58593],[119.57215,23.58573],[119.5719,23.58463],[119.5725,23.58568],[119.57442,23.58484],[119.5771,23.58628],[119.57627,23.58749],[119.57868,23.58782],[119.5801,23.58962],[119.5818,23.59009],[119.58263,23.59176],[119.58172,23.59211],[119.58185,23.59367],[119.58417,23.59419]]]]}},{"type":"Feature","properties":{"code":"10016030","name":"澎湖縣白沙鄉"},"geometry":{"type":"MultiPolygon","coordinates":[[[[119.57083,23.61774],[119.56993,23.61652],[119.56813,23.61659],[119.56979,23.61667],[119.56983,23.61734],[119.56801,23.61759],[119.5684,23.61698],[119.56773,23.61656],[119.56783,23.61745],[119.56519,23.61922],[119.56736,23.61994],[119.56752,23.62205],[119.5686,23.62266],[119.5698,23.62147],[119.57083,23.61774]]],[[[119.63445,23.65148],[119.63687,23.65046],[119.63609,23.64766],[119.63409,23.64651],[119.63397,23.64292],[119.63312,23.64364],[119.63311,23.64652],[119.63066,23.64465],[119.63155,23.64575],[119.62966,23.64627],[119.63174,23.64591],[119.6318,23.64765],[119.62955,23.64678],[119.63163,23.64776],[119.63231,23.6514],[119.63329,23.65196],[119.63445,23.65148]]],[[[119.64145,23.66037],[119.64543,23.66],[119.63933,23.65929],[119.63839,23.65799],[119.63972,23.66025],[119.64145,23.66037]]],[[[119.66432,23.66957],[119.66536,23.66987],[119.66528,23.66895],[119.66736,23.66863],[119.6662,23.66792],[119.66696,23.66719],[119.66572,23.66689],[119.66601,23.6655],[119.66532,23.66533],[119.66617,23.66416],[119.66528,23.66346],[119.66644,23.66207],[119.66568,23.66047],[119.66769,23.66051],[119.66471,23.65977],[119.66418,23.65871],[119.65746,23.65951],[119.65408,23.6568],[119.65714,23.65972],[119.65922,23.65906],[119.6582,23.65994],[119.65924,23.66016],[119.65846,23.66094],[119.65682,23.65972],[119.6557,23.66092],[119.65504,23.66048],[119.6564,23.6594],[119.65566,23.65926],[119.65475,23.66051],[119.65756,23.66257],[119.66184,23.6635],[119.66314,23.6666],[119.66375,23.66653],[119.66366,23.66967],[119.66438,23.67029],[119.66432,23.66957]]],[[[119.61893,23.67537],[119.61957,23.67529],[119.61949,23.67351],[119.61839,23.673],[119.61421,23.66525],[119.61847,23.6733],[119.6165,23.67324],[119.6159,23.66853],[119.61624,23.67404],[119.61781,23.67584],[119.61893,23.67537]]],[[[119.671,23.67614],[119.67266,23.67561],[119.67272,23.67445],[119.67133,23.67468],[119.67073,23.67379],[119.66859,23.67345],[119.671,23.67614]]],[[[119.55623,23.67661],[119.55686,23.67543],[119.55634,23.67341],[119.55477,23.67399],[119.55407,23.6755],[119.55439,23.67656],[119.55623,23.67661]]],[[[119.5843,23.67657],[119.58681,23.67456],[119.58746,23.67292],[119.5909,23.67177],[119.59456,23.67179],[119.59678,23.67441],[119.59964,23.67388],[119.60019,23.671],[119.60549,23.66825],[119.60505,23.66762],[119.60522,23.66819],[119.60358,23.6689],[119.60332,23.66796],[119.6051,23.6672],[119.60496,23.66661],[119.60326,23.66769],[119.603,23.66683],[119.6042,23.66693],[119.60382,23.66584],[119.60289,23.6665],[119.60291,23.66448],[119.60415,23.66477],[119.60458,23.66637],[119.60407,23.66404],[119.60702,23.66289],[119.60984,23.66359],[119.60638,23.65947],[119.60944,23.65465],[119.61227,23.65278],[119.61361,23.65291],[119.6117,23.65176],[119.61198,23.65007],[119.61022,23.6481],[119.61109,23.6474],[119.60899,23.64937],[119.60866,23.64854],[119.60964,23.6478],[119.60844,23.64892],[119.60375,23.64949],[119.60232,23.64891],[119.60201,23.64795],[119.60076,23.64806],[119.60241,23.64724],[119.60089,23.64768],[119.6002,23.6452],[119.60244,23.64174],[119.60175,23.64253],[119.59762,23.64122],[119.5974,23.63961],[119.59924,23.63631],[119.60085,23.63517],[119.60274,23.63741],[119.60173,23.638],[119.60303,23.6374],[119.60076,23.63479],[119.60298,23.63351],[119.60474,23.63414],[119.60697,23.63664],[119.609,23.63521],[119.61035,23.63569],[119.60954,23.63265],[119.60418,23.63165],[119.60461,23.63109],[119.60366,23.63084],[119.60391,23.62969],[119.60234,23.62852],[119.60467,23.62521],[119.60603,23.62081],[119.60717,23.62236],[119.60958,23.62083],[119.61348,23.62007],[119.61374,23.61404],[119.60988,23.61057],[119.61266,23.606],[119.60964,23.61037],[119.60702,23.60999],[119.60535,23.6107],[119.60565,23.60975],[119.60435,23.60907],[119.60335,23.61017],[119.60391,23.611],[119.60299,23.61075],[119.60314,23.6119],[119.60253,23.61171],[119.60301,23.61098],[119.60245,23.61156],[119.60208,23.61074],[119.60085,23.61121],[119.60199,23.61093],[119.60161,23.6117],[119.60249,23.61211],[119.60127,23.6126],[119.60104,23.61141],[119.60054,23.61167],[119.60129,23.61307],[119.59732,23.6159],[119.59735,23.61741],[119.60225,23.6172],[119.60547,23.62008],[119.60453,23.625],[119.6019,23.62396],[119.60014,23.62039],[119.59905,23.62122],[119.59941,23.62229],[119.59852,23.62333],[119.59656,23.62428],[119.59621,23.6235],[119.59556,23.62371],[119.5964,23.62429],[119.59555,23.62465],[119.59169,23.62416],[119.58969,23.62226],[119.58851,23.62267],[119.58942,23.62364],[119.58917,23.62522],[119.59129,23.62802],[119.59071,23.62956],[119.59499,23.63249],[119.5958,23.63547],[119.59412,23.64118],[119.58926,23.64419],[119.5879,23.64407],[119.58876,23.64542],[119.58852,23.64715],[119.58702,23.64775],[119.58619,23.64982],[119.58242,23.65264],[119.58201,23.65407],[119.58324,23.65547],[119.5818,23.65676],[119.57942,23.65635],[119.58075,23.65669],[119.58009,23.65725],[119.58072,23.65761],[119.57978,23.65709],[119.57983,23.65773],[119.5827,23.65804],[119.58087,23.65906],[119.58162,23.66084],[119.58103,23.66181],[119.5795,23.6614],[119.57768,23.66254],[119.57104,23.66223],[119.56749,23.66],[119.56656,23.65683],[119.56706,23.65604],[119.56496,23.65487],[119.56326,23.65139],[119.55864,23.65563],[119.55705,23.65543],[119.55597,23.65433],[119.55689,23.65548],[119.55629,23.65579],[119.55809,23.65572],[119.55557,23.65626],[119.55448,23.65751],[119.55407,23.65706],[119.55604,23.65549],[119.55399,23.65698],[119.54488,23.64655],[119.5534,23.65678],[119.55131,23.65803],[119.55353,23.65697],[119.554,23.65751],[119.55216,23.65948],[119.55015,23.65775],[119.55045,23.65904],[119.55207,23.66027],[119.55086,23.66278],[119.55257,23.66381],[119.55283,23.66582],[119.55519,23.66855],[119.56081,23.67072],[119.56498,23.67083],[119.56861,23.67208],[119.56949,23.67111],[119.56966,23.67181],[119.57025,23.67027],[119.57046,23.67092],[119.5697,23.67107],[119.57107,23.67153],[119.57037,23.67232],[119.56824,23.67247],[119.57042,23.6724],[119.57123,23.67155],[119.57193,23.6726],[119.57766,23.67437],[119.57872,23.67624],[119.5823,23.67752],[119.5843,23.67657]]],[[[119.66684,23.68286],[119.66712,23.68193],[119.66807,23.68262],[119.6674,23.6813],[119.66843,23.68095],[119.6681,23.67874],[119.66944,23.67761],[119.66803,23.67604],[119.66787,23.67717],[119.66678,23.67633],[119.66473,23.67754],[119.666,23.67853],[119.66495,23.68122],[119.66553,23.68159],[119.66682,23.68047],[119.66636,23.68172],[119.66689,23.6825],[119.66614,23.68308],[119.66684,23.68286]]],[[[119.67074,23.69064],[119.67166,23.69062],[119.6726,23.68887],[119.67166,23.68744],[119.67256,23.6861],[119.67107,23.68431],[119.67207,23.68361],[119.67154,23.68191],[119.67174,23.6825],[119.67023,23.68379],[119.67019,23.68462],[119.67094,23.6847],[119.66956,23.68744],[119.67087,23.68741],[119.67062,23.68845],[119.67146,23.68854],[119.67074,23.69064]]],[[[119.65184,23.69379],[119.65328,23.69216],[119.65264,23.69071],[119.65172,23.69097],[119.65151,23.69233],[119.65042,23.69167],[119.64956,23.69316],[119.65184,23.69379]]],[[[119.59422,23.69442],[119.59535,23.69359],[119.59493,23.69116],[119.59347,23.69433],[119.59422,23.69442]]],[[[119.61177,23.71105],[119.61258,23.71125],[119.6127,23.7101],[119.61217,23.71096],[119.61045,23.7104],[119.60954,23.70893],[119.60986,23.71023],[119.6115,23.71089],[119.61165,23.71168],[119.61177,23.71105]]],[[[119.60967,23.71066],[119.60752,23.71067],[119.60697,23.71142],[119.60878,23.71368],[119.61019,23.71117],[119.60967,23.71066]]],[[[119.55213,23.72083],[119.5517,23.7197],[119.55496,23.72113],[119.55703,23.72066],[119.55739,23.719],[119.55818,23.71862],[119.55896,23.71994],[119.55884,23.71845],[119.55765,23.71829],[119.55813,23.71677],[119.55674,23.71516],[119.55861,23.71095],[119.55532,23.70864],[119.55527,23.70973],[119.55319,23.71157],[119.55609,23.71389],[119.55421,23.71651],[119.55505,23.71619],[119.55624,23.71712],[119.5533,23.71942],[119.55102,23.719],[119.55093,23.72019],[119.55266,23.72194],[119.55213,23.72083]]],[[[119.61236,23.756],[119.61162,23.75395],[119.6125,23.75285],[119.61781,23.75109],[119.62078,23.7495],[119.62144,23.74835],[119.62192,23.74933],[119.62187,23.74814],[119.62311,23.7472],[119.62322,23.74376],[119.62381,23.74369],[119.62314,23.74277],[119.62017,23.74285],[119.61876,23.74112],[119.61964,23.74031],[119.61794,23.74081],[119.61861,23.74167],[119.61604,23.74171],[119.61547,23.74101],[119.61576,23.7376],[119.61551,23.73894],[119.61399,23.73941],[119.61546,23.73908],[119.61501,23.74066],[119.61417,23.74064],[119.61488,23.73986],[119.61403,23.74019],[119.61371,23.73952],[119.61274,23.73982],[119.61384,23.74027],[119.6126,23.7405],[119.61309,23.74111],[119.61136,23.74148],[119.61243,23.74054],[119.61108,23.74105],[119.61089,23.74054],[119.61244,23.73991],[119.61083,23.74041],[119.61052,23.73956],[119.61435,23.73863],[119.61498,23.73744],[119.60992,23.73905],[119.60706,23.73755],[119.60476,23.73264],[119.60317,23.73143],[119.60399,23.72674],[119.60265,23.72537],[119.60141,23.72607],[119.60201,23.73017],[119.60023,23.73476],[119.59862,23.73622],[119.59655,23.73656],[119.59585,23.73771],[119.59662,23.73889],[119.59597,23.73903],[119.59706,23.73984],[119.59741,23.74188],[119.60213,23.74375],[119.60406,23.74561],[119.60664,23.75181],[119.60582,23.75201],[119.60861,23.75247],[119.60869,23.75343],[119.60753,23.75375],[119.60692,23.75282],[119.60792,23.75236],[119.60565,23.75228],[119.60575,23.75334],[119.60829,23.75421],[119.60779,23.75526],[119.60975,23.75594],[119.61129,23.75877],[119.61236,23.756]]],[[[119.60626,23.77567],[119.60735,23.77374],[119.60646,23.77321],[119.60809,23.77325],[119.60741,23.77069],[119.6025,23.76733],[119.59927,23.75836],[119.59757,23.75782],[119.59649,23.76205],[119.59886,23.76567],[119.5985,23.76703],[119.59978,23.76784],[119.59881,23.76886],[119.5998,23.76972],[119.60185,23.76903],[119.60165,23.77051],[119.60525,23.77291],[119.60446,23.77324],[119.60471,23.77396],[119.60602,23.77443],[119.60632,23.77552],[119.60537,23.77538],[119.60626,23.77567]]],[[[119.60079,23.78759],[119.6018,23.78644],[119.59975,23.78353],[119.60007,23.78496],[119.59844,23.78544],[119.60028,23.78711],[119.59989,23.78759],[119.60079,23.78759]]],[[[119.59681,23.79806],[119.59854,23.79699],[119.59858,23.79614],[119.60022,23.79605],[119.6007,23.79435],[119.59917,23.79351],[119.59871,23.79454],[119.59932,23.7951],[119.59817,23.79533],[119.59668,23.79722],[119.59686,23.79625],[119.59584,23.79576],[119.59576,23.79789],[119.59681,23.79806]]]]}},{"type":"Feature","properties":{"code":"10016040","name":"澎湖縣西嶼鄉"},"geometry":{"type":"Polygon","coordinates":[[[119.52366,23.65582],[119.52458,23.65456],[119.52378,23.65226],[119.52431,23.6513],[119.51949,23.64756],[119.51935,23.64447],[119.52165,23.64267],[119.52356,23.64249],[119.52366,23.64328],[119.52573,23.64394],[119.52532,23.64218],[119.52774,23.64051],[119.53128,23.64005],[119.52947,23.63995],[119.5319,23.63893],[119.53136,23.6405],[119.53201,23.63893],[119.53556,23.63867],[119.53625,23.63948],[119.54007,23.64024],[119.54502,23.64647],[119.54232,23.64299],[119.54214,23.64149],[119.54074,23.64061],[119.54159,23.64008],[119.54375,23.6408],[119.54294,23.63992],[119.54307,23.63794],[119.54073,23.63693],[119.54041,23.63443],[119.5389,23.63291],[119.53939,23.63265],[119.53829,23.63275],[119.53882,23.63326],[119.53739,23.63401],[119.53796,23.63332],[119.53738,23.63272],[119.53919,23.63222],[119.53641,23.63278],[119.5365,23.63366],[119.53191,23.63233],[119.53025,23.63019],[119.52461,23.63006],[119.52296,23.62877],[119.52298,23.62952],[119.52482,23.63066],[119.52336,23.63124],[119.52393,23.63016],[119.523,23.63066],[119.52276,23.62908],[119.5223,23.63134],[119.52168,23.63126],[119.51786,23.62793],[119.51811,23.62536],[119.51952,23.62417],[119.52114,23.62079],[119.51948,23.61952],[119.52177,23.61482],[119.52125,23.61258],[119.5201,23.61222],[119.52118,23.61186],[119.52095,23.61083],[119.51982,23.61088],[119.52297,23.60484],[119.52249,23.60343],[119.52313,23.60177],[119.51963,23.59453],[119.51744,23.59419],[119.51659,23.59328],[119.51708,23.59435],[119.51489,23.5947],[119.51229,23.5922],[119.51635,23.58433],[119.51384,23.57993],[119.51328,23.58011],[119.51476,23.58244],[119.51332,23.58239],[119.51331,23.58148],[119.51305,23.58237],[119.51205,23.58189],[119.51203,23.58089],[119.51291,23.58082],[119.51204,23.58071],[119.51204,23.57952],[119.51328,23.57949],[119.51254,23.57565],[119.51521,23.57458],[119.51373,23.57288],[119.51314,23.57058],[119.51403,23.56943],[119.51584,23.56968],[119.51415,23.56896],[119.5147,23.56844],[119.51594,23.56928],[119.51501,23.56831],[119.51741,23.56795],[119.518,23.56701],[119.51532,23.56417],[119.51269,23.56442],[119.51131,23.56372],[119.50934,23.56505],[119.50126,23.56736],[119.50195,23.56623],[119.50038,23.56533],[119.49872,23.56619],[119.50114,23.56584],[119.50173,23.56674],[119.50057,23.56716],[119.50018,23.56652],[119.49945,23.56774],[119.49617,23.56814],[119.49224,23.5662],[119.49132,23.56338],[119.48973,23.56266],[119.48444,23.56389],[119.48078,23.56261],[119.48287,23.56355],[119.48308,23.56434],[119.48065,23.56441],[119.479,23.56295],[119.47998,23.56306],[119.48088,23.56186],[119.47964,23.56263],[119.47652,23.55981],[119.47419,23.56009],[119.47204,23.55927],[119.46793,23.56054],[119.46723,23.56136],[119.46862,23.56457],[119.47785,23.56894],[119.4813,23.57543],[119.48152,23.5749],[119.4834,23.57541],[119.48516,23.57402],[119.48501,23.57329],[119.48831,23.57114],[119.48829,23.57026],[119.49184,23.56983],[119.49718,23.57223],[119.49708,23.5736],[119.49882,23.57471],[119.49917,23.57613],[119.49889,23.57422],[119.50027,23.57461],[119.50082,23.57593],[119.49968,23.57499],[119.5,23.57621],[119.49917,23.57705],[119.50087,23.57623],[119.50335,23.5791],[119.50287,23.58068],[119.50426,23.58514],[119.50315,23.58607],[119.50459,23.58597],[119.50446,23.58735],[119.50215,23.59045],[119.49853,23.59296],[119.49223,23.59444],[119.48952,23.59426],[119.49031,23.59568],[119.4941,23.59607],[119.49404,23.59728],[119.49146,23.5986],[119.4938,23.60208],[119.49448,23.60045],[119.49818,23.6007],[119.49753,23.59677],[119.49838,23.59567],[119.49991,23.59535],[119.50106,23.59686],[119.50196,23.59599],[119.50443,23.5973],[119.5045,23.59864],[119.50357,23.59869],[119.50445,23.59873],[119.50406,23.59966],[119.50352,23.59915],[119.50308,23.59961],[119.50383,23.59982],[119.50301,23.60048],[119.50243,23.59961],[119.50295,23.60087],[119.50222,23.60094],[119.50217,23.60385],[119.50317,23.60405],[119.50351,23.60536],[119.50265,23.60567],[119.50505,23.60775],[119.50448,23.60973],[119.5082,23.61074],[119.50895,23.61265],[119.50713,23.61449],[119.50735,23.61517],[119.50529,23.61536],[119.50481,23.61634],[119.50571,23.61643],[119.50509,23.61678],[119.50571,23.61739],[119.50382,23.6165],[119.50456,23.61624],[119.50432,23.61509],[119.50386,23.61611],[119.50083,23.61766],[119.49966,23.61952],[119.50022,23.61969],[119.49929,23.6201],[119.50167,23.6227],[119.50421,23.62411],[119.5043,23.62567],[119.50252,23.6278],[119.50218,23.631],[119.50396,23.63559],[119.50494,23.63615],[119.50657,23.63558],[119.50751,23.63632],[119.5074,23.63818],[119.50905,23.63998],[119.51203,23.64835],[119.51368,23.64854],[119.5138,23.64773],[119.51455,23.64779],[119.51562,23.64984],[119.51794,23.64901],[119.51814,23.64771],[119.51967,23.64815],[119.51941,23.64966],[119.51792,23.6492],[119.51827,23.65002],[119.51728,23.65232],[119.51492,23.65157],[119.51422,23.65202],[119.51352,23.65374],[119.51423,23.65552],[119.51792,23.65457],[119.52007,23.65557],[119.52366,23.65582]]]}},{"type":"Feature","properties":{"code":"10016050","name":"澎湖縣望安鄉"},"geometry":{"type":"MultiPolygon","coordinates":[[[[119.61615,23.25372],[119.62139,23.25294],[119.62139,23.25142],[119.62066,23.25146],[119.6211,23.25016],[119.61964,23.24871],[119.62191,23.24654],[119.62211,23.24572],[119.62149,23.24555],[119.62238,23.24524],[119.6218,23.24475],[119.61952,23.24543],[119.61739,23.24385],[119.61531,23.2441],[119.61388,23.2454],[119.61092,23.24617],[119.60977,23.24732],[119.61007,23.24813],[119.60868,23.24891],[119.60874,23.25142],[119.61208,23.2522],[119.61348,23.25363],[119.61494,23.25304],[119.61615,23.25372]]],[[[119.67737,23.26407],[119.67914,23.26359],[119.67908,23.26164],[119.68009,23.26019],[119.67855,23.26033],[119.67792,23.25604],[119.67401,23.25304],[119.67445,23.25189],[119.6727,23.25128],[119.67294,23.24887],[119.67411,23.24807],[119.67309,23.24792],[119.67425,23.24671],[119.67259,23.24621],[119.67229,23.24417],[119.6711,23.24389],[119.67088,23.24572],[119.66964,23.2462],[119.66935,23.24773],[119.66712,23.2494],[119.66597,23.24836],[119.66642,23.25034],[119.66458,23.25054],[119.66677,23.25237],[119.66653,23.25492],[119.66659,23.25345],[119.66739,23.25313],[119.66755,23.25451],[119.66698,23.2546],[119.66786,23.25547],[119.66676,23.2553],[119.66696,23.25637],[119.66593,23.25698],[119.66542,23.25861],[119.66619,23.26085],[119.66744,23.26193],[119.67054,23.26273],[119.67071,23.26335],[119.67408,23.26259],[119.67737,23.26407]]],[[[119.66094,23.26437],[119.66163,23.26293],[119.66003,23.25996],[119.65673,23.26098],[119.65766,23.26201],[119.65748,23.26327],[119.66094,23.26437]]],[[[119.51977,23.26463],[119.5218,23.26447],[119.52208,23.26208],[119.51957,23.26077],[119.51907,23.25921],[119.51647,23.25698],[119.5164,23.25477],[119.51395,23.25589],[119.51168,23.25521],[119.5092,23.25672],[119.51137,23.25575],[119.51109,23.25653],[119.51205,23.25683],[119.51073,23.25644],[119.51004,23.25716],[119.51282,23.25748],[119.51438,23.26049],[119.51407,23.26232],[119.5185,23.26524],[119.51977,23.26463]]],[[[119.50675,23.27256],[119.50986,23.27322],[119.51101,23.27074],[119.51117,23.26675],[119.51031,23.26719],[119.50963,23.26646],[119.51002,23.26726],[119.50466,23.2685],[119.50276,23.27271],[119.50592,23.27256],[119.50643,23.27331],[119.50675,23.27256]]],[[[119.33667,23.32235],[119.33753,23.32145],[119.33712,23.31957],[119.33843,23.31803],[119.33689,23.3171],[119.33521,23.31766],[119.33486,23.32055],[119.33557,23.3225],[119.33667,23.32235]]],[[[119.32026,23.32604],[119.32295,23.32384],[119.3211,23.32333],[119.3209,23.32469],[119.31922,23.32387],[119.3183,23.32525],[119.31866,23.3248],[119.31955,23.32589],[119.31986,23.32763],[119.32026,23.32604]]],[[[119.4791,23.35921],[119.48161,23.35618],[119.48034,23.35674],[119.4791,23.35921]]],[[[119.53755,23.36195],[119.53847,23.36183],[119.53782,23.36189],[119.53766,23.35993],[119.53557,23.36128],[119.53645,23.36334],[119.53766,23.36266],[119.53755,23.36195]]],[[[119.52363,23.37486],[119.52434,23.37436],[119.52566,23.37503],[119.52705,23.37334],[119.52454,23.37336],[119.52304,23.37443],[119.52317,23.37557],[119.52363,23.37486]]],[[[119.53712,23.37527],[119.53766,23.37413],[119.54083,23.37272],[119.542,23.36995],[119.54148,23.36756],[119.54331,23.36693],[119.54272,23.36649],[119.54351,23.36634],[119.54384,23.36497],[119.54148,23.36509],[119.54025,23.36625],[119.53751,23.36524],[119.53247,23.36691],[119.53155,23.36582],[119.52803,23.36455],[119.5271,23.36271],[119.52593,23.36281],[119.52571,23.36146],[119.52665,23.35967],[119.52526,23.35727],[119.52392,23.35756],[119.52472,23.35941],[119.52388,23.36061],[119.5213,23.36121],[119.52047,23.35994],[119.5206,23.36106],[119.51959,23.36238],[119.52052,23.36125],[119.52133,23.36225],[119.51991,23.36348],[119.51978,23.36264],[119.51858,23.36409],[119.51959,23.36683],[119.52097,23.36709],[119.52337,23.36588],[119.52528,23.36661],[119.52636,23.36764],[119.52543,23.36972],[119.52649,23.36789],[119.5272,23.36821],[119.52655,23.36945],[119.52729,23.36826],[119.52765,23.36871],[119.52681,23.371],[119.52539,23.36998],[119.52711,23.37238],[119.52816,23.37287],[119.52927,23.37163],[119.53055,23.37173],[119.53118,23.37383],[119.53301,23.3724],[119.53342,23.37319],[119.53601,23.37366],[119.53615,23.37549],[119.53712,23.37527]]],[[[119.52737,23.37886],[119.528,23.37937],[119.52783,23.37851],[119.52827,23.37777],[119.52928,23.37801],[119.52963,23.3765],[119.52883,23.37623],[119.52646,23.3786],[119.52644,23.37949],[119.52737,23.37886]]],[[[119.51447,23.38407],[119.51406,23.3837],[119.51522,23.38162],[119.51434,23.38066],[119.51273,23.38101],[119.51211,23.38215],[119.51396,23.38388],[119.51298,23.38378],[119.51287,23.38477],[119.5135,23.3851],[119.51447,23.38407]]],[[[119.49373,23.39723],[119.49501,23.39697],[119.49524,23.39464],[119.49666,23.39485],[119.49728,23.39411],[119.49811,23.39205],[119.49753,23.39058],[119.49908,23.38982],[119.50095,23.39006],[119.50127,23.3895],[119.50041,23.38977],[119.50097,23.38923],[119.50199,23.38937],[119.50154,23.38999],[119.50263,23.39036],[119.5022,23.39163],[119.50422,23.39174],[119.50399,23.39392],[119.50466,23.39424],[119.50408,23.39445],[119.50482,23.39488],[119.50625,23.39406],[119.50562,23.39276],[119.50665,23.39282],[119.50706,23.39175],[119.50751,23.39225],[119.50806,23.3907],[119.50721,23.38792],[119.50773,23.38522],[119.50679,23.38339],[119.50722,23.38226],[119.50823,23.38263],[119.50863,23.38176],[119.50904,23.37885],[119.50837,23.37679],[119.5116,23.37572],[119.51247,23.37702],[119.51341,23.37689],[119.5119,23.37474],[119.51047,23.37463],[119.50885,23.37294],[119.50863,23.37118],[119.5101,23.37037],[119.5111,23.37127],[119.51398,23.37103],[119.51345,23.37213],[119.51434,23.37275],[119.5146,23.37495],[119.51662,23.3735],[119.51657,23.37244],[119.51472,23.37058],[119.51601,23.37009],[119.51631,23.36784],[119.51271,23.36664],[119.51169,23.36555],[119.50974,23.36628],[119.50765,23.36466],[119.50802,23.36355],[119.50914,23.36328],[119.50952,23.36149],[119.50884,23.36181],[119.50891,23.36311],[119.50802,23.36302],[119.50835,23.36061],[119.50943,23.36089],[119.50829,23.36028],[119.50833,23.35848],[119.50966,23.35629],[119.51381,23.35357],[119.51311,23.35248],[119.51161,23.35349],[119.50827,23.35403],[119.50612,23.35304],[119.50557,23.355],[119.50299,23.35573],[119.49932,23.35423],[119.49693,23.35465],[119.49073,23.35304],[119.4863,23.35599],[119.4901,23.35959],[119.48881,23.36019],[119.48998,23.36056],[119.48999,23.36139],[119.49465,23.36554],[119.4933,23.37048],[119.49486,23.3727],[119.4938,23.37276],[119.49475,23.37283],[119.49422,23.37387],[119.49341,23.37342],[119.49341,23.37219],[119.49354,23.375],[119.49202,23.3754],[119.49384,23.37799],[119.49167,23.37956],[119.49282,23.3817],[119.49201,23.38197],[119.49363,23.38404],[119.49522,23.38469],[119.49596,23.38746],[119.49343,23.38883],[119.49292,23.39207],[119.48943,23.39469],[119.49097,23.39699],[119.49373,23.39723]]],[[[119.31972,23.41168],[119.32511,23.40827],[119.32489,23.40693],[119.32898,23.40707],[119.33069,23.40486],[119.32906,23.4042],[119.32942,23.40335],[119.32757,23.40296],[119.32723,23.40034],[119.32396,23.39885],[119.32195,23.39945],[119.31967,23.39796],[119.31829,23.39861],[119.31802,23.39759],[119.31691,23.3979],[119.31816,23.39861],[119.31696,23.39842],[119.31675,23.39901],[119.31613,23.39868],[119.31638,23.39685],[119.31472,23.39972],[119.31522,23.40064],[119.31445,23.40274],[119.31534,23.40292],[119.31607,23.40442],[119.31749,23.40457],[119.31709,23.40601],[119.31806,23.40623],[119.31872,23.40773],[119.31865,23.41107],[119.31972,23.41168]]]]}},{"type":"Feature","properties":{"code":"10016060","name":"澎湖縣七美鄉"},"geometry":{"type":"Polygon","coordinates":[[[119.44026,23.22137],[119.44642,23.22066],[119.44721,23.2195],[119.44692,23.2204],[119.44798,23.22009],[119.44659,23.21709],[119.44366,23.21403],[119.44297,23.20893],[119.44415,23.20763],[119.44321,23.20842],[119.4422,23.20702],[119.44262,23.20602],[119.44192,23.20611],[119.44344,23.20463],[119.44282,23.20478],[119.44291,23.20042],[119.43617,23.20192],[119.43388,23.19942],[119.43248,23.19953],[119.43303,23.19787],[119.42988,23.19678],[119.42935,23.19439],[119.43033,23.19373],[119.42934,23.1942],[119.42912,23.19351],[119.43122,23.19254],[119.43026,23.19216],[119.43159,23.19109],[119.43177,23.18993],[119.43046,23.18659],[119.42933,23.18685],[119.42955,23.18787],[119.42706,23.18994],[119.42318,23.19177],[119.42219,23.19065],[119.42149,23.1913],[119.42169,23.1927],[119.41793,23.1934],[119.42003,23.19334],[119.42017,23.19442],[119.4202,23.19331],[119.42163,23.19335],[119.4216,23.19404],[119.4208,23.19401],[119.42071,23.19563],[119.42093,23.19433],[119.42171,23.19447],[119.42112,23.19549],[119.42175,23.19607],[119.41874,23.19545],[119.41929,23.19456],[119.41785,23.19535],[119.41628,23.19395],[119.41716,23.19309],[119.41574,23.19376],[119.42049,23.19815],[119.42063,23.20332],[119.41844,23.20566],[119.4164,23.2061],[119.41594,23.20903],[119.41476,23.20887],[119.41375,23.21038],[119.41213,23.21098],[119.41227,23.21178],[119.4114,23.21155],[119.40982,23.21393],[119.41048,23.21409],[119.40951,23.21629],[119.4102,23.21595],[119.41042,23.21683],[119.41156,23.21611],[119.4117,23.21453],[119.41229,23.21574],[119.41183,23.21446],[119.41275,23.21418],[119.41424,23.21535],[119.41321,23.21525],[119.41365,23.21584],[119.41266,23.21634],[119.41449,23.21525],[119.41524,23.21658],[119.41474,23.21731],[119.41973,23.21742],[119.42245,23.21899],[119.42775,23.21909],[119.43015,23.22009],[119.44026,23.22137]]]}}]}