{"type":"FeatureCollection","source":"https://data.gov.tw/dataset/7441 鄉鎮市區界線(TWD97經緯度)","agency":"內政部國土測繪中心","license":"政府資料開放授權條款第1版","generatedBy":"scripts/build-geo.py","features":[{"type":"Feature","properties":{"code":"10020010","name":"嘉義市東區"},"geometry":{"type":"Polygon","coordinates":[[[120.44759,23.51819],[120.45328,23.51588],[120.45711,23.51568],[120.45739,23.51364],[120.45628,23.51294],[120.45631,23.51177],[120.45778,23.50892],[120.46063,23.50621],[120.46217,23.50154],[120.46412,23.49923],[120.46747,23.49878],[120.46949,23.49958],[120.47083,23.50382],[120.4735,23.50685],[120.48,23.50434],[120.48316,23.50536],[120.48471,23.50159],[120.48377,23.49608],[120.48739,23.49215],[120.49361,23.49113],[120.49462,23.49012],[120.49894,23.49099],[120.50126,23.48991],[120.50097,23.4886],[120.50197,23.4862],[120.50373,23.485],[120.50182,23.48093],[120.50408,23.48098],[120.50369,23.47888],[120.50508,23.47878],[120.50901,23.47516],[120.50935,23.47267],[120.50862,23.47137],[120.50718,23.47176],[120.50656,23.47009],[120.50486,23.46951],[120.50375,23.46718],[120.50177,23.46692],[120.49971,23.46539],[120.50066,23.46097],[120.49753,23.45787],[120.49703,23.45524],[120.49518,23.45286],[120.48941,23.45235],[120.48195,23.45782],[120.4806,23.46001],[120.47681,23.46198],[120.46874,23.46162],[120.46455,23.4583],[120.46452,23.45561],[120.46107,23.45534],[120.45736,23.45288],[120.45471,23.45032],[120.45461,23.44832],[120.45287,23.44487],[120.44964,23.44342],[120.45089,23.44617],[120.45156,23.45137],[120.44704,23.45499],[120.4472,23.46174],[120.45175,23.46255],[120.44947,23.47033],[120.4518,23.47056],[120.45212,23.47144],[120.45184,23.47401],[120.45027,23.47387],[120.44961,23.47999],[120.44759,23.48662],[120.45016,23.49134],[120.44878,23.49847],[120.44717,23.50495],[120.44525,23.50408],[120.44213,23.49798],[120.43568,23.50859],[120.43379,23.50984],[120.43253,23.5137],[120.43385,23.51517],[120.43353,23.51705],[120.43504,23.51727],[120.43736,23.51515],[120.43714,23.51403],[120.43854,23.51263],[120.44088,23.512],[120.44215,23.51332],[120.44062,23.51829],[120.44439,23.51728],[120.4453,23.51821],[120.44759,23.51819]]]}},{"type":"Feature","properties":{"code":"10020020","name":"嘉義市西區"},"geometry":{"type":"Polygon","coordinates":[[[120.43549,23.50875],[120.44213,23.49798],[120.44525,23.50408],[120.44717,23.50495],[120.45022,23.49198],[120.44981,23.48977],[120.44759,23.48662],[120.44961,23.47999],[120.45027,23.47387],[120.45184,23.47401],[120.45212,23.47144],[120.4518,23.47056],[120.44947,23.47033],[120.45175,23.46255],[120.4472,23.46174],[120.44704,23.45499],[120.45156,23.45137],[120.45031,23.44401],[120.44713,23.4434],[120.43958,23.43956],[120.43586,23.44358],[120.43827,23.44485],[120.43804,23.44653],[120.43695,23.44649],[120.43446,23.45069],[120.43285,23.45011],[120.4302,23.45218],[120.4293,23.46104],[120.4241,23.46136],[120.41516,23.46027],[120.41318,23.46207],[120.4128,23.46396],[120.41128,23.46478],[120.4051,23.46341],[120.39417,23.46252],[120.39428,23.46646],[120.39665,23.46774],[120.3979,23.47026],[120.39928,23.47107],[120.3985,23.47401],[120.39907,23.47842],[120.39806,23.47953],[120.39689,23.47953],[120.39691,23.48044],[120.39442,23.48077],[120.39338,23.48251],[120.39472,23.49075],[120.38979,23.49135],[120.38918,23.49359],[120.3892,23.49715],[120.38996,23.49794],[120.38934,23.49865],[120.39015,23.49946],[120.39468,23.5008],[120.4002,23.49876],[120.40101,23.50187],[120.40383,23.50374],[120.40593,23.50386],[120.40881,23.50657],[120.40786,23.50227],[120.40832,23.4987],[120.40929,23.49841],[120.41225,23.49918],[120.4133,23.50225],[120.41675,23.50536],[120.42477,23.5063],[120.42605,23.50854],[120.42748,23.50918],[120.43223,23.50871],[120.43379,23.50984],[120.43549,23.50875]]]}}]}