{"type":"FeatureCollection","source":"https://data.gov.tw/dataset/7441 鄉鎮市區界線(TWD97經緯度)","agency":"內政部國土測繪中心","license":"政府資料開放授權條款第1版","generatedBy":"scripts/build-geo.py","features":[{"type":"Feature","properties":{"code":"63000030","name":"臺北市大安區"},"geometry":{"type":"Polygon","coordinates":[[[121.54103,25.04464],[121.54654,25.04524],[121.55405,25.04442],[121.55769,25.04521],[121.55737,25.02939],[121.55262,25.02439],[121.56014,25.01727],[121.56331,25.01338],[121.5636,25.01133],[121.56528,25.01],[121.56595,25.00812],[121.56297,25.00807],[121.55823,25.01226],[121.55531,25.01158],[121.55283,25.00889],[121.55021,25.00988],[121.54472,25.00784],[121.54364,25.00858],[121.53796,25.00843],[121.53611,25.01297],[121.52519,25.02327],[121.52174,25.02804],[121.52261,25.03248],[121.52431,25.03542],[121.5272,25.03415],[121.53269,25.03365],[121.53293,25.04546],[121.54103,25.04464]]]}},{"type":"Feature","properties":{"code":"63000080","name":"臺北市文山區"},"geometry":{"type":"Polygon","coordinates":[[[121.59711,25.0146],[121.59757,25.01328],[121.59589,25.00928],[121.59591,25.00451],[121.59789,25.00414],[121.60047,25.00108],[121.60053,24.99847],[121.59814,24.99449],[121.59937,24.993],[121.59906,24.99171],[121.60197,24.99029],[121.60183,24.98791],[121.59986,24.98639],[121.60066,24.9802],[121.59951,24.97815],[121.6005,24.97669],[121.60521,24.97436],[121.61135,24.97461],[121.61436,24.97351],[121.6162,24.97167],[121.61967,24.9702],[121.61964,24.96716],[121.61816,24.96682],[121.61692,24.96752],[121.61499,24.96618],[121.61367,24.96644],[121.61047,24.96499],[121.6083,24.96308],[121.60525,24.963],[121.60156,24.96097],[121.59843,24.96126],[121.59725,24.9605],[121.59488,24.96153],[121.5934,24.96421],[121.59197,24.96394],[121.59107,24.96461],[121.58875,24.96338],[121.58573,24.9632],[121.58466,24.9645],[121.58103,24.96516],[121.57864,24.96659],[121.57456,24.96684],[121.57435,24.96529],[121.57263,24.96399],[121.56137,24.96466],[121.55854,24.96833],[121.5577,24.97182],[121.55612,24.9733],[121.5552,24.97653],[121.55368,24.97742],[121.55305,24.98075],[121.55394,24.9848],[121.55244,24.9869],[121.55085,24.98723],[121.55084,24.98534],[121.54903,24.98376],[121.54506,24.98367],[121.5442,24.98477],[121.54481,24.98703],[121.54417,24.98821],[121.53946,24.98773],[121.5369,24.98865],[121.53707,24.99229],[121.53518,24.99513],[121.5317,24.99051],[121.53172,24.99435],[121.53051,24.99801],[121.5315,25.001],[121.53391,25.00339],[121.53185,25.00867],[121.5357,25.01096],[121.53707,25.01127],[121.53796,25.00843],[121.54364,25.00858],[121.54472,25.00784],[121.54928,25.00983],[121.55308,25.00897],[121.55531,25.01158],[121.55823,25.01226],[121.56297,25.00807],[121.56468,25.00777],[121.56936,25.00975],[121.57184,25.01181],[121.57239,25.01357],[121.57514,25.01319],[121.57649,25.0142],[121.58045,25.01222],[121.58988,25.01386],[121.59172,25.01487],[121.59349,25.01456],[121.59509,25.01549],[121.59711,25.0146]]]}},{"type":"Feature","properties":{"code":"63000020","name":"臺北市信義區"},"geometry":{"type":"Polygon","coordinates":[[[121.57996,25.0495],[121.58073,25.04533],[121.58469,25.04197],[121.58673,25.04153],[121.58715,25.03966],[121.58937,25.03711],[121.58967,25.0343],[121.59203,25.03118],[121.58683,25.02698],[121.58523,25.02431],[121.58364,25.01883],[121.58011,25.01676],[121.57804,25.01387],[121.57619,25.01425],[121.57487,25.01317],[121.57239,25.01357],[121.57172,25.01168],[121.56595,25.00812],[121.56528,25.01],[121.5636,25.01133],[121.56331,25.01338],[121.56014,25.01727],[121.55262,25.02439],[121.55737,25.02939],[121.55769,25.04521],[121.56927,25.04925],[121.57996,25.0495]]]}},{"type":"Feature","properties":{"code":"63000070","name":"臺北市萬華區"},"geometry":{"type":"Polygon","coordinates":[[[121.50899,25.04829],[121.51068,25.04833],[121.50965,25.04732],[121.50414,25.02996],[121.50905,25.02496],[121.51234,25.02399],[121.5124,25.02174],[121.50846,25.02091],[121.49911,25.01112],[121.49579,25.00942],[121.49296,25.00929],[121.48956,25.01318],[121.48876,25.01532],[121.4888,25.02335],[121.48391,25.03416],[121.48398,25.03736],[121.48882,25.04257],[121.4959,25.04306],[121.50136,25.04595],[121.50464,25.04975],[121.50899,25.04829]]]}},{"type":"Feature","properties":{"code":"63000050","name":"臺北市中正區"},"geometry":{"type":"Polygon","coordinates":[[[121.51738,25.04843],[121.52533,25.04765],[121.53293,25.04546],[121.53269,25.03365],[121.5272,25.03415],[121.52431,25.03542],[121.52261,25.03248],[121.52169,25.02821],[121.52519,25.02327],[121.53661,25.01216],[121.53707,25.01127],[121.53185,25.00867],[121.52589,25.01171],[121.51978,25.01924],[121.5124,25.02174],[121.51234,25.02399],[121.50905,25.02496],[121.50414,25.02996],[121.50979,25.04756],[121.51204,25.04985],[121.51738,25.04843]]]}},{"type":"Feature","properties":{"code":"63000010","name":"臺北市松山區"},"geometry":{"type":"Polygon","coordinates":[[[121.572,25.07263],[121.57187,25.06915],[121.56939,25.06446],[121.57148,25.057],[121.57137,25.05266],[121.57302,25.05174],[121.57993,25.05292],[121.58007,25.04946],[121.56927,25.04925],[121.5542,25.04443],[121.54385,25.0449],[121.54434,25.06698],[121.53893,25.06891],[121.53862,25.07127],[121.54882,25.07106],[121.55241,25.07297],[121.5527,25.07563],[121.5626,25.07243],[121.56971,25.07629],[121.57094,25.07528],[121.572,25.07263]]]}},{"type":"Feature","properties":{"code":"63000060","name":"臺北市大同區"},"geometry":{"type":"Polygon","coordinates":[[[121.51354,25.08079],[121.51411,25.07941],[121.51623,25.08024],[121.5225,25.07711],[121.52032,25.0727],[121.51899,25.06465],[121.52065,25.05799],[121.52018,25.05092],[121.51866,25.04837],[121.51204,25.04985],[121.51139,25.04858],[121.50899,25.04829],[121.50464,25.04975],[121.50623,25.05363],[121.50539,25.05934],[121.50682,25.06472],[121.50705,25.06988],[121.50468,25.07812],[121.51141,25.07899],[121.51354,25.08079]]]}},{"type":"Feature","properties":{"code":"63000040","name":"臺北市中山區"},"geometry":{"type":"Polygon","coordinates":[[[121.54232,25.09184],[121.54406,25.09172],[121.545,25.09036],[121.55217,25.09241],[121.55348,25.08982],[121.55722,25.08794],[121.55685,25.08672],[121.55783,25.08438],[121.55925,25.08503],[121.56103,25.08442],[121.56433,25.07882],[121.57038,25.07704],[121.57251,25.07461],[121.57144,25.07429],[121.5694,25.07628],[121.56216,25.07242],[121.5527,25.07563],[121.55241,25.07297],[121.54882,25.07106],[121.53862,25.07127],[121.53893,25.06891],[121.54434,25.06698],[121.54385,25.0449],[121.53588,25.04481],[121.52533,25.04765],[121.51866,25.04837],[121.52018,25.05092],[121.52065,25.05799],[121.51898,25.06444],[121.51993,25.07097],[121.5225,25.07711],[121.52507,25.0742],[121.52572,25.07472],[121.52438,25.08111],[121.52526,25.08193],[121.5257,25.08133],[121.52689,25.08193],[121.52889,25.0845],[121.53087,25.08493],[121.53274,25.08759],[121.53834,25.09165],[121.54136,25.09287],[121.54232,25.09184]]]}},{"type":"Feature","properties":{"code":"63000110","name":"臺北市士林區"},"geometry":{"type":"Polygon","coordinates":[[[121.58102,25.19533],[121.58376,25.19459],[121.5827,25.19309],[121.58378,25.19198],[121.584,25.18879],[121.58299,25.18856],[121.58186,25.1864],[121.58277,25.18442],[121.58087,25.18179],[121.58351,25.17689],[121.58172,25.17379],[121.57738,25.17015],[121.57707,25.167],[121.57963,25.16546],[121.58322,25.16581],[121.58793,25.16297],[121.58987,25.16372],[121.59184,25.15589],[121.58939,25.15239],[121.59358,25.1503],[121.59392,25.14805],[121.5959,25.14511],[121.59579,25.14343],[121.59839,25.14031],[121.60407,25.13618],[121.60569,25.13674],[121.60457,25.13454],[121.60459,25.13085],[121.60784,25.13017],[121.60443,25.12592],[121.60172,25.12603],[121.60077,25.12185],[121.59887,25.12012],[121.59599,25.11423],[121.59352,25.11515],[121.59031,25.11364],[121.58987,25.11423],[121.58814,25.11388],[121.58524,25.10855],[121.58196,25.10684],[121.58031,25.10696],[121.57903,25.10508],[121.5763,25.1069],[121.57348,25.10675],[121.57034,25.10546],[121.56703,25.09915],[121.56203,25.09801],[121.55876,25.09873],[121.55771,25.0964],[121.55475,25.09399],[121.55422,25.09255],[121.545,25.09036],[121.54422,25.09161],[121.54232,25.09184],[121.54147,25.09287],[121.53834,25.09165],[121.53274,25.08759],[121.53087,25.08493],[121.52889,25.0845],[121.52689,25.08193],[121.52461,25.08149],[121.52436,25.07992],[121.52579,25.07505],[121.52507,25.0742],[121.52208,25.07739],[121.51623,25.08024],[121.51411,25.07941],[121.51354,25.08079],[121.51141,25.07899],[121.50468,25.07812],[121.50251,25.0832],[121.49969,25.08733],[121.48875,25.09714],[121.48075,25.10095],[121.4661,25.10172],[121.4614,25.10385],[121.45733,25.1071],[121.45774,25.11041],[121.46093,25.11618],[121.46689,25.1117],[121.47023,25.1107],[121.47353,25.11083],[121.48997,25.1153],[121.49269,25.11428],[121.4959,25.11158],[121.49683,25.10876],[121.49757,25.09807],[121.50096,25.0966],[121.50838,25.0958],[121.51093,25.09753],[121.51712,25.09949],[121.51834,25.10315],[121.51991,25.10425],[121.52127,25.10689],[121.52115,25.10892],[121.52244,25.10949],[121.52278,25.11094],[121.52515,25.11136],[121.52567,25.1123],[121.52503,25.11601],[121.52355,25.1176],[121.52573,25.12072],[121.5264,25.12339],[121.5295,25.12427],[121.52982,25.12626],[121.53132,25.12744],[121.53109,25.13381],[121.53033,25.13439],[121.5312,25.13696],[121.53335,25.13752],[121.53492,25.13917],[121.53924,25.14045],[121.54002,25.14156],[121.54129,25.14126],[121.5423,25.1425],[121.54568,25.14157],[121.54801,25.14353],[121.54888,25.14477],[121.55009,25.15129],[121.55307,25.15408],[121.55577,25.16001],[121.56109,25.163],[121.56101,25.16455],[121.56311,25.16998],[121.56097,25.17528],[121.56256,25.17766],[121.56515,25.17854],[121.56605,25.18137],[121.56802,25.18379],[121.56756,25.18552],[121.56819,25.1861],[121.56703,25.18872],[121.57584,25.19532],[121.57917,25.19412],[121.58102,25.19533]]]}},{"type":"Feature","properties":{"code":"63000120","name":"臺北市北投區"},"geometry":{"type":"Polygon","coordinates":[[[121.57099,25.19717],[121.57095,25.19616],[121.57272,25.19503],[121.57611,25.19533],[121.57342,25.19412],[121.57148,25.19162],[121.56703,25.18872],[121.56819,25.1861],[121.56756,25.18552],[121.56802,25.18379],[121.56605,25.18137],[121.56515,25.17854],[121.56256,25.17766],[121.56097,25.17528],[121.56311,25.16998],[121.5609,25.16265],[121.55577,25.16001],[121.55307,25.15408],[121.55009,25.15129],[121.54888,25.14477],[121.54789,25.14341],[121.54568,25.14157],[121.5423,25.1425],[121.54129,25.14126],[121.54002,25.14156],[121.53924,25.14045],[121.53492,25.13917],[121.53335,25.13752],[121.5312,25.13696],[121.53033,25.13439],[121.53109,25.13381],[121.53132,25.12744],[121.52982,25.12626],[121.5295,25.12427],[121.5264,25.12339],[121.52573,25.12072],[121.52355,25.1176],[121.52503,25.11601],[121.52567,25.1123],[121.52515,25.11136],[121.52278,25.11094],[121.52244,25.10949],[121.52115,25.10892],[121.52127,25.10689],[121.51991,25.10425],[121.51834,25.10315],[121.51712,25.09949],[121.51093,25.09753],[121.50838,25.0958],[121.50096,25.0966],[121.49757,25.09807],[121.49645,25.11026],[121.49507,25.11277],[121.49118,25.11505],[121.48823,25.11527],[121.47353,25.11083],[121.47023,25.1107],[121.46689,25.1117],[121.46093,25.11618],[121.45879,25.12294],[121.46483,25.12426],[121.46431,25.12766],[121.46571,25.13169],[121.46896,25.13563],[121.47167,25.13739],[121.47674,25.1439],[121.48085,25.14709],[121.48286,25.15022],[121.48747,25.15144],[121.48763,25.153],[121.4924,25.16041],[121.49879,25.165],[121.50011,25.16831],[121.50185,25.16942],[121.50166,25.17128],[121.50257,25.17325],[121.50485,25.17325],[121.50575,25.17108],[121.50706,25.17116],[121.51042,25.16944],[121.51354,25.17099],[121.51995,25.16927],[121.52256,25.17468],[121.52178,25.17918],[121.52601,25.18298],[121.53337,25.18358],[121.53581,25.18667],[121.5411,25.18738],[121.54283,25.18895],[121.54337,25.19403],[121.54812,25.198],[121.5507,25.19711],[121.55194,25.19783],[121.55264,25.20068],[121.55156,25.20193],[121.55174,25.20355],[121.55312,25.2042],[121.55501,25.20843],[121.55917,25.21014],[121.56268,25.20944],[121.56497,25.20278],[121.56484,25.20101],[121.57099,25.19717]]]}},{"type":"Feature","properties":{"code":"63000090","name":"臺北市南港區"},"geometry":{"type":"Polygon","coordinates":[[[121.6223,25.05891],[121.62422,25.05539],[121.62343,25.055],[121.62053,25.05665],[121.62096,25.05356],[121.61652,25.05085],[121.61623,25.04937],[121.61906,25.04354],[121.62186,25.04011],[121.62493,25.03772],[121.62948,25.03673],[121.63021,25.03508],[121.63318,25.03582],[121.63407,25.0348],[121.63791,25.03374],[121.63991,25.03201],[121.64594,25.02939],[121.64672,25.02799],[121.64798,25.02864],[121.65024,25.02763],[121.65184,25.02815],[121.65515,25.02744],[121.6608,25.03045],[121.66592,25.02992],[121.66483,25.0278],[121.66536,25.02584],[121.66405,25.02317],[121.65764,25.02323],[121.65382,25.02442],[121.64991,25.02397],[121.64634,25.02171],[121.64298,25.02456],[121.64081,25.02349],[121.63751,25.02407],[121.63569,25.02321],[121.63562,25.02401],[121.63236,25.02563],[121.63081,25.02454],[121.62894,25.01993],[121.62693,25.01954],[121.62328,25.01727],[121.62055,25.01839],[121.6174,25.01845],[121.61608,25.0197],[121.61337,25.01914],[121.61035,25.01987],[121.60926,25.02095],[121.60821,25.01944],[121.60413,25.01909],[121.60248,25.01501],[121.59726,25.01438],[121.59509,25.01549],[121.59349,25.01456],[121.59172,25.01487],[121.58988,25.01386],[121.58045,25.01222],[121.57804,25.01387],[121.58011,25.01676],[121.58364,25.01883],[121.58523,25.02431],[121.58683,25.02698],[121.59146,25.03011],[121.59205,25.03128],[121.58967,25.0343],[121.58937,25.03711],[121.58715,25.03966],[121.58673,25.04153],[121.58469,25.04197],[121.58069,25.0454],[121.57967,25.05039],[121.57993,25.05292],[121.58664,25.05476],[121.59403,25.05999],[121.59898,25.05889],[121.60805,25.05995],[121.61013,25.06106],[121.61331,25.06451],[121.619,25.06282],[121.6223,25.05891]]]}},{"type":"Feature","properties":{"code":"63000100","name":"臺北市內湖區"},"geometry":{"type":"Polygon","coordinates":[[[121.59431,25.11454],[121.59569,25.11416],[121.59657,25.11116],[121.59838,25.10891],[121.6063,25.10729],[121.61038,25.10516],[121.61541,25.10387],[121.61741,25.10112],[121.62216,25.09732],[121.62554,25.097],[121.62625,25.09588],[121.62506,25.09367],[121.62632,25.09147],[121.62601,25.09047],[121.62807,25.08839],[121.62861,25.08647],[121.62758,25.08484],[121.62798,25.08325],[121.62426,25.08034],[121.62391,25.07824],[121.62508,25.07883],[121.62494,25.07799],[121.62323,25.07711],[121.62271,25.07456],[121.6216,25.07479],[121.6206,25.07316],[121.62153,25.06961],[121.61763,25.0676],[121.61792,25.06516],[121.61672,25.0658],[121.61614,25.06393],[121.61294,25.06443],[121.60964,25.06066],[121.60475,25.05933],[121.59898,25.05889],[121.59403,25.05999],[121.58574,25.05435],[121.57673,25.0522],[121.57205,25.0519],[121.57131,25.05298],[121.57108,25.05909],[121.56939,25.06446],[121.57187,25.06915],[121.5722,25.07145],[121.57144,25.07429],[121.57251,25.07465],[121.57038,25.07704],[121.56433,25.07882],[121.56103,25.08442],[121.55925,25.08503],[121.55783,25.08438],[121.55685,25.08672],[121.55722,25.08794],[121.55348,25.08982],[121.55217,25.09241],[121.55449,25.09272],[121.55466,25.09388],[121.55626,25.09468],[121.55876,25.09873],[121.56203,25.09801],[121.56703,25.09915],[121.57034,25.10546],[121.57348,25.10675],[121.5763,25.1069],[121.57903,25.10508],[121.58031,25.10696],[121.58196,25.10684],[121.58524,25.10855],[121.58814,25.11388],[121.58987,25.11423],[121.59031,25.11364],[121.59352,25.11515],[121.59431,25.11454]]]}}]}