{"type":"FeatureCollection","source":"https://data.gov.tw/dataset/7441 鄉鎮市區界線(TWD97經緯度)","agency":"內政部國土測繪中心","license":"政府資料開放授權條款第1版","generatedBy":"scripts/build-geo.py","features":[{"type":"Feature","properties":{"code":"64000110","name":"高雄市小港區"},"geometry":{"type":"Polygon","coordinates":[[[120.37086,22.58694],[120.37347,22.58544],[120.37302,22.58306],[120.37403,22.58225],[120.3755,22.58256],[120.37774,22.5817],[120.37984,22.58253],[120.38273,22.57862],[120.38559,22.5773],[120.38637,22.57323],[120.38504,22.57122],[120.38618,22.5691],[120.38732,22.56835],[120.38899,22.5686],[120.38925,22.56698],[120.39002,22.56725],[120.39138,22.56506],[120.39369,22.56577],[120.39118,22.56654],[120.39177,22.56738],[120.39439,22.56605],[120.39349,22.56443],[120.39514,22.56346],[120.3946,22.56138],[120.39556,22.56042],[120.39389,22.55963],[120.3953,22.55654],[120.39417,22.5559],[120.3958,22.55581],[120.39736,22.55282],[120.39728,22.55086],[120.39886,22.54912],[120.3924,22.53722],[120.39022,22.5367],[120.38953,22.53555],[120.3868,22.5352],[120.38619,22.53301],[120.38195,22.53049],[120.37926,22.52774],[120.37416,22.52681],[120.37156,22.52444],[120.37018,22.5215],[120.36642,22.51854],[120.36665,22.51677],[120.36346,22.51253],[120.36277,22.51],[120.36116,22.50967],[120.3614,22.50857],[120.36029,22.50775],[120.35893,22.50071],[120.35892,22.50218],[120.35097,22.50954],[120.33375,22.52141],[120.337,22.52485],[120.33335,22.52878],[120.32532,22.52348],[120.32613,22.52936],[120.32536,22.52945],[120.3299,22.53299],[120.33143,22.53286],[120.3295,22.53378],[120.32524,22.53009],[120.32425,22.52276],[120.31244,22.51487],[120.28864,22.54384],[120.28628,22.54356],[120.28913,22.54463],[120.28884,22.54398],[120.29341,22.53843],[120.29696,22.54095],[120.30375,22.53269],[120.30761,22.53543],[120.31681,22.52423],[120.32183,22.52779],[120.30749,22.54525],[120.3034,22.54552],[120.31559,22.55185],[120.32034,22.55526],[120.31711,22.55907],[120.31819,22.56162],[120.32381,22.56509],[120.32401,22.56689],[120.32577,22.56843],[120.32854,22.56896],[120.33172,22.57091],[120.33087,22.57206],[120.33366,22.57351],[120.33713,22.57412],[120.33931,22.5812],[120.33927,22.58453],[120.34274,22.58351],[120.34997,22.5855],[120.36051,22.58479],[120.36331,22.58508],[120.3646,22.58654],[120.36964,22.58697],[120.37025,22.58789],[120.37086,22.58694]]]}},{"type":"Feature","properties":{"code":"64000010","name":"高雄市鹽埕區"},"geometry":{"type":"Polygon","coordinates":[[[120.29022,22.6151],[120.27882,22.62032],[120.27916,22.62088],[120.27707,22.6228],[120.28281,22.63241],[120.28517,22.63472],[120.2899,22.62322],[120.29022,22.6151]]]}},{"type":"Feature","properties":{"code":"64000060","name":"高雄市新興區"},"geometry":{"type":"Polygon","coordinates":[[[120.30602,22.63645],[120.31379,22.63659],[120.31675,22.63429],[120.31791,22.63026],[120.31327,22.63058],[120.31422,22.62751],[120.31094,22.6264],[120.31213,22.62324],[120.30217,22.61991],[120.30094,22.62322],[120.30154,22.62744],[120.29814,22.62632],[120.29757,22.62783],[120.29997,22.62864],[120.2971,22.63606],[120.29971,22.6369],[120.30602,22.63645]]]}},{"type":"Feature","properties":{"code":"64000070","name":"高雄市前金區"},"geometry":{"type":"Polygon","coordinates":[[[120.2978,22.62722],[120.29814,22.62632],[120.30154,22.62744],[120.30094,22.62322],[120.30217,22.61991],[120.29621,22.61799],[120.29498,22.62103],[120.29028,22.62053],[120.28953,22.62444],[120.28596,22.63174],[120.2971,22.63606],[120.29997,22.62864],[120.29757,22.62783],[120.2978,22.62722]]]}},{"type":"Feature","properties":{"code":"64000090","name":"高雄市前鎮區"},"geometry":{"type":"Polygon","coordinates":[[[120.31821,22.61575],[120.32358,22.6154],[120.32368,22.61445],[120.32525,22.61493],[120.32511,22.61194],[120.33264,22.61266],[120.33267,22.60999],[120.33745,22.61016],[120.33795,22.6068],[120.33918,22.60546],[120.33039,22.60027],[120.32979,22.60104],[120.3229,22.59643],[120.32234,22.59208],[120.32052,22.5912],[120.32336,22.58876],[120.32469,22.58616],[120.32294,22.58606],[120.32408,22.58498],[120.3278,22.5855],[120.32964,22.58664],[120.33123,22.58592],[120.33408,22.5862],[120.33467,22.58757],[120.33413,22.58955],[120.33547,22.59053],[120.33848,22.5869],[120.33935,22.58168],[120.33713,22.57412],[120.33283,22.57322],[120.33087,22.57206],[120.33172,22.57091],[120.33058,22.57011],[120.32577,22.56843],[120.32401,22.56689],[120.32381,22.56509],[120.31819,22.56162],[120.31711,22.55907],[120.30548,22.57181],[120.29758,22.58179],[120.28186,22.60666],[120.2776,22.6111],[120.28127,22.61434],[120.29588,22.60773],[120.29662,22.60946],[120.3051,22.61248],[120.30518,22.6141],[120.31771,22.6183],[120.31821,22.61575]]]}},{"type":"Feature","properties":{"code":"64000040","name":"高雄市楠梓區"},"geometry":{"type":"Polygon","coordinates":[[[120.32731,22.75488],[120.33071,22.7553],[120.33276,22.75208],[120.33436,22.75243],[120.33476,22.74944],[120.33612,22.74895],[120.33576,22.74542],[120.33744,22.74559],[120.33874,22.7443],[120.34079,22.74394],[120.33721,22.74006],[120.3375,22.73882],[120.3402,22.7384],[120.33856,22.73365],[120.33982,22.73259],[120.34054,22.73047],[120.33551,22.72757],[120.33407,22.72386],[120.33761,22.72118],[120.33436,22.72241],[120.33206,22.72152],[120.33308,22.71997],[120.3301,22.71806],[120.3287,22.71923],[120.32428,22.71769],[120.32638,22.71606],[120.32942,22.71134],[120.32895,22.70931],[120.32638,22.70978],[120.32567,22.70889],[120.32723,22.7063],[120.32959,22.70461],[120.32861,22.70398],[120.3235,22.70558],[120.32119,22.70161],[120.31489,22.69589],[120.3119,22.69937],[120.30805,22.69521],[120.30258,22.69895],[120.30253,22.70077],[120.29774,22.70071],[120.2963,22.70415],[120.29481,22.70532],[120.29985,22.70695],[120.29985,22.70779],[120.29681,22.70953],[120.29347,22.70634],[120.29282,22.70651],[120.29252,22.70514],[120.27131,22.70487],[120.26885,22.70553],[120.26841,22.70689],[120.26752,22.70662],[120.26783,22.70523],[120.26636,22.70621],[120.26573,22.7036],[120.2631,22.70025],[120.26348,22.6968],[120.25805,22.69362],[120.25805,22.69556],[120.26119,22.69635],[120.26225,22.69823],[120.26077,22.70365],[120.25683,22.71243],[120.25709,22.71432],[120.25579,22.71418],[120.25682,22.71487],[120.25628,22.71854],[120.26346,22.72784],[120.26926,22.73164],[120.27093,22.73045],[120.27518,22.73168],[120.27495,22.73361],[120.27623,22.73385],[120.27755,22.73791],[120.28505,22.73573],[120.28572,22.73767],[120.28959,22.73671],[120.29126,22.73722],[120.29281,22.73631],[120.29233,22.73524],[120.29373,22.73453],[120.29342,22.73374],[120.29582,22.73143],[120.29523,22.72944],[120.29658,22.72836],[120.29921,22.73208],[120.30097,22.72902],[120.3038,22.7304],[120.30539,22.72927],[120.31018,22.72984],[120.31138,22.73147],[120.30991,22.7331],[120.3098,22.73445],[120.30813,22.73574],[120.30845,22.73638],[120.31247,22.7355],[120.31571,22.73703],[120.31712,22.73547],[120.32207,22.73463],[120.32234,22.73388],[120.32455,22.73612],[120.32574,22.73593],[120.323,22.73956],[120.32582,22.74168],[120.32313,22.74437],[120.32662,22.74816],[120.32525,22.74955],[120.32606,22.75233],[120.32484,22.75359],[120.32499,22.75596],[120.32692,22.75596],[120.32731,22.75488]]]}},{"type":"Feature","properties":{"code":"64000120","name":"高雄市鳳山區"},"geometry":{"type":"Polygon","coordinates":[[[120.37197,22.64661],[120.37458,22.64744],[120.37594,22.64441],[120.37506,22.64358],[120.38083,22.63172],[120.38377,22.62867],[120.38609,22.62952],[120.3876,22.62633],[120.3813,22.62384],[120.38071,22.62284],[120.37817,22.62244],[120.37838,22.61983],[120.37977,22.61739],[120.37854,22.61491],[120.37727,22.60799],[120.37501,22.60629],[120.37286,22.60647],[120.37114,22.60259],[120.37155,22.59775],[120.36841,22.59372],[120.37024,22.59098],[120.36908,22.58896],[120.37024,22.58786],[120.36964,22.58697],[120.3646,22.58654],[120.36314,22.58505],[120.34997,22.5855],[120.34185,22.58353],[120.33928,22.58451],[120.33774,22.58811],[120.33525,22.59058],[120.33413,22.58955],[120.33467,22.58757],[120.33408,22.5862],[120.33123,22.58592],[120.32964,22.58664],[120.3278,22.5855],[120.32351,22.58526],[120.32301,22.58622],[120.32469,22.58616],[120.32325,22.58894],[120.32052,22.5912],[120.32234,22.59208],[120.3229,22.59643],[120.32979,22.60104],[120.33039,22.60027],[120.33918,22.60546],[120.33795,22.6068],[120.33745,22.61016],[120.33267,22.60999],[120.33264,22.61266],[120.32697,22.61237],[120.3274,22.61417],[120.32678,22.61657],[120.32804,22.61659],[120.32789,22.61768],[120.33452,22.61848],[120.33488,22.61611],[120.33716,22.61633],[120.34065,22.61905],[120.33818,22.62061],[120.33999,22.62422],[120.34476,22.62495],[120.34556,22.62657],[120.34403,22.62731],[120.34427,22.628],[120.3393,22.62952],[120.34173,22.6299],[120.34195,22.63085],[120.34311,22.63094],[120.34352,22.63305],[120.3452,22.63311],[120.34459,22.63442],[120.34519,22.63712],[120.35021,22.63896],[120.3459,22.64169],[120.34849,22.64662],[120.34724,22.64729],[120.35023,22.64781],[120.35129,22.64664],[120.35273,22.64734],[120.35805,22.64196],[120.35901,22.64586],[120.35837,22.64706],[120.35911,22.64752],[120.36232,22.64666],[120.36233,22.64571],[120.36483,22.64414],[120.36526,22.64534],[120.36904,22.64644],[120.36909,22.64833],[120.37092,22.64865],[120.37197,22.64661]]]}},{"type":"Feature","properties":{"code":"64000140","name":"高雄市大寮區"},"geometry":{"type":"Polygon","coordinates":[[[120.43613,22.64959],[120.43532,22.63989],[120.43586,22.63077],[120.43347,22.62323],[120.43404,22.6155],[120.43755,22.60727],[120.44273,22.60335],[120.44508,22.60035],[120.44675,22.59335],[120.447,22.58618],[120.442,22.56006],[120.43834,22.55352],[120.43657,22.54756],[120.43087,22.54401],[120.42746,22.53427],[120.41857,22.53399],[120.41676,22.53303],[120.41413,22.53331],[120.41361,22.53252],[120.40328,22.53382],[120.40334,22.53542],[120.39955,22.53755],[120.39849,22.53717],[120.39691,22.53788],[120.39354,22.53658],[120.39249,22.5374],[120.39252,22.53843],[120.39398,22.53983],[120.3946,22.5421],[120.39589,22.54288],[120.39886,22.54912],[120.39728,22.55086],[120.39736,22.55282],[120.3958,22.55581],[120.39417,22.5559],[120.3953,22.55654],[120.39389,22.55963],[120.39556,22.56042],[120.3946,22.56138],[120.39514,22.56346],[120.39349,22.56443],[120.39442,22.566],[120.39177,22.56738],[120.39118,22.56654],[120.39369,22.56577],[120.39138,22.56506],[120.39002,22.56725],[120.38925,22.56698],[120.38899,22.5686],[120.38732,22.56835],[120.38618,22.5691],[120.38504,22.57122],[120.38637,22.57323],[120.38552,22.57738],[120.38273,22.57862],[120.37984,22.58253],[120.37774,22.5817],[120.3755,22.58256],[120.37403,22.58225],[120.37302,22.58306],[120.37347,22.58544],[120.36906,22.58854],[120.37027,22.59081],[120.36841,22.59372],[120.37155,22.59775],[120.37119,22.60275],[120.37291,22.60654],[120.37501,22.60629],[120.37718,22.60784],[120.37854,22.61491],[120.37969,22.6169],[120.37817,22.62244],[120.38071,22.62284],[120.3813,22.62384],[120.3876,22.62633],[120.38609,22.62952],[120.38377,22.62867],[120.38197,22.62994],[120.37802,22.63641],[120.37789,22.63835],[120.38131,22.63932],[120.3844,22.64197],[120.38513,22.64147],[120.38829,22.64221],[120.39012,22.64355],[120.39245,22.64315],[120.39716,22.64466],[120.40148,22.64299],[120.4067,22.64399],[120.41598,22.64304],[120.41594,22.64372],[120.42178,22.64597],[120.42596,22.64919],[120.43006,22.64944],[120.43606,22.65168],[120.43613,22.64959]]]}},{"type":"Feature","properties":{"code":"64000150","name":"高雄市大樹區"},"geometry":{"type":"Polygon","coordinates":[[[120.43022,22.77542],[120.43126,22.7741],[120.43867,22.77291],[120.45064,22.77276],[120.45431,22.77178],[120.4537,22.75623],[120.45597,22.73101],[120.45606,22.72252],[120.45279,22.70417],[120.44765,22.68853],[120.44263,22.68456],[120.43959,22.67833],[120.44,22.67304],[120.43663,22.66502],[120.43606,22.66134],[120.43606,22.65168],[120.43006,22.64944],[120.42596,22.64919],[120.42178,22.64597],[120.41594,22.64372],[120.41598,22.64304],[120.4067,22.64399],[120.40148,22.64299],[120.40191,22.64411],[120.4001,22.64532],[120.40172,22.64738],[120.40112,22.64964],[120.39961,22.6506],[120.3996,22.65208],[120.40157,22.65537],[120.40157,22.65788],[120.40283,22.65972],[120.40259,22.66644],[120.39823,22.67164],[120.39847,22.67313],[120.39705,22.67544],[120.39713,22.67708],[120.39586,22.67774],[120.39588,22.68],[120.39767,22.68077],[120.39449,22.68244],[120.39388,22.6838],[120.39201,22.68377],[120.39163,22.68499],[120.38978,22.68534],[120.38992,22.68735],[120.39336,22.69198],[120.39245,22.69474],[120.39534,22.69758],[120.39691,22.70058],[120.396,22.70249],[120.39347,22.70323],[120.39793,22.70809],[120.39821,22.71067],[120.39986,22.71193],[120.39939,22.71501],[120.40323,22.72455],[120.40159,22.72584],[120.4003,22.72532],[120.40001,22.72604],[120.40158,22.73327],[120.40083,22.73474],[120.39995,22.73566],[120.39854,22.73481],[120.39725,22.73531],[120.39998,22.73896],[120.40139,22.73798],[120.40506,22.73862],[120.40689,22.74123],[120.41058,22.7441],[120.41039,22.74588],[120.41174,22.74725],[120.41047,22.74882],[120.41182,22.75276],[120.41142,22.75706],[120.41375,22.76114],[120.41728,22.76432],[120.41613,22.76831],[120.41847,22.77204],[120.41898,22.77461],[120.42086,22.77401],[120.42232,22.77492],[120.42454,22.77487],[120.4261,22.7758],[120.42632,22.7771],[120.42852,22.77779],[120.43022,22.77542]]]}},{"type":"Feature","properties":{"code":"64000160","name":"高雄市大社區"},"geometry":{"type":"Polygon","coordinates":[[[120.4055,22.76592],[120.40773,22.76305],[120.40739,22.76113],[120.40916,22.76136],[120.40983,22.75907],[120.41185,22.75806],[120.4113,22.754],[120.41182,22.75276],[120.41047,22.74882],[120.41174,22.74725],[120.41039,22.74588],[120.41058,22.7441],[120.40689,22.74123],[120.40506,22.73862],[120.40139,22.73798],[120.39998,22.73896],[120.39667,22.73505],[120.39276,22.7358],[120.39355,22.73741],[120.39298,22.73939],[120.39119,22.74022],[120.39093,22.74184],[120.38915,22.74211],[120.38706,22.74003],[120.38583,22.73981],[120.38523,22.73766],[120.38089,22.73612],[120.3781,22.7327],[120.37819,22.72829],[120.37651,22.72851],[120.37516,22.72701],[120.37285,22.72633],[120.37368,22.72139],[120.37195,22.71713],[120.37222,22.7153],[120.36977,22.71437],[120.36965,22.71256],[120.36801,22.71128],[120.36672,22.7114],[120.3657,22.70966],[120.36443,22.70916],[120.36008,22.71454],[120.35589,22.71653],[120.3521,22.71695],[120.35141,22.71787],[120.34936,22.71556],[120.34881,22.71654],[120.34649,22.71588],[120.34581,22.71724],[120.34093,22.716],[120.339,22.71757],[120.33812,22.72114],[120.33407,22.72386],[120.33551,22.72757],[120.34054,22.73047],[120.33982,22.73259],[120.33856,22.73365],[120.3402,22.7384],[120.3375,22.73882],[120.33721,22.74006],[120.34079,22.74394],[120.33874,22.7443],[120.33744,22.74559],[120.33576,22.74542],[120.3361,22.74904],[120.3372,22.74917],[120.33897,22.74749],[120.33961,22.74783],[120.34125,22.74985],[120.34074,22.75335],[120.34174,22.75389],[120.34416,22.753],[120.34365,22.7557],[120.34492,22.75557],[120.34833,22.75162],[120.35439,22.75289],[120.36147,22.75116],[120.36667,22.75154],[120.36791,22.74979],[120.36994,22.75205],[120.36944,22.75309],[120.37014,22.75352],[120.37247,22.75314],[120.37378,22.75119],[120.37442,22.75512],[120.37808,22.75594],[120.37841,22.75718],[120.38021,22.75678],[120.38027,22.75866],[120.38337,22.76047],[120.38386,22.76335],[120.38687,22.76319],[120.38848,22.76208],[120.39103,22.76478],[120.39336,22.76191],[120.3958,22.76178],[120.39668,22.76043],[120.39898,22.76172],[120.39888,22.7635],[120.40131,22.76588],[120.40362,22.76574],[120.40491,22.76646],[120.4055,22.76592]]]}},{"type":"Feature","properties":{"code":"64000170","name":"高雄市仁武區"},"geometry":{"type":"Polygon","coordinates":[[[120.38981,22.74184],[120.39093,22.74184],[120.39119,22.74022],[120.39298,22.73939],[120.39355,22.73741],[120.39276,22.7358],[120.39839,22.7348],[120.39995,22.73566],[120.40083,22.73474],[120.40158,22.73327],[120.40001,22.72604],[120.40037,22.72529],[120.40159,22.72584],[120.40325,22.72481],[120.39939,22.71501],[120.39986,22.71193],[120.39821,22.71067],[120.39793,22.70809],[120.39347,22.70323],[120.396,22.70249],[120.3969,22.70111],[120.39419,22.69617],[120.39245,22.69474],[120.38967,22.69659],[120.3841,22.69104],[120.38131,22.68925],[120.37936,22.68909],[120.37953,22.68639],[120.37482,22.68392],[120.37008,22.67684],[120.36736,22.67616],[120.3655,22.67182],[120.36138,22.66908],[120.35718,22.66927],[120.3563,22.67144],[120.35439,22.67315],[120.34778,22.66996],[120.34109,22.67302],[120.33952,22.67211],[120.33774,22.67349],[120.3321,22.67198],[120.33014,22.67245],[120.32804,22.67163],[120.32795,22.67318],[120.32701,22.67232],[120.32726,22.67443],[120.33064,22.67595],[120.32947,22.67651],[120.32637,22.67502],[120.32791,22.67601],[120.32634,22.68042],[120.32363,22.68022],[120.32205,22.68165],[120.32471,22.68516],[120.32367,22.68508],[120.32293,22.68793],[120.32117,22.69021],[120.32037,22.68993],[120.31635,22.69336],[120.3168,22.69425],[120.31487,22.69592],[120.32119,22.70161],[120.3235,22.70558],[120.32861,22.70398],[120.32959,22.70461],[120.32723,22.7063],[120.32567,22.70889],[120.32638,22.70978],[120.32895,22.70931],[120.32942,22.71134],[120.32638,22.71606],[120.32437,22.7178],[120.3287,22.71923],[120.3301,22.71806],[120.33308,22.71997],[120.33206,22.72152],[120.33499,22.72242],[120.33812,22.72114],[120.339,22.71757],[120.34093,22.716],[120.34581,22.71724],[120.34649,22.71588],[120.34881,22.71654],[120.34936,22.71556],[120.35141,22.71787],[120.3521,22.71695],[120.35589,22.71653],[120.36019,22.71447],[120.36468,22.70916],[120.36672,22.7114],[120.36801,22.71128],[120.36965,22.71256],[120.36999,22.71455],[120.37138,22.71445],[120.37222,22.7153],[120.37195,22.71713],[120.37368,22.72139],[120.37289,22.72639],[120.37516,22.72701],[120.37651,22.72851],[120.37814,22.72824],[120.3778,22.7318],[120.37913,22.73427],[120.381,22.73619],[120.38544,22.73782],[120.38583,22.73981],[120.38706,22.74003],[120.3884,22.74188],[120.38981,22.74184]]]}},{"type":"Feature","properties":{"code":"64000180","name":"高雄市鳥松區"},"geometry":{"type":"Polygon","coordinates":[[[120.39154,22.68924],[120.38992,22.68735],[120.38978,22.68534],[120.39163,22.68499],[120.39201,22.68377],[120.39388,22.6838],[120.39449,22.68244],[120.39767,22.68077],[120.39588,22.68],[120.39586,22.67774],[120.39713,22.67708],[120.39705,22.67544],[120.39847,22.67313],[120.39823,22.67164],[120.40259,22.66644],[120.40283,22.65972],[120.40157,22.65788],[120.40157,22.65537],[120.3996,22.65208],[120.39961,22.6506],[120.40112,22.64964],[120.40172,22.64738],[120.4001,22.64532],[120.40191,22.64411],[120.40141,22.64302],[120.39739,22.64465],[120.39245,22.64315],[120.39012,22.64355],[120.38829,22.64221],[120.38513,22.64147],[120.3844,22.64197],[120.38131,22.63932],[120.37814,22.63859],[120.3778,22.63771],[120.37506,22.64358],[120.37594,22.64441],[120.37458,22.64744],[120.37197,22.64661],[120.37092,22.64865],[120.36865,22.64807],[120.36904,22.64644],[120.36526,22.64534],[120.36483,22.64414],[120.36233,22.64571],[120.36232,22.64666],[120.35911,22.64752],[120.35837,22.64706],[120.35901,22.64586],[120.35805,22.64196],[120.35268,22.64736],[120.35129,22.64664],[120.35054,22.64772],[120.34816,22.64778],[120.34551,22.64618],[120.33702,22.65244],[120.33746,22.65316],[120.33111,22.65906],[120.33074,22.66012],[120.3325,22.66058],[120.33512,22.65958],[120.33653,22.6599],[120.33335,22.66564],[120.34102,22.67303],[120.34778,22.66996],[120.35439,22.67315],[120.3563,22.67144],[120.35718,22.66927],[120.36138,22.66908],[120.3655,22.67182],[120.36736,22.67616],[120.37008,22.67684],[120.37482,22.68392],[120.37953,22.68639],[120.37936,22.68909],[120.38131,22.68925],[120.3841,22.69104],[120.38967,22.69659],[120.39245,22.69474],[120.39337,22.69204],[120.39154,22.68924]]]}},{"type":"Feature","properties":{"code":"64000190","name":"高雄市岡山區"},"geometry":{"type":"Polygon","coordinates":[[[120.34704,22.83627],[120.34788,22.83152],[120.34584,22.82988],[120.34331,22.82979],[120.34208,22.82862],[120.3429,22.82762],[120.34778,22.82805],[120.34939,22.8259],[120.35096,22.82521],[120.34883,22.8248],[120.34859,22.82387],[120.3469,22.82323],[120.34775,22.82246],[120.34717,22.82182],[120.34854,22.81862],[120.35006,22.81734],[120.34937,22.81681],[120.35043,22.81544],[120.34995,22.81398],[120.34871,22.81271],[120.34768,22.813],[120.34765,22.81152],[120.34454,22.81251],[120.34354,22.81132],[120.34423,22.80841],[120.34044,22.81022],[120.33923,22.80884],[120.33719,22.80934],[120.33469,22.80788],[120.33182,22.8047],[120.32914,22.80472],[120.32794,22.80242],[120.32818,22.80106],[120.32912,22.80096],[120.32862,22.80043],[120.32721,22.80043],[120.32515,22.80317],[120.32628,22.80407],[120.32613,22.80506],[120.32405,22.80513],[120.32413,22.80257],[120.32253,22.80027],[120.3202,22.80112],[120.31852,22.79567],[120.31727,22.7947],[120.3146,22.79466],[120.31353,22.79118],[120.31522,22.78757],[120.31678,22.78786],[120.31638,22.78368],[120.31717,22.78027],[120.31586,22.77995],[120.31505,22.77818],[120.31739,22.77524],[120.3153,22.77411],[120.31485,22.77085],[120.31362,22.77075],[120.30924,22.77439],[120.30609,22.77281],[120.30386,22.77678],[120.3,22.77773],[120.2994,22.77615],[120.29596,22.77596],[120.29459,22.77069],[120.29354,22.77248],[120.29222,22.77298],[120.28935,22.77009],[120.28547,22.77122],[120.28486,22.7707],[120.28574,22.7697],[120.28545,22.769],[120.28278,22.7693],[120.28247,22.76708],[120.28043,22.76576],[120.27684,22.76806],[120.2748,22.76711],[120.27406,22.7695],[120.26958,22.77076],[120.26909,22.76767],[120.26718,22.76754],[120.26694,22.77077],[120.26345,22.76889],[120.26293,22.77024],[120.25877,22.7702],[120.25848,22.77262],[120.26207,22.77569],[120.25944,22.77891],[120.25512,22.77882],[120.25482,22.78014],[120.25572,22.78036],[120.255,22.78347],[120.25232,22.79029],[120.25435,22.79122],[120.2542,22.79305],[120.2565,22.79404],[120.25649,22.79541],[120.26152,22.797],[120.26097,22.79948],[120.26197,22.80031],[120.26136,22.80227],[120.26289,22.80275],[120.25906,22.80913],[120.25494,22.80656],[120.25391,22.80872],[120.25313,22.80876],[120.25298,22.80982],[120.25523,22.81141],[120.25652,22.81405],[120.2552,22.81721],[120.2532,22.81813],[120.25326,22.82106],[120.2555,22.82371],[120.25475,22.82499],[120.26819,22.82247],[120.26691,22.8214],[120.26694,22.82027],[120.27032,22.82052],[120.27455,22.81668],[120.27885,22.81676],[120.28007,22.81731],[120.28054,22.81855],[120.28343,22.81876],[120.28449,22.8239],[120.28716,22.82404],[120.29118,22.82667],[120.29371,22.82733],[120.29515,22.82899],[120.29147,22.83317],[120.2921,22.83651],[120.29338,22.83736],[120.29439,22.84011],[120.29952,22.83895],[120.30039,22.83712],[120.30318,22.8371],[120.30759,22.83458],[120.30861,22.83699],[120.31738,22.83633],[120.31976,22.84157],[120.32143,22.83944],[120.32674,22.83898],[120.32942,22.83676],[120.32987,22.83535],[120.33469,22.83531],[120.33648,22.83664],[120.33935,22.83626],[120.34091,22.83685],[120.34411,22.84216],[120.34638,22.83905],[120.34704,22.83627]]]}},{"type":"Feature","properties":{"code":"64000200","name":"高雄市橋頭區"},"geometry":{"type":"Polygon","coordinates":[[[120.30313,22.77673],[120.3039,22.77673],[120.30609,22.77281],[120.30924,22.77439],[120.31362,22.77075],[120.31485,22.77085],[120.31758,22.76863],[120.31902,22.76933],[120.32326,22.76863],[120.32972,22.77463],[120.33101,22.77276],[120.33374,22.76322],[120.33473,22.76277],[120.33505,22.76028],[120.33764,22.7574],[120.33357,22.75658],[120.33175,22.75706],[120.33108,22.75508],[120.32736,22.75484],[120.32692,22.75596],[120.32499,22.75596],[120.32484,22.75359],[120.32606,22.75233],[120.32525,22.74955],[120.32662,22.74816],[120.32313,22.74437],[120.32582,22.74168],[120.323,22.73956],[120.32574,22.73593],[120.3246,22.73615],[120.32227,22.73388],[120.32207,22.73463],[120.31712,22.73547],[120.31571,22.73703],[120.31247,22.7355],[120.30845,22.73638],[120.30813,22.73574],[120.3098,22.73445],[120.30991,22.7331],[120.31138,22.73147],[120.31018,22.72984],[120.30539,22.72927],[120.3038,22.7304],[120.30097,22.72902],[120.29921,22.73208],[120.29658,22.72836],[120.29523,22.72944],[120.29582,22.73143],[120.29342,22.73374],[120.29373,22.73453],[120.29233,22.73524],[120.29281,22.73631],[120.29126,22.73722],[120.28959,22.73671],[120.28572,22.73767],[120.28505,22.73573],[120.27755,22.73791],[120.27623,22.73385],[120.27495,22.73361],[120.27518,22.73168],[120.27093,22.73045],[120.26933,22.73166],[120.26697,22.72976],[120.26602,22.72991],[120.26653,22.731],[120.26552,22.73274],[120.26564,22.73422],[120.26301,22.73563],[120.26623,22.73846],[120.26463,22.74125],[120.26754,22.74191],[120.26927,22.74065],[120.27202,22.74705],[120.2716,22.74882],[120.27421,22.75073],[120.27392,22.7537],[120.27577,22.75511],[120.27621,22.75836],[120.27581,22.76141],[120.27429,22.7633],[120.27531,22.76523],[120.27449,22.76627],[120.2748,22.76711],[120.27684,22.76806],[120.28059,22.76581],[120.28247,22.76708],[120.28278,22.7693],[120.28545,22.769],[120.28532,22.77116],[120.28935,22.77009],[120.29222,22.77298],[120.29354,22.77248],[120.29459,22.77069],[120.29596,22.77596],[120.2994,22.77615],[120.3,22.77773],[120.30313,22.77673]]]}},{"type":"Feature","properties":{"code":"64000210","name":"高雄市燕巢區"},"geometry":{"type":"Polygon","coordinates":[[[120.35882,22.83031],[120.36017,22.82712],[120.3619,22.82539],[120.36292,22.82552],[120.365,22.82835],[120.36646,22.82619],[120.36828,22.82612],[120.36878,22.82517],[120.37013,22.82554],[120.37146,22.82424],[120.37336,22.8256],[120.37599,22.82603],[120.37593,22.82493],[120.37811,22.82483],[120.3779,22.82408],[120.38029,22.82161],[120.38102,22.81972],[120.38305,22.81868],[120.38471,22.82072],[120.38792,22.81774],[120.39027,22.81868],[120.39189,22.81758],[120.39573,22.81733],[120.39564,22.81489],[120.39641,22.81397],[120.3998,22.81655],[120.40418,22.81531],[120.40949,22.81571],[120.41021,22.81488],[120.40995,22.81307],[120.41212,22.8111],[120.41604,22.81067],[120.41797,22.80853],[120.41539,22.8062],[120.41971,22.80311],[120.42035,22.79997],[120.42275,22.79739],[120.42182,22.79384],[120.42547,22.79111],[120.42655,22.79138],[120.42904,22.78919],[120.42975,22.7872],[120.43181,22.78609],[120.43028,22.78194],[120.428,22.7787],[120.42848,22.77775],[120.42632,22.7771],[120.4261,22.7758],[120.42454,22.77487],[120.42232,22.77492],[120.42086,22.77401],[120.4189,22.77451],[120.41847,22.77204],[120.41613,22.76831],[120.41728,22.76432],[120.41375,22.76114],[120.41185,22.75806],[120.40983,22.75907],[120.40916,22.76136],[120.40739,22.76113],[120.40773,22.76305],[120.40511,22.76644],[120.40111,22.76574],[120.39888,22.7635],[120.39898,22.76172],[120.39668,22.76043],[120.3958,22.76178],[120.39336,22.76191],[120.39103,22.76478],[120.38848,22.76208],[120.38687,22.76319],[120.38369,22.76326],[120.38337,22.76047],[120.38027,22.75866],[120.38021,22.75678],[120.37841,22.75718],[120.37808,22.75594],[120.37442,22.75512],[120.37378,22.75119],[120.37259,22.75306],[120.3703,22.75352],[120.36948,22.7532],[120.36994,22.75205],[120.36791,22.74979],[120.36667,22.75154],[120.36147,22.75116],[120.35439,22.75289],[120.34838,22.75161],[120.34399,22.75581],[120.3433,22.75499],[120.34411,22.75295],[120.34164,22.7539],[120.34065,22.75324],[120.34125,22.74985],[120.33913,22.74744],[120.33702,22.74926],[120.3348,22.74939],[120.33436,22.75243],[120.33288,22.75203],[120.33172,22.75308],[120.33108,22.75508],[120.33175,22.75706],[120.33654,22.7568],[120.33764,22.75753],[120.33502,22.76034],[120.33473,22.76277],[120.33374,22.76322],[120.33258,22.76656],[120.33272,22.76829],[120.32977,22.77462],[120.32326,22.76863],[120.31922,22.76933],[120.31758,22.76863],[120.31505,22.77006],[120.31528,22.77407],[120.31739,22.77524],[120.31505,22.77818],[120.31586,22.77995],[120.31717,22.78027],[120.31638,22.78368],[120.31678,22.78786],[120.31522,22.78757],[120.31353,22.79118],[120.3146,22.79466],[120.31727,22.7947],[120.31852,22.79567],[120.31978,22.80046],[120.32038,22.80117],[120.32257,22.8003],[120.32421,22.80272],[120.32418,22.8052],[120.32623,22.80495],[120.32515,22.80317],[120.32721,22.80043],[120.32845,22.80039],[120.32912,22.80096],[120.32793,22.80171],[120.32866,22.80432],[120.32987,22.80504],[120.33182,22.8047],[120.33686,22.80919],[120.3391,22.8088],[120.3405,22.81022],[120.34253,22.80869],[120.34429,22.80844],[120.34374,22.81168],[120.34482,22.81263],[120.34765,22.81152],[120.34764,22.81295],[120.34871,22.81271],[120.35041,22.81517],[120.34939,22.81648],[120.35006,22.81734],[120.34854,22.81862],[120.34698,22.8235],[120.34859,22.82387],[120.34883,22.8248],[120.35096,22.8249],[120.35032,22.82685],[120.35389,22.83031],[120.35648,22.83025],[120.35806,22.83121],[120.35882,22.83031]]]}},{"type":"Feature","properties":{"code":"64000220","name":"高雄市田寮區"},"geometry":{"type":"Polygon","coordinates":[[[120.39689,22.92259],[120.3993,22.92207],[120.40111,22.91852],[120.40545,22.91805],[120.40573,22.91569],[120.40868,22.91234],[120.40794,22.90984],[120.40985,22.90969],[120.41364,22.90766],[120.4145,22.90957],[120.41655,22.90969],[120.41729,22.90842],[120.41651,22.90437],[120.41892,22.90567],[120.4201,22.90323],[120.42077,22.90377],[120.42193,22.90316],[120.42118,22.90278],[120.42186,22.90199],[120.42128,22.90091],[120.42172,22.89931],[120.42288,22.90033],[120.42376,22.8996],[120.42377,22.89663],[120.42268,22.89606],[120.42323,22.89532],[120.42237,22.8931],[120.42324,22.89389],[120.42441,22.8928],[120.4273,22.89434],[120.42756,22.89374],[120.42801,22.89508],[120.42964,22.89601],[120.43011,22.89429],[120.43255,22.89133],[120.43301,22.8866],[120.43889,22.88556],[120.44153,22.88673],[120.44263,22.88604],[120.44289,22.87915],[120.44485,22.87811],[120.44655,22.8751],[120.44846,22.87432],[120.44692,22.87217],[120.44341,22.86984],[120.44314,22.86815],[120.44618,22.86634],[120.44402,22.86467],[120.44295,22.86229],[120.44318,22.86057],[120.4444,22.85988],[120.44519,22.85445],[120.44679,22.85073],[120.44967,22.84764],[120.44749,22.84621],[120.44678,22.8437],[120.44457,22.84242],[120.4437,22.83973],[120.43994,22.83801],[120.43461,22.83236],[120.43295,22.83206],[120.43295,22.83023],[120.43059,22.82595],[120.42685,22.82455],[120.42744,22.82178],[120.42675,22.81966],[120.42531,22.81856],[120.42393,22.81913],[120.42181,22.81626],[120.42117,22.81153],[120.41853,22.80855],[120.41723,22.80894],[120.41604,22.81067],[120.41212,22.8111],[120.40995,22.81307],[120.41021,22.81488],[120.40949,22.81571],[120.40418,22.81531],[120.3998,22.81655],[120.39641,22.81397],[120.39564,22.81489],[120.39573,22.81733],[120.39189,22.81758],[120.39027,22.81868],[120.38792,22.81774],[120.38471,22.82072],[120.38288,22.8187],[120.38088,22.81986],[120.38029,22.82161],[120.3779,22.82408],[120.37811,22.82483],[120.37578,22.82502],[120.37599,22.82603],[120.37336,22.8256],[120.37146,22.82424],[120.37013,22.82554],[120.36878,22.82517],[120.36828,22.82612],[120.36646,22.82619],[120.365,22.82835],[120.36292,22.82552],[120.3619,22.82539],[120.35806,22.83121],[120.35278,22.82943],[120.35032,22.82685],[120.35085,22.82538],[120.34939,22.8259],[120.34778,22.82805],[120.3429,22.82762],[120.34208,22.82862],[120.34331,22.82979],[120.34576,22.82984],[120.34788,22.83152],[120.34638,22.83905],[120.34411,22.84216],[120.34458,22.84679],[120.34405,22.8509],[120.34658,22.85822],[120.34847,22.86016],[120.34811,22.8613],[120.35014,22.86668],[120.35521,22.87135],[120.35685,22.87421],[120.3564,22.87643],[120.35484,22.87812],[120.35497,22.87967],[120.35792,22.88121],[120.35768,22.88222],[120.35609,22.88301],[120.35648,22.88659],[120.35274,22.88695],[120.35222,22.88579],[120.35386,22.88398],[120.35117,22.88218],[120.34992,22.88253],[120.34895,22.88405],[120.34979,22.88692],[120.3511,22.88822],[120.35209,22.88761],[120.35206,22.88937],[120.35517,22.89043],[120.35321,22.89122],[120.35329,22.89238],[120.3555,22.892],[120.3545,22.89269],[120.3554,22.89393],[120.3569,22.89292],[120.35797,22.89586],[120.36108,22.8978],[120.36161,22.90051],[120.35967,22.89978],[120.35947,22.90142],[120.3615,22.90205],[120.3619,22.90091],[120.36336,22.9023],[120.36415,22.90177],[120.36599,22.90223],[120.36551,22.90392],[120.36629,22.90507],[120.36732,22.90518],[120.36815,22.9039],[120.37026,22.90681],[120.37249,22.90664],[120.37314,22.90933],[120.37116,22.91227],[120.37317,22.91244],[120.37401,22.91425],[120.37651,22.91435],[120.37641,22.91598],[120.37753,22.91821],[120.38018,22.91846],[120.38055,22.92019],[120.38181,22.91991],[120.38182,22.92117],[120.38689,22.91828],[120.38864,22.92064],[120.38924,22.92032],[120.39081,22.92173],[120.39689,22.92259]]]}},{"type":"Feature","properties":{"code":"64000230","name":"高雄市阿蓮區"},"geometry":{"type":"Polygon","coordinates":[[[120.28026,22.90487],[120.28533,22.90458],[120.30171,22.90059],[120.31417,22.89978],[120.31633,22.89859],[120.31956,22.89496],[120.32071,22.89539],[120.32412,22.90033],[120.32488,22.90046],[120.32704,22.89846],[120.33046,22.89119],[120.33227,22.88932],[120.34514,22.88944],[120.34942,22.89049],[120.3511,22.88822],[120.34963,22.88663],[120.34895,22.88405],[120.35085,22.8822],[120.35386,22.88398],[120.35222,22.88579],[120.35274,22.88695],[120.35666,22.88644],[120.35609,22.88301],[120.35768,22.88222],[120.35788,22.88094],[120.3552,22.88004],[120.3548,22.87846],[120.3564,22.87643],[120.35685,22.87421],[120.35521,22.87135],[120.35005,22.8665],[120.34811,22.8613],[120.34847,22.86016],[120.34658,22.85822],[120.34407,22.85099],[120.34411,22.84216],[120.34098,22.83691],[120.33935,22.83626],[120.33648,22.83664],[120.33476,22.83532],[120.32999,22.83531],[120.32942,22.83676],[120.32674,22.83898],[120.32143,22.83944],[120.31976,22.84157],[120.31738,22.83633],[120.30861,22.83699],[120.3075,22.83458],[120.30318,22.8371],[120.30039,22.83712],[120.29885,22.83921],[120.29373,22.83985],[120.29359,22.84214],[120.29741,22.84371],[120.29895,22.84905],[120.30372,22.85164],[120.3055,22.85164],[120.30605,22.85271],[120.30474,22.85728],[120.30683,22.86206],[120.30602,22.86516],[120.30425,22.86619],[120.3045,22.87143],[120.30367,22.87241],[120.30521,22.87388],[120.30406,22.87801],[120.30449,22.88116],[120.30198,22.8819],[120.30182,22.88334],[120.30017,22.88375],[120.29986,22.88169],[120.29235,22.88219],[120.29247,22.88616],[120.29117,22.88654],[120.28903,22.88573],[120.28923,22.88825],[120.28815,22.88988],[120.288,22.89211],[120.28647,22.89329],[120.28307,22.89323],[120.27836,22.89483],[120.27819,22.89618],[120.27961,22.89684],[120.27776,22.90392],[120.28026,22.90487]]]}},{"type":"Feature","properties":{"code":"64000240","name":"高雄市路竹區"},"geometry":{"type":"Polygon","coordinates":[[[120.27405,22.89525],[120.27819,22.89618],[120.27854,22.89466],[120.28082,22.8937],[120.28667,22.89319],[120.288,22.89211],[120.28815,22.88988],[120.28923,22.88825],[120.28903,22.88573],[120.29117,22.88654],[120.29247,22.88616],[120.29235,22.88219],[120.29986,22.88169],[120.30017,22.88375],[120.30182,22.88334],[120.30198,22.8819],[120.30429,22.88147],[120.30406,22.87801],[120.30521,22.87388],[120.30367,22.87255],[120.3045,22.87143],[120.30414,22.86666],[120.30602,22.86516],[120.30683,22.86206],[120.30474,22.85728],[120.30599,22.85433],[120.30577,22.8519],[120.30372,22.85164],[120.29895,22.84905],[120.29735,22.84362],[120.29356,22.84209],[120.29406,22.8389],[120.2921,22.83651],[120.29147,22.83317],[120.29515,22.82899],[120.29371,22.82733],[120.29118,22.82667],[120.28716,22.82404],[120.28449,22.8239],[120.28343,22.81876],[120.28054,22.81855],[120.28007,22.81731],[120.27885,22.81676],[120.27455,22.81668],[120.27032,22.82052],[120.26694,22.82027],[120.26691,22.8214],[120.26819,22.82247],[120.25475,22.82499],[120.25384,22.82663],[120.25696,22.82827],[120.25502,22.83147],[120.25029,22.82904],[120.24954,22.83001],[120.24339,22.82927],[120.24268,22.83173],[120.24099,22.8322],[120.24023,22.83427],[120.24067,22.83484],[120.24013,22.83574],[120.23926,22.83532],[120.2389,22.83807],[120.23758,22.83914],[120.2363,22.83997],[120.23186,22.83897],[120.22912,22.84224],[120.22951,22.8403],[120.22675,22.83918],[120.22376,22.8455],[120.22,22.84674],[120.21339,22.85115],[120.21874,22.85734],[120.21942,22.86235],[120.22059,22.86457],[120.21738,22.86577],[120.21759,22.86674],[120.21674,22.86711],[120.21849,22.87057],[120.22104,22.87073],[120.22274,22.87228],[120.22503,22.8728],[120.22763,22.87263],[120.23096,22.86829],[120.23242,22.86887],[120.23307,22.86824],[120.23687,22.87067],[120.23795,22.86911],[120.23931,22.86923],[120.24038,22.8683],[120.24388,22.87064],[120.2436,22.8715],[120.24455,22.87207],[120.24862,22.87154],[120.25086,22.87223],[120.25214,22.87406],[120.25394,22.87385],[120.25258,22.87705],[120.25257,22.88442],[120.2595,22.88545],[120.26074,22.88935],[120.25888,22.89663],[120.25687,22.89915],[120.25793,22.90165],[120.26054,22.90176],[120.26957,22.89681],[120.27405,22.89525]]]}},{"type":"Feature","properties":{"code":"64000250","name":"高雄市湖內區"},"geometry":{"type":"Polygon","coordinates":[[[120.19397,22.92058],[120.20235,22.91544],[120.20474,22.91467],[120.20807,22.91524],[120.21329,22.91103],[120.21811,22.90962],[120.22103,22.90999],[120.22666,22.91628],[120.23042,22.91669],[120.23169,22.9154],[120.23157,22.90866],[120.23291,22.90555],[120.24286,22.90351],[120.24761,22.89819],[120.2531,22.89463],[120.25647,22.89401],[120.25877,22.89534],[120.26088,22.89069],[120.25961,22.88556],[120.25257,22.88442],[120.25258,22.87705],[120.25394,22.87385],[120.25214,22.87406],[120.25086,22.87223],[120.24862,22.87154],[120.24455,22.87207],[120.2436,22.8715],[120.24388,22.87064],[120.24038,22.8683],[120.23931,22.86923],[120.23795,22.86911],[120.23687,22.87067],[120.23307,22.86824],[120.23242,22.86887],[120.23112,22.86825],[120.22763,22.87263],[120.22274,22.87228],[120.22086,22.87068],[120.21847,22.87129],[120.2182,22.88148],[120.20954,22.88228],[120.20654,22.88391],[120.20389,22.88212],[120.20496,22.8843],[120.2099,22.88581],[120.21068,22.88851],[120.20898,22.89206],[120.20715,22.89349],[120.20421,22.89261],[120.20453,22.8918],[120.20279,22.88734],[120.19898,22.89052],[120.19694,22.89797],[120.19754,22.90072],[120.19656,22.90242],[120.19739,22.9027],[120.19759,22.90081],[120.1998,22.90107],[120.19915,22.90665],[120.19999,22.90678],[120.19203,22.91112],[120.19051,22.91342],[120.18986,22.91811],[120.18774,22.92024],[120.19206,22.92119],[120.19397,22.92058]]]}},{"type":"Feature","properties":{"code":"64000300","name":"高雄市旗山區"},"geometry":{"type":"Polygon","coordinates":[[[120.52221,22.978],[120.52454,22.97875],[120.52702,22.97758],[120.52872,22.97588],[120.52923,22.97344],[120.52703,22.9686],[120.5249,22.96707],[120.52364,22.965],[120.52232,22.96135],[120.52413,22.95216],[120.5201,22.95058],[120.51903,22.94744],[120.51932,22.94524],[120.52105,22.94229],[120.52062,22.94033],[120.51916,22.9393],[120.51937,22.93689],[120.52391,22.92891],[120.5201,22.92415],[120.51931,22.92143],[120.51684,22.91844],[120.51635,22.91659],[120.51444,22.91578],[120.51661,22.91275],[120.51556,22.90979],[120.51062,22.90723],[120.50997,22.90564],[120.50564,22.90128],[120.50525,22.89854],[120.50863,22.89492],[120.50715,22.89093],[120.50772,22.88703],[120.50562,22.88601],[120.50526,22.88325],[120.50308,22.88017],[120.50324,22.8778],[120.50188,22.87766],[120.50363,22.87461],[120.50281,22.87306],[120.50208,22.87309],[120.50244,22.8719],[120.49818,22.87111],[120.49528,22.8651],[120.49883,22.86489],[120.49943,22.86395],[120.50182,22.8635],[120.50601,22.86385],[120.51118,22.86244],[120.51719,22.86233],[120.51781,22.85945],[120.5196,22.85872],[120.51817,22.84338],[120.50781,22.84209],[120.50764,22.83502],[120.50525,22.83145],[120.49769,22.83171],[120.4963,22.83265],[120.49408,22.83667],[120.49274,22.83729],[120.49146,22.83696],[120.49277,22.83569],[120.4908,22.83527],[120.48365,22.83562],[120.48213,22.83605],[120.48145,22.83759],[120.47881,22.83677],[120.47684,22.83815],[120.47404,22.83679],[120.46876,22.83067],[120.46919,22.82502],[120.46753,22.82235],[120.46735,22.81548],[120.4655,22.81275],[120.46403,22.80029],[120.45743,22.78539],[120.45596,22.78004],[120.45564,22.77442],[120.45431,22.77178],[120.45064,22.77276],[120.44433,22.77254],[120.44184,22.77336],[120.43889,22.77288],[120.43108,22.77417],[120.428,22.7787],[120.43028,22.78194],[120.43177,22.78637],[120.42975,22.7872],[120.42904,22.78919],[120.42655,22.79138],[120.42547,22.79111],[120.42182,22.79384],[120.42275,22.79739],[120.42035,22.79997],[120.41971,22.80311],[120.41538,22.80628],[120.42117,22.81153],[120.42181,22.81626],[120.42393,22.81913],[120.42531,22.81856],[120.42675,22.81966],[120.42744,22.82178],[120.42685,22.82455],[120.43059,22.82595],[120.43295,22.83023],[120.43295,22.83206],[120.43461,22.83236],[120.43994,22.83801],[120.4437,22.83973],[120.44457,22.84242],[120.44678,22.8437],[120.44749,22.84621],[120.44967,22.84764],[120.44679,22.85073],[120.44519,22.85445],[120.4444,22.85988],[120.44308,22.86087],[120.4439,22.86451],[120.44618,22.86634],[120.44314,22.86815],[120.44341,22.86984],[120.44692,22.87217],[120.44846,22.87432],[120.44655,22.8751],[120.44485,22.87811],[120.44289,22.87915],[120.44303,22.88558],[120.44618,22.88725],[120.45169,22.88677],[120.45417,22.8883],[120.45866,22.88832],[120.46415,22.89349],[120.46723,22.89139],[120.46837,22.89215],[120.46992,22.89441],[120.46911,22.89743],[120.47021,22.90113],[120.473,22.90635],[120.4739,22.90639],[120.47385,22.90723],[120.47502,22.90806],[120.47477,22.9095],[120.47689,22.91148],[120.47694,22.91272],[120.47988,22.91458],[120.47989,22.91684],[120.48121,22.91759],[120.48198,22.92005],[120.48129,22.9223],[120.47974,22.92375],[120.48293,22.92567],[120.48331,22.92831],[120.48145,22.93017],[120.48108,22.93189],[120.48307,22.94001],[120.48706,22.93325],[120.48992,22.93238],[120.49044,22.93328],[120.49105,22.93203],[120.49223,22.93171],[120.49428,22.93184],[120.4958,22.93314],[120.49786,22.93691],[120.49789,22.94035],[120.49965,22.94266],[120.49933,22.94656],[120.49843,22.94823],[120.50073,22.94993],[120.50054,22.95074],[120.502,22.95165],[120.50346,22.95151],[120.50688,22.95541],[120.51045,22.95727],[120.5108,22.95842],[120.50937,22.96081],[120.50992,22.96217],[120.50851,22.96457],[120.51014,22.96745],[120.50939,22.9683],[120.50957,22.96982],[120.51114,22.97496],[120.51483,22.9772],[120.51916,22.97805],[120.51974,22.9801],[120.52082,22.97999],[120.52086,22.97891],[120.52221,22.978]]]}},{"type":"Feature","properties":{"code":"64000310","name":"高雄市美濃區"},"geometry":{"type":"Polygon","coordinates":[[[120.60884,22.98062],[120.6098,22.9793],[120.61986,22.97901],[120.62366,22.97798],[120.6275,22.97371],[120.62827,22.97067],[120.6265,22.96388],[120.62703,22.96112],[120.62599,22.95546],[120.62396,22.9512],[120.62576,22.94936],[120.62634,22.94436],[120.62565,22.94304],[120.62266,22.94147],[120.62123,22.93978],[120.62196,22.93741],[120.61881,22.93445],[120.61678,22.9312],[120.61731,22.9293],[120.61612,22.92332],[120.61328,22.9203],[120.61038,22.92024],[120.60807,22.92258],[120.60319,22.92174],[120.60191,22.92083],[120.60351,22.91929],[120.60386,22.91768],[120.6021,22.91424],[120.60202,22.91202],[120.60101,22.90979],[120.59791,22.90867],[120.59691,22.90723],[120.60037,22.90512],[120.5991,22.90261],[120.59705,22.90093],[120.59592,22.89694],[120.59707,22.89569],[120.59695,22.89351],[120.59589,22.89202],[120.59745,22.88909],[120.59611,22.88747],[120.59711,22.88569],[120.59502,22.88195],[120.59297,22.8806],[120.59391,22.87889],[120.59262,22.87651],[120.59344,22.87526],[120.59227,22.87411],[120.59237,22.87267],[120.59422,22.86961],[120.59431,22.86794],[120.59509,22.86762],[120.59518,22.8636],[120.57424,22.84772],[120.56959,22.84316],[120.56669,22.83836],[120.56357,22.83527],[120.55802,22.8324],[120.55326,22.8284],[120.54803,22.82843],[120.54406,22.82979],[120.53643,22.82927],[120.534,22.83057],[120.531,22.83083],[120.52977,22.8317],[120.53057,22.83298],[120.52465,22.83195],[120.52293,22.83294],[120.5201,22.83236],[120.51994,22.83144],[120.51538,22.83152],[120.50999,22.82851],[120.50557,22.83109],[120.50768,22.83519],[120.50781,22.84209],[120.51817,22.84338],[120.5196,22.85855],[120.51777,22.85951],[120.51712,22.86236],[120.51118,22.86244],[120.50601,22.86385],[120.5019,22.86349],[120.49943,22.86395],[120.49883,22.86489],[120.49528,22.86505],[120.49818,22.87111],[120.50244,22.8719],[120.50208,22.87309],[120.50281,22.87306],[120.50363,22.87461],[120.50188,22.87766],[120.50324,22.8778],[120.50308,22.88017],[120.50526,22.88325],[120.50562,22.88601],[120.50772,22.88703],[120.50715,22.89093],[120.50863,22.89492],[120.50525,22.89854],[120.50564,22.90128],[120.51284,22.90891],[120.51496,22.90928],[120.51697,22.91158],[120.52035,22.91348],[120.52305,22.91359],[120.52481,22.91554],[120.52701,22.91628],[120.52815,22.92163],[120.53027,22.92244],[120.53215,22.92471],[120.53584,22.92487],[120.53721,22.92625],[120.53684,22.92792],[120.5401,22.93188],[120.54354,22.93454],[120.54779,22.93567],[120.55164,22.94084],[120.55613,22.94236],[120.56549,22.93994],[120.572,22.94239],[120.5743,22.94468],[120.57515,22.94717],[120.57441,22.9497],[120.57618,22.95075],[120.57669,22.95303],[120.57603,22.95516],[120.57369,22.9575],[120.57374,22.95889],[120.57759,22.96525],[120.58234,22.9701],[120.58528,22.97116],[120.58977,22.97492],[120.59333,22.9733],[120.60025,22.97371],[120.6022,22.98005],[120.60456,22.98095],[120.60412,22.9818],[120.60549,22.98337],[120.60884,22.98062]]]}},{"type":"Feature","properties":{"code":"64000320","name":"高雄市六龜區"},"geometry":{"type":"Polygon","coordinates":[[[120.6881,23.13455],[120.69041,23.13504],[120.69216,23.13446],[120.69667,23.12755],[120.70088,23.12474],[120.70418,23.11947],[120.70746,23.11637],[120.71184,23.11566],[120.71898,23.11933],[120.72772,23.11884],[120.73319,23.12096],[120.73741,23.11819],[120.74097,23.11744],[120.7455,23.1178],[120.74455,23.11677],[120.74473,23.11478],[120.74206,23.11131],[120.74174,23.10951],[120.73727,23.10403],[120.72891,23.09805],[120.72658,23.09784],[120.72095,23.10062],[120.71676,23.10134],[120.70924,23.09803],[120.70956,23.09322],[120.70885,23.09123],[120.70635,23.08839],[120.70892,23.08255],[120.70888,23.07321],[120.712,23.07253],[120.71372,23.06836],[120.71583,23.06692],[120.71768,23.06322],[120.7241,23.0585],[120.72417,23.05757],[120.72281,23.05522],[120.72067,23.05478],[120.71898,23.05213],[120.71627,23.05098],[120.71336,23.04397],[120.70286,23.03937],[120.7005,23.03471],[120.6996,23.02799],[120.69829,23.02545],[120.69307,23.02013],[120.68943,23.01773],[120.68472,23.01276],[120.68272,23.00942],[120.67471,23.00369],[120.68093,23.0002],[120.68626,22.99969],[120.69371,22.99759],[120.69151,22.99412],[120.68842,22.99182],[120.68414,22.99133],[120.68035,22.98987],[120.67347,22.98594],[120.67092,22.98315],[120.66986,22.9798],[120.6631,22.96791],[120.66323,22.96631],[120.66601,22.96124],[120.66589,22.95672],[120.66868,22.95351],[120.67069,22.94817],[120.67266,22.94583],[120.67109,22.94216],[120.67169,22.93423],[120.67014,22.92931],[120.67045,22.92667],[120.66952,22.92299],[120.67054,22.91848],[120.66823,22.91362],[120.66431,22.9088],[120.65963,22.90023],[120.65833,22.89635],[120.65011,22.88569],[120.6491,22.87696],[120.64793,22.87788],[120.64664,22.88353],[120.64483,22.88514],[120.63437,22.88075],[120.62785,22.8791],[120.62117,22.87569],[120.61562,22.87683],[120.60582,22.87321],[120.59518,22.8636],[120.59509,22.86762],[120.59431,22.86794],[120.59422,22.86961],[120.59237,22.87267],[120.59227,22.87411],[120.59344,22.87526],[120.59262,22.87651],[120.59391,22.87889],[120.59297,22.8806],[120.59502,22.88195],[120.59711,22.88569],[120.59611,22.88747],[120.59745,22.88909],[120.59589,22.89202],[120.59695,22.89351],[120.59707,22.89569],[120.59592,22.89694],[120.59705,22.90093],[120.5991,22.90261],[120.60037,22.90512],[120.59691,22.90723],[120.59791,22.90867],[120.60101,22.90979],[120.60202,22.91202],[120.6021,22.91424],[120.60386,22.91768],[120.60351,22.91929],[120.60191,22.92083],[120.60319,22.92174],[120.60807,22.92258],[120.61038,22.92024],[120.61328,22.9203],[120.61612,22.92332],[120.61731,22.9293],[120.61678,22.9312],[120.61881,22.93445],[120.62196,22.93741],[120.62123,22.93978],[120.62266,22.94147],[120.62565,22.94304],[120.62634,22.94436],[120.62576,22.94936],[120.62396,22.9512],[120.62603,22.95563],[120.6271,22.96171],[120.6265,22.96388],[120.62826,22.9709],[120.62595,22.97607],[120.62372,22.97768],[120.62105,22.9858],[120.61989,22.98702],[120.61947,22.98891],[120.6202,22.99099],[120.61841,22.99779],[120.61894,23.00112],[120.62173,23.0048],[120.62007,23.01273],[120.62165,23.01881],[120.61967,23.02367],[120.61775,23.02422],[120.61244,23.02981],[120.60851,23.03126],[120.60808,23.0363],[120.61,23.03702],[120.61211,23.03967],[120.61438,23.04008],[120.61631,23.04253],[120.62101,23.04591],[120.62185,23.04776],[120.62499,23.04798],[120.62304,23.05332],[120.62639,23.06269],[120.62425,23.06528],[120.62902,23.06808],[120.63142,23.07126],[120.6358,23.07311],[120.63813,23.07572],[120.63988,23.07907],[120.6395,23.0826],[120.63692,23.08741],[120.63795,23.08885],[120.64526,23.09221],[120.64833,23.09142],[120.64967,23.092],[120.64932,23.09286],[120.65133,23.09682],[120.6498,23.10071],[120.65557,23.10896],[120.65622,23.11335],[120.65987,23.11674],[120.66582,23.11937],[120.66709,23.11686],[120.67344,23.11236],[120.67499,23.10792],[120.67337,23.10469],[120.67777,23.09665],[120.67974,23.09453],[120.68172,23.09377],[120.683,23.09445],[120.68309,23.09362],[120.68416,23.09348],[120.68416,23.09246],[120.6857,23.09299],[120.68592,23.09221],[120.68681,23.09238],[120.68769,23.09502],[120.69364,23.10225],[120.69537,23.10635],[120.69504,23.10836],[120.69091,23.11128],[120.68786,23.11216],[120.68241,23.12075],[120.68032,23.12622],[120.677,23.1289],[120.6755,23.12924],[120.67976,23.14073],[120.68333,23.13719],[120.6881,23.13455]]]}},{"type":"Feature","properties":{"code":"64000330","name":"高雄市甲仙區"},"geometry":{"type":"Polygon","coordinates":[[[120.65032,23.20845],[120.65281,23.2081],[120.65502,23.20619],[120.6572,23.20375],[120.65848,23.2005],[120.6652,23.19976],[120.66844,23.19851],[120.67351,23.19848],[120.6776,23.19669],[120.68014,23.19646],[120.68257,23.19475],[120.68088,23.19063],[120.68086,23.18284],[120.6867,23.17667],[120.68992,23.17593],[120.69132,23.17188],[120.68652,23.16438],[120.68515,23.15914],[120.6853,23.15584],[120.68298,23.15217],[120.67983,23.14323],[120.67976,23.14073],[120.67533,23.12888],[120.67363,23.12642],[120.671,23.12506],[120.66569,23.11922],[120.66093,23.11741],[120.65694,23.11428],[120.65557,23.10896],[120.6498,23.10071],[120.65133,23.09682],[120.64932,23.09286],[120.64967,23.092],[120.64854,23.09141],[120.64526,23.09221],[120.63795,23.08885],[120.63692,23.08741],[120.6395,23.0826],[120.63988,23.07907],[120.63813,23.07572],[120.6358,23.07311],[120.63142,23.07126],[120.62902,23.06808],[120.62425,23.06528],[120.62639,23.06269],[120.62304,23.05332],[120.62499,23.04798],[120.62185,23.04776],[120.6197,23.04461],[120.61631,23.04253],[120.61438,23.04008],[120.61211,23.03967],[120.60871,23.0363],[120.60152,23.03761],[120.60032,23.03929],[120.60093,23.04142],[120.59998,23.04339],[120.59123,23.04996],[120.58957,23.0499],[120.58771,23.0526],[120.58591,23.0533],[120.58308,23.05081],[120.57856,23.0487],[120.5781,23.04628],[120.57671,23.04494],[120.57023,23.04453],[120.56858,23.04368],[120.56366,23.04378],[120.56292,23.04444],[120.56014,23.04379],[120.55569,23.03856],[120.55226,23.04068],[120.55028,23.04339],[120.54947,23.0422],[120.54672,23.04262],[120.54684,23.04946],[120.54454,23.05049],[120.54485,23.05577],[120.54318,23.06033],[120.54142,23.06223],[120.54237,23.06337],[120.54543,23.06395],[120.54681,23.06569],[120.5545,23.06883],[120.55905,23.07344],[120.5589,23.07565],[120.56278,23.07849],[120.56372,23.08034],[120.56689,23.08183],[120.5744,23.09073],[120.57413,23.09486],[120.57587,23.09588],[120.57722,23.09946],[120.58812,23.11418],[120.58892,23.11997],[120.58845,23.12336],[120.5905,23.1272],[120.59465,23.13159],[120.59628,23.13686],[120.59848,23.13858],[120.599,23.14106],[120.60111,23.14417],[120.60379,23.14492],[120.60561,23.14647],[120.60557,23.14853],[120.60785,23.14844],[120.61185,23.1517],[120.61234,23.15361],[120.61111,23.1559],[120.61343,23.15925],[120.61504,23.15953],[120.61654,23.1631],[120.62124,23.16296],[120.62322,23.16416],[120.62523,23.16776],[120.62702,23.16797],[120.63066,23.17006],[120.63102,23.17083],[120.62932,23.17436],[120.63617,23.1751],[120.63745,23.17853],[120.6373,23.1804],[120.64111,23.183],[120.6384,23.18568],[120.63657,23.19013],[120.63695,23.19133],[120.63895,23.19267],[120.64097,23.19877],[120.64266,23.20016],[120.64331,23.20332],[120.6462,23.20707],[120.64836,23.20858],[120.65032,23.20845]]]}},{"type":"Feature","properties":{"code":"64000340","name":"高雄市杉林區"},"geometry":{"type":"Polygon","coordinates":[[[120.54152,23.06202],[120.54318,23.06033],[120.54485,23.05577],[120.54454,23.05049],[120.54684,23.04946],[120.54672,23.04262],[120.54947,23.0422],[120.55028,23.04339],[120.55054,23.04231],[120.55496,23.03859],[120.55578,23.0386],[120.56014,23.04379],[120.56292,23.04444],[120.56366,23.04378],[120.56858,23.04368],[120.57023,23.04453],[120.57671,23.04494],[120.5781,23.04628],[120.57856,23.0487],[120.58308,23.05081],[120.58591,23.0533],[120.58771,23.0526],[120.58957,23.0499],[120.59123,23.04996],[120.59998,23.04339],[120.60093,23.04142],[120.60032,23.03929],[120.60152,23.03761],[120.60671,23.037],[120.60839,23.03607],[120.60851,23.03126],[120.61244,23.02981],[120.61775,23.02422],[120.61967,23.02367],[120.62162,23.01893],[120.62007,23.01273],[120.62173,23.0048],[120.61894,23.00112],[120.61841,22.99779],[120.6202,22.99099],[120.61971,22.98763],[120.62105,22.9858],[120.62366,22.97798],[120.61986,22.97901],[120.60952,22.97935],[120.60549,22.98337],[120.60412,22.9818],[120.60456,22.98095],[120.6022,22.98005],[120.60025,22.97371],[120.59333,22.9733],[120.58977,22.97492],[120.58528,22.97116],[120.58198,22.9698],[120.57743,22.96508],[120.57442,22.96057],[120.57361,22.95772],[120.57603,22.95516],[120.57669,22.95303],[120.57618,22.95075],[120.57441,22.9497],[120.57515,22.94717],[120.5743,22.94468],[120.57213,22.9425],[120.56549,22.93994],[120.55613,22.94236],[120.55169,22.94087],[120.54779,22.93567],[120.54354,22.93454],[120.5401,22.93188],[120.53684,22.92792],[120.53721,22.92625],[120.53584,22.92487],[120.53215,22.92471],[120.53027,22.92244],[120.52815,22.92163],[120.52701,22.91628],[120.52481,22.91554],[120.52305,22.91359],[120.52035,22.91348],[120.51653,22.91131],[120.51633,22.91361],[120.51444,22.91578],[120.51635,22.91659],[120.51684,22.91844],[120.51931,22.92143],[120.5201,22.92415],[120.52393,22.92908],[120.51937,22.93689],[120.51916,22.9393],[120.52062,22.94033],[120.52105,22.94229],[120.51932,22.94524],[120.51903,22.94744],[120.5201,22.95058],[120.52413,22.95216],[120.52232,22.96135],[120.52364,22.965],[120.5249,22.96707],[120.52703,22.9686],[120.52923,22.97344],[120.52872,22.97588],[120.52702,22.97758],[120.52454,22.97875],[120.52221,22.978],[120.52089,22.97887],[120.52006,22.98049],[120.52029,22.98224],[120.52254,22.98613],[120.52234,22.98865],[120.5245,22.99],[120.52525,22.99338],[120.52686,22.99491],[120.52716,22.99698],[120.52603,22.99872],[120.52716,23.0001],[120.52982,23.00126],[120.52946,23.00562],[120.5312,23.01047],[120.53431,23.01282],[120.53536,23.01508],[120.53731,23.02487],[120.53355,23.02811],[120.52298,23.02021],[120.51742,23.01831],[120.51348,23.01878],[120.50214,23.02761],[120.50867,23.03482],[120.51129,23.03616],[120.51967,23.04498],[120.52231,23.04567],[120.52365,23.04744],[120.52303,23.04957],[120.52698,23.0534],[120.53136,23.05657],[120.53757,23.05876],[120.53801,23.06075],[120.5394,23.06173],[120.54152,23.06202]]]}},{"type":"Feature","properties":{"code":"64000350","name":"高雄市內門區"},"geometry":{"type":"Polygon","coordinates":[[[120.53618,23.02602],[120.53733,23.02459],[120.53545,23.01541],[120.53431,23.01282],[120.53129,23.01061],[120.53063,23.00908],[120.52946,23.00562],[120.52977,23.00114],[120.52716,23.0001],[120.52603,22.99872],[120.52716,22.99698],[120.52686,22.99491],[120.52525,22.99338],[120.5245,22.99],[120.52234,22.98865],[120.52254,22.98613],[120.52031,22.98234],[120.52028,22.9801],[120.51952,22.97991],[120.51922,22.9781],[120.51483,22.9772],[120.51114,22.97496],[120.50957,22.96982],[120.50939,22.9683],[120.51014,22.96745],[120.50851,22.96457],[120.50992,22.96217],[120.50937,22.96081],[120.5108,22.95842],[120.51045,22.95727],[120.50688,22.95541],[120.50346,22.95151],[120.502,22.95165],[120.50054,22.95074],[120.50073,22.94993],[120.49843,22.94823],[120.49969,22.94289],[120.49789,22.94035],[120.49786,22.93691],[120.49595,22.93445],[120.49599,22.93339],[120.49428,22.93184],[120.49305,22.93172],[120.4911,22.932],[120.4903,22.93332],[120.48992,22.93238],[120.48706,22.93325],[120.48307,22.94001],[120.48108,22.93189],[120.48145,22.93017],[120.48331,22.92831],[120.48293,22.92567],[120.47974,22.92375],[120.48129,22.9223],[120.48198,22.92005],[120.48121,22.91759],[120.47989,22.91684],[120.47988,22.91458],[120.47694,22.91272],[120.47689,22.91148],[120.47477,22.9095],[120.47502,22.90806],[120.47385,22.90723],[120.4739,22.90639],[120.473,22.90635],[120.47021,22.90113],[120.46911,22.89743],[120.46992,22.89441],[120.46837,22.89215],[120.46723,22.89139],[120.46415,22.89349],[120.45866,22.88832],[120.45417,22.8883],[120.45169,22.88677],[120.44618,22.88725],[120.44303,22.88558],[120.44153,22.88673],[120.43889,22.88556],[120.43297,22.88664],[120.43255,22.89133],[120.43011,22.89429],[120.42964,22.89601],[120.42801,22.89508],[120.42756,22.89374],[120.4273,22.89434],[120.42441,22.8928],[120.42324,22.89389],[120.42237,22.8931],[120.42323,22.89532],[120.42268,22.89606],[120.42372,22.89647],[120.42387,22.89829],[120.42302,22.90031],[120.42168,22.89937],[120.42128,22.90091],[120.42186,22.90199],[120.42118,22.90278],[120.42186,22.90327],[120.4207,22.90377],[120.4201,22.90323],[120.41883,22.90572],[120.41651,22.90437],[120.41729,22.90842],[120.41627,22.90991],[120.41444,22.90952],[120.41364,22.90766],[120.40985,22.90969],[120.40794,22.90984],[120.40789,22.91132],[120.41015,22.91409],[120.41542,22.91569],[120.41719,22.91729],[120.41806,22.92071],[120.42202,22.92741],[120.42276,22.93096],[120.42489,22.93317],[120.42591,22.93904],[120.42856,22.94071],[120.42852,22.94254],[120.43261,22.95227],[120.43299,22.95609],[120.43725,22.96218],[120.44215,22.97378],[120.44264,22.97732],[120.44469,22.97954],[120.44963,22.97724],[120.45172,22.97863],[120.45301,22.97775],[120.45472,22.98096],[120.45476,22.98273],[120.45319,22.98481],[120.45471,22.99062],[120.45543,22.99113],[120.45963,22.9899],[120.46111,22.99077],[120.46107,22.99225],[120.4591,22.99574],[120.46148,22.99812],[120.46053,23.0003],[120.45954,23.00079],[120.4605,23.00359],[120.4614,23.0041],[120.46266,23.00321],[120.46721,23.00356],[120.4681,23.00264],[120.47055,23.00238],[120.47839,23.00352],[120.47989,23.00271],[120.47938,23.00501],[120.48036,23.00627],[120.48098,23.01151],[120.48303,23.01599],[120.486,23.01849],[120.49755,23.02412],[120.50214,23.02761],[120.51348,23.01878],[120.51742,23.01831],[120.52298,23.02021],[120.53355,23.02811],[120.53618,23.02602]]]}},{"type":"Feature","properties":{"code":"64000360","name":"高雄市茂林區"},"geometry":{"type":"Polygon","coordinates":[[[120.73781,22.9905],[120.74011,22.98523],[120.74319,22.98434],[120.74451,22.98261],[120.74705,22.98192],[120.75054,22.98424],[120.76678,22.98279],[120.77106,22.9834],[120.77555,22.98817],[120.77665,22.99097],[120.78215,22.9935],[120.78857,22.98949],[120.79116,22.98917],[120.79329,22.98742],[120.79676,22.987],[120.79913,22.98564],[120.80611,22.98707],[120.80816,22.98942],[120.81083,22.9846],[120.81621,22.97973],[120.82617,22.97716],[120.82939,22.97517],[120.829,22.97297],[120.83014,22.96999],[120.82244,22.96487],[120.82079,22.96197],[120.82305,22.95492],[120.82475,22.95245],[120.82178,22.94512],[120.82181,22.93526],[120.82688,22.92813],[120.82916,22.92078],[120.83144,22.91985],[120.83329,22.91227],[120.82996,22.90953],[120.82848,22.90464],[120.83037,22.90196],[120.83354,22.89981],[120.8332,22.89823],[120.83478,22.89353],[120.83823,22.88989],[120.83884,22.88464],[120.84014,22.88229],[120.85177,22.87816],[120.85973,22.87837],[120.86487,22.87255],[120.86555,22.86966],[120.8642,22.86667],[120.85915,22.86345],[120.86165,22.8614],[120.86957,22.85776],[120.8666,22.85382],[120.86835,22.85075],[120.86533,22.8466],[120.86457,22.84308],[120.86231,22.84713],[120.85943,22.84924],[120.85993,22.85146],[120.85729,22.85268],[120.8562,22.85513],[120.85319,22.85762],[120.84835,22.85195],[120.84717,22.85197],[120.84298,22.85421],[120.84122,22.85699],[120.8412,22.85992],[120.8375,22.86407],[120.83304,22.86627],[120.82904,22.86574],[120.82498,22.86646],[120.82296,22.86572],[120.81909,22.86235],[120.81516,22.86166],[120.81384,22.85959],[120.81366,22.85747],[120.80707,22.85487],[120.80108,22.85103],[120.79335,22.85203],[120.7917,22.84837],[120.79269,22.84112],[120.7902,22.84015],[120.78584,22.8399],[120.78206,22.83646],[120.77871,22.8352],[120.77441,22.83765],[120.77289,22.8411],[120.77153,22.84187],[120.76991,22.84455],[120.76851,22.8452],[120.76609,22.8486],[120.76416,22.84899],[120.76215,22.85681],[120.75877,22.86093],[120.75656,22.86222],[120.75504,22.86468],[120.74926,22.86568],[120.74658,22.86779],[120.7462,22.86943],[120.74242,22.87374],[120.73324,22.87533],[120.73005,22.87679],[120.72502,22.88083],[120.72051,22.882],[120.71651,22.88087],[120.70825,22.88165],[120.70454,22.88067],[120.7026,22.87931],[120.70136,22.87648],[120.69737,22.87255],[120.69198,22.86845],[120.69054,22.86487],[120.68622,22.86466],[120.68404,22.86351],[120.67897,22.86287],[120.67672,22.85725],[120.6713,22.85646],[120.66966,22.85704],[120.66857,22.85871],[120.66429,22.85881],[120.66048,22.86],[120.65865,22.86607],[120.65966,22.87012],[120.65842,22.87434],[120.65805,22.87971],[120.65532,22.88161],[120.6525,22.87969],[120.65102,22.87721],[120.6491,22.87696],[120.64946,22.88206],[120.64993,22.88526],[120.65177,22.88855],[120.65833,22.89635],[120.65963,22.90023],[120.66431,22.9088],[120.66823,22.91362],[120.67051,22.91831],[120.66952,22.92299],[120.67045,22.92667],[120.67014,22.92931],[120.67169,22.93423],[120.67109,22.94216],[120.67266,22.94583],[120.67069,22.94817],[120.66868,22.95351],[120.66589,22.95672],[120.66601,22.96124],[120.66304,22.96742],[120.66511,22.97225],[120.66986,22.9798],[120.67077,22.98271],[120.68243,22.97815],[120.68674,22.97821],[120.68857,22.98094],[120.69366,22.98182],[120.70202,22.98849],[120.71155,22.99234],[120.71468,22.99636],[120.7184,22.99774],[120.71981,23.0001],[120.72422,23.00236],[120.72832,22.99599],[120.7352,22.99294],[120.73781,22.9905]]]}},{"type":"Feature","properties":{"code":"64000370","name":"高雄市桃源區"},"geometry":{"type":"MultiPolygon","coordinates":[[[[120.69032,23.11134],[120.69497,23.10855],[120.69531,23.10615],[120.69302,23.10111],[120.68769,23.09502],[120.68681,23.09238],[120.68592,23.09221],[120.6857,23.09299],[120.68416,23.09246],[120.68326,23.09435],[120.68172,23.09377],[120.67974,23.09453],[120.67711,23.09754],[120.67674,23.09941],[120.67337,23.10469],[120.67499,23.10792],[120.67344,23.11236],[120.66709,23.11686],[120.66582,23.11937],[120.671,23.12506],[120.67363,23.12642],[120.6755,23.12924],[120.67647,23.12911],[120.68032,23.12622],[120.68213,23.12129],[120.6871,23.11303],[120.69032,23.11134]]],[[[120.96847,23.47123],[120.97063,23.46904],[120.98054,23.46921],[120.9846,23.46657],[120.99969,23.46217],[121.00474,23.463],[121.00846,23.46209],[121.01172,23.45717],[121.01495,23.45428],[121.01585,23.45161],[121.01502,23.44978],[121.01268,23.44862],[121.01047,23.44607],[121.01058,23.44124],[121.01414,23.43792],[121.01527,23.43541],[121.01295,23.43295],[121.01416,23.43093],[121.01659,23.43097],[121.02094,23.42951],[121.02235,23.42736],[121.02253,23.4249],[121.02601,23.42414],[121.02949,23.42218],[121.02774,23.41625],[121.02491,23.4146],[121.02708,23.41278],[121.02741,23.40941],[121.02665,23.40604],[121.02835,23.40376],[121.02175,23.39997],[121.01924,23.40152],[121.01464,23.39658],[121.01046,23.3951],[121.00803,23.3966],[121.00643,23.39656],[121.00321,23.39479],[121.00113,23.39175],[121.00407,23.38864],[121.00739,23.38703],[121.00772,23.38466],[121.00531,23.38339],[121.00009,23.38237],[120.99389,23.37594],[120.99155,23.37174],[120.98796,23.37057],[120.98657,23.36342],[120.9871,23.35873],[120.99466,23.35637],[120.99883,23.35675],[121.00079,23.35619],[121.00757,23.35203],[121.00807,23.35064],[121.00754,23.34918],[121.0104,23.34581],[121.01519,23.34634],[121.01773,23.3483],[121.01811,23.35013],[121.02005,23.35038],[121.02236,23.34813],[121.02432,23.34073],[121.02678,23.33781],[121.03091,23.33703],[121.03252,23.33407],[121.0369,23.33315],[121.03942,23.32913],[121.04167,23.32803],[121.04513,23.32772],[121.04878,23.32531],[121.04878,23.32291],[121.04716,23.32001],[121.04804,23.31378],[121.04602,23.30838],[121.04197,23.30718],[121.03643,23.3038],[121.03207,23.30379],[121.03184,23.30152],[121.03022,23.29876],[121.02559,23.29602],[121.02384,23.29373],[121.02,23.29457],[121.01741,23.29287],[121.01039,23.2927],[121.00853,23.29132],[121.00564,23.2906],[121.00138,23.28738],[120.99402,23.28444],[120.99064,23.28413],[120.98659,23.28032],[120.97899,23.28227],[120.97174,23.28171],[120.96867,23.27786],[120.96573,23.27615],[120.96336,23.2721],[120.95968,23.27084],[120.95738,23.26416],[120.9511,23.25951],[120.94669,23.25311],[120.94125,23.25195],[120.9385,23.24789],[120.9379,23.24495],[120.93061,23.24246],[120.92653,23.24456],[120.92404,23.24198],[120.91941,23.24098],[120.91718,23.23832],[120.91546,23.23751],[120.9143,23.23254],[120.91157,23.22786],[120.91213,23.22514],[120.91163,23.20955],[120.91046,23.20813],[120.90763,23.20706],[120.90673,23.20565],[120.90715,23.20113],[120.90575,23.19955],[120.90644,23.19671],[120.91066,23.19252],[120.9116,23.1899],[120.91245,23.18652],[120.91076,23.18169],[120.90905,23.1798],[120.90591,23.18058],[120.89872,23.17666],[120.89831,23.17312],[120.89586,23.17143],[120.895,23.16072],[120.89124,23.15872],[120.88735,23.15824],[120.88626,23.15543],[120.88333,23.15344],[120.87641,23.15133],[120.88144,23.14623],[120.88576,23.14428],[120.88787,23.13668],[120.88623,23.13187],[120.88596,23.12804],[120.88806,23.12244],[120.88497,23.11935],[120.88677,23.11361],[120.8894,23.11044],[120.88814,23.10421],[120.88915,23.10049],[120.88555,23.09263],[120.88563,23.08911],[120.8836,23.08656],[120.88259,23.08333],[120.87807,23.07823],[120.87535,23.06854],[120.86921,23.05969],[120.87132,23.05505],[120.87453,23.05243],[120.8745,23.05094],[120.87975,23.04777],[120.88138,23.04234],[120.87973,23.03496],[120.87731,23.03424],[120.872,23.03448],[120.86665,23.03236],[120.86397,23.03249],[120.86161,23.03077],[120.8607,23.0279],[120.86198,23.02207],[120.86066,23.00805],[120.85823,23.00505],[120.85107,23.00513],[120.85201,23.00335],[120.85206,22.9999],[120.84909,22.99485],[120.84703,22.99285],[120.84218,22.99121],[120.84137,22.98991],[120.84198,22.98767],[120.84118,22.984],[120.83483,22.98088],[120.83292,22.98075],[120.82999,22.97531],[120.82156,22.97872],[120.81621,22.97973],[120.81083,22.9846],[120.80824,22.9894],[120.80611,22.98707],[120.79913,22.98564],[120.79676,22.987],[120.79329,22.98742],[120.79116,22.98917],[120.78857,22.98949],[120.78215,22.9935],[120.77665,22.99097],[120.77555,22.98817],[120.77106,22.9834],[120.76678,22.98279],[120.75152,22.9843],[120.74997,22.98416],[120.74674,22.98194],[120.74451,22.98261],[120.74319,22.98434],[120.74011,22.98523],[120.73781,22.9905],[120.7352,22.99294],[120.72832,22.99599],[120.72422,23.00236],[120.71981,23.0001],[120.7184,22.99774],[120.71468,22.99636],[120.71155,22.99234],[120.70202,22.98849],[120.69366,22.98182],[120.68857,22.98094],[120.68674,22.97821],[120.68243,22.97815],[120.67077,22.98271],[120.67347,22.98594],[120.67811,22.98898],[120.68414,22.99133],[120.68842,22.99182],[120.69184,22.99456],[120.69371,22.99759],[120.68626,22.99969],[120.68093,23.0002],[120.67471,23.00369],[120.68272,23.00942],[120.68472,23.01276],[120.68943,23.01773],[120.69307,23.02013],[120.69829,23.02545],[120.6996,23.02799],[120.7005,23.03471],[120.70286,23.03937],[120.71336,23.04397],[120.71627,23.05098],[120.71898,23.05213],[120.72067,23.05478],[120.72281,23.05522],[120.72417,23.05757],[120.7241,23.0585],[120.71768,23.06322],[120.71583,23.06692],[120.71372,23.06836],[120.712,23.07253],[120.70888,23.07321],[120.70892,23.08255],[120.70635,23.08839],[120.70885,23.09123],[120.70956,23.09322],[120.70933,23.09822],[120.71716,23.10134],[120.7213,23.10049],[120.72658,23.09784],[120.72891,23.09805],[120.73727,23.10403],[120.74174,23.10951],[120.74206,23.11131],[120.74473,23.11478],[120.74465,23.11711],[120.74552,23.11775],[120.74015,23.11751],[120.73675,23.11844],[120.73422,23.12063],[120.73201,23.12097],[120.72772,23.11884],[120.71898,23.11933],[120.71184,23.11566],[120.71027,23.11549],[120.70671,23.1168],[120.70112,23.12449],[120.69667,23.12755],[120.69216,23.13446],[120.68764,23.13475],[120.68333,23.13719],[120.67976,23.14073],[120.67983,23.14323],[120.68298,23.15217],[120.6853,23.15584],[120.68515,23.15914],[120.68652,23.16438],[120.69132,23.17188],[120.69274,23.17088],[120.69575,23.17108],[120.69894,23.1693],[120.70153,23.17343],[120.70977,23.17816],[120.71095,23.18005],[120.71532,23.18344],[120.71632,23.18341],[120.71792,23.18149],[120.72245,23.18362],[120.72415,23.18466],[120.72718,23.19006],[120.73034,23.19108],[120.73508,23.19474],[120.73633,23.19822],[120.74076,23.20227],[120.74321,23.20633],[120.74526,23.21472],[120.74545,23.21927],[120.74706,23.21988],[120.74979,23.2227],[120.75102,23.22622],[120.7556,23.23004],[120.75616,23.23228],[120.75429,23.23594],[120.75827,23.23855],[120.7603,23.24434],[120.76003,23.24914],[120.76194,23.25297],[120.76477,23.25597],[120.76489,23.26182],[120.76619,23.2625],[120.76854,23.267],[120.76826,23.26972],[120.77045,23.27107],[120.77245,23.27394],[120.77407,23.27931],[120.77599,23.28172],[120.7741,23.28612],[120.77504,23.28761],[120.77643,23.28792],[120.77611,23.29065],[120.77729,23.29324],[120.77886,23.29522],[120.78266,23.29496],[120.78298,23.29621],[120.78524,23.29822],[120.78605,23.30152],[120.79179,23.30455],[120.7935,23.30804],[120.79755,23.31321],[120.79765,23.3168],[120.79943,23.31964],[120.80651,23.3216],[120.80728,23.32536],[120.80875,23.32713],[120.80878,23.32975],[120.81203,23.33258],[120.81186,23.33409],[120.81886,23.33922],[120.82343,23.34102],[120.82314,23.34601],[120.81898,23.35074],[120.81321,23.35472],[120.81276,23.35605],[120.81375,23.36028],[120.80997,23.36323],[120.80458,23.37082],[120.80579,23.37091],[120.80852,23.36839],[120.80984,23.36955],[120.8134,23.36942],[120.81628,23.37148],[120.82119,23.37052],[120.82309,23.37194],[120.82542,23.37171],[120.82574,23.37349],[120.82911,23.3758],[120.82938,23.38343],[120.83097,23.3866],[120.83291,23.38721],[120.83463,23.38668],[120.83412,23.38965],[120.83558,23.38986],[120.83687,23.39339],[120.84101,23.39492],[120.84117,23.39608],[120.83876,23.3965],[120.83841,23.39825],[120.84394,23.40392],[120.84475,23.40823],[120.84931,23.41201],[120.84952,23.42016],[120.85309,23.42194],[120.85397,23.42319],[120.85708,23.42197],[120.8591,23.42512],[120.86004,23.42378],[120.8623,23.42458],[120.86452,23.42394],[120.86625,23.42608],[120.86962,23.42643],[120.87174,23.4296],[120.8734,23.42965],[120.87542,23.43135],[120.87536,23.43277],[120.87892,23.43215],[120.88162,23.43301],[120.88382,23.43626],[120.88556,23.43481],[120.88676,23.43485],[120.8907,23.44241],[120.89177,23.44661],[120.89287,23.44521],[120.89515,23.44592],[120.89624,23.45042],[120.90041,23.45209],[120.90052,23.45409],[120.90567,23.45318],[120.9094,23.45754],[120.91166,23.45763],[120.91294,23.45852],[120.91517,23.45801],[120.91617,23.45889],[120.92144,23.4591],[120.92248,23.45814],[120.92619,23.45748],[120.92684,23.456],[120.92848,23.45549],[120.92839,23.45691],[120.93155,23.45714],[120.93475,23.45844],[120.9345,23.46145],[120.93664,23.46378],[120.93891,23.46392],[120.94116,23.46301],[120.94844,23.46417],[120.956,23.46734],[120.95751,23.4695],[120.96139,23.47077],[120.96522,23.4707],[120.96671,23.4717],[120.96847,23.47123]]]]}},{"type":"Feature","properties":{"code":"64000380","name":"高雄市那瑪夏區"},"geometry":{"type":"Polygon","coordinates":[[[120.81346,23.36066],[120.81291,23.35519],[120.81898,23.35074],[120.82314,23.34601],[120.82343,23.34102],[120.81886,23.33922],[120.81186,23.33409],[120.81203,23.33258],[120.80878,23.32975],[120.80875,23.32713],[120.80728,23.32536],[120.80651,23.3216],[120.79943,23.31964],[120.79765,23.3168],[120.79755,23.31321],[120.7935,23.30804],[120.79179,23.30455],[120.78605,23.30152],[120.78524,23.29822],[120.78298,23.29621],[120.78266,23.29496],[120.77886,23.29522],[120.77729,23.29324],[120.77611,23.29065],[120.77643,23.28792],[120.77504,23.28761],[120.7741,23.28612],[120.77599,23.28172],[120.77407,23.27931],[120.77245,23.27394],[120.77045,23.27107],[120.76826,23.26972],[120.76854,23.267],[120.76619,23.2625],[120.76489,23.26182],[120.76477,23.25597],[120.76194,23.25297],[120.76003,23.24914],[120.7603,23.24434],[120.75827,23.23855],[120.75429,23.23594],[120.75616,23.23228],[120.7556,23.23004],[120.75102,23.22622],[120.74979,23.2227],[120.74706,23.21988],[120.74545,23.21927],[120.74414,23.20903],[120.74123,23.20288],[120.73633,23.19822],[120.73491,23.19454],[120.73034,23.19108],[120.72718,23.19006],[120.72415,23.18466],[120.71829,23.1815],[120.71743,23.18161],[120.71632,23.18341],[120.71532,23.18344],[120.71095,23.18005],[120.70977,23.17816],[120.70153,23.17343],[120.69894,23.1693],[120.69556,23.17114],[120.69199,23.17113],[120.68992,23.17593],[120.6867,23.17667],[120.68086,23.18284],[120.68088,23.19063],[120.68257,23.19475],[120.68014,23.19646],[120.6776,23.19669],[120.67351,23.19848],[120.66844,23.19851],[120.6652,23.19976],[120.65848,23.2005],[120.6572,23.20375],[120.65338,23.2077],[120.65144,23.2085],[120.65396,23.21554],[120.65625,23.21764],[120.65582,23.22183],[120.65517,23.22348],[120.64952,23.22846],[120.65025,23.23426],[120.65131,23.23582],[120.65066,23.23585],[120.65085,23.23799],[120.64918,23.24049],[120.64864,23.24444],[120.64789,23.24463],[120.64923,23.24691],[120.64806,23.24846],[120.64845,23.24925],[120.64208,23.25681],[120.64209,23.26103],[120.64069,23.26652],[120.63827,23.26936],[120.63901,23.27044],[120.64109,23.27102],[120.64063,23.27416],[120.64315,23.27598],[120.64191,23.27854],[120.64405,23.28223],[120.64329,23.2861],[120.64186,23.28748],[120.64372,23.28944],[120.64203,23.29269],[120.64359,23.29593],[120.64702,23.29744],[120.64945,23.2929],[120.652,23.29117],[120.6549,23.29163],[120.65776,23.29567],[120.65875,23.29591],[120.65967,23.29476],[120.66183,23.29501],[120.66267,23.29354],[120.66539,23.29317],[120.66562,23.29408],[120.66731,23.29403],[120.66824,23.2921],[120.66972,23.29219],[120.67141,23.28997],[120.67374,23.29111],[120.67596,23.29029],[120.67617,23.2886],[120.67735,23.28784],[120.67882,23.28885],[120.6899,23.28531],[120.69954,23.28442],[120.70116,23.28556],[120.7014,23.2869],[120.70342,23.28909],[120.70234,23.29384],[120.70283,23.29756],[120.70438,23.30197],[120.70677,23.30473],[120.71217,23.3087],[120.71628,23.30761],[120.72131,23.30827],[120.73063,23.30561],[120.73017,23.31076],[120.73231,23.31386],[120.73943,23.31684],[120.74105,23.32108],[120.74786,23.32191],[120.75007,23.32404],[120.75082,23.32593],[120.75287,23.32704],[120.75325,23.32819],[120.75238,23.33103],[120.75644,23.33279],[120.75883,23.33644],[120.75708,23.33856],[120.75848,23.34087],[120.75751,23.34298],[120.75807,23.34426],[120.76168,23.34351],[120.76443,23.34167],[120.76846,23.34388],[120.77333,23.34182],[120.77446,23.343],[120.77714,23.34354],[120.77927,23.34251],[120.78345,23.34232],[120.78521,23.34534],[120.78758,23.34614],[120.78866,23.34911],[120.78845,23.35282],[120.79181,23.35347],[120.79199,23.35724],[120.79599,23.35676],[120.7979,23.36031],[120.79951,23.3612],[120.80065,23.36064],[120.80108,23.36373],[120.80469,23.36721],[120.80327,23.36946],[120.80458,23.37082],[120.80997,23.36323],[120.81346,23.36066]]]}},{"type":"Feature","properties":{"code":"64000130","name":"高雄市林園區"},"geometry":{"type":"Polygon","coordinates":[[[120.39833,22.5372],[120.40139,22.53689],[120.40128,22.5363],[120.40341,22.53532],[120.40328,22.53382],[120.40704,22.53385],[120.40964,22.53283],[120.41361,22.53252],[120.41413,22.53331],[120.41676,22.53303],[120.41857,22.53399],[120.42746,22.53427],[120.42513,22.52847],[120.42286,22.51845],[120.42366,22.50652],[120.42573,22.49817],[120.42394,22.47995],[120.42443,22.46871],[120.42083,22.46847],[120.41052,22.47082],[120.40186,22.47388],[120.40091,22.47493],[120.39565,22.47703],[120.38489,22.48488],[120.37325,22.49123],[120.35988,22.50106],[120.35893,22.50071],[120.36029,22.50775],[120.3614,22.50857],[120.36111,22.50961],[120.36277,22.51],[120.36346,22.51253],[120.36665,22.51677],[120.36642,22.51854],[120.37094,22.52232],[120.37281,22.52583],[120.37423,22.52684],[120.38008,22.52821],[120.38195,22.53049],[120.38636,22.53318],[120.3868,22.5352],[120.38953,22.53555],[120.39022,22.5367],[120.39249,22.5374],[120.39375,22.53653],[120.39691,22.53788],[120.39833,22.5372]]]}},{"type":"Feature","properties":{"code":"64000260","name":"高雄市茄萣區"},"geometry":{"type":"Polygon","coordinates":[[[120.19952,22.90345],[120.1998,22.90107],[120.19759,22.90081],[120.19739,22.9027],[120.19656,22.90242],[120.19754,22.90072],[120.19689,22.89835],[120.19763,22.89464],[120.19983,22.88929],[120.20287,22.88737],[120.20453,22.8918],[120.20421,22.89261],[120.20705,22.8935],[120.20898,22.89206],[120.21068,22.88851],[120.2099,22.88581],[120.20496,22.8843],[120.20389,22.88212],[120.20654,22.88391],[120.20954,22.88228],[120.21832,22.88134],[120.21847,22.87129],[120.21995,22.87078],[120.21849,22.87057],[120.21674,22.86711],[120.21759,22.86674],[120.21738,22.86577],[120.22059,22.86457],[120.21942,22.86235],[120.21871,22.85728],[120.21339,22.85115],[120.20721,22.85482],[120.20363,22.85478],[120.20027,22.85403],[120.1968,22.85053],[120.19534,22.85019],[120.19295,22.85628],[120.19111,22.85538],[120.19291,22.85637],[120.19238,22.85772],[120.19159,22.85833],[120.1894,22.85798],[120.19333,22.85936],[120.19312,22.85997],[120.1897,22.86069],[120.19018,22.86386],[120.19278,22.86522],[120.19008,22.87338],[120.1802,22.89535],[120.17469,22.9102],[120.17475,22.9117],[120.17675,22.91234],[120.18099,22.91603],[120.18774,22.92024],[120.18986,22.91811],[120.19051,22.91342],[120.19203,22.91112],[120.19996,22.90683],[120.19915,22.90665],[120.19952,22.90345]]]}},{"type":"Feature","properties":{"code":"64000270","name":"高雄市永安區"},"geometry":{"type":"Polygon","coordinates":[[[120.22403,22.84497],[120.22675,22.83918],[120.22951,22.8403],[120.22912,22.84224],[120.23186,22.83897],[120.2363,22.83997],[120.23773,22.83903],[120.2389,22.83807],[120.23926,22.83532],[120.24013,22.83574],[120.24067,22.83484],[120.24023,22.83427],[120.24099,22.8322],[120.24268,22.83173],[120.24339,22.82927],[120.24954,22.83001],[120.25029,22.82904],[120.25502,22.83147],[120.25696,22.82827],[120.25384,22.82663],[120.2555,22.82371],[120.25326,22.82106],[120.2532,22.81813],[120.2552,22.81721],[120.25652,22.81405],[120.25523,22.81141],[120.25298,22.80982],[120.25309,22.8089],[120.25391,22.80872],[120.25494,22.80656],[120.25899,22.80916],[120.26029,22.80768],[120.26289,22.80275],[120.26136,22.80227],[120.26197,22.80031],[120.26097,22.79948],[120.26152,22.797],[120.25787,22.79557],[120.25465,22.79532],[120.24911,22.79745],[120.24464,22.79789],[120.24367,22.79721],[120.24495,22.796],[120.24379,22.79536],[120.2382,22.79689],[120.23121,22.80227],[120.22804,22.80175],[120.223,22.80272],[120.21924,22.80451],[120.2155,22.80345],[120.21233,22.80761],[120.19791,22.80525],[120.19332,22.80744],[120.19016,22.81359],[120.19028,22.81538],[120.20598,22.82015],[120.2072,22.82107],[120.2073,22.82261],[120.20623,22.82543],[120.20516,22.82523],[120.20045,22.83846],[120.20131,22.8387],[120.19911,22.8434],[120.19815,22.84356],[120.19843,22.84441],[120.18981,22.84175],[120.19808,22.84461],[120.19652,22.84475],[120.19294,22.84848],[120.1968,22.85053],[120.20099,22.85439],[120.20687,22.85489],[120.22403,22.84497]]]}},{"type":"Feature","properties":{"code":"64000280","name":"高雄市彌陀區"},"geometry":{"type":"Polygon","coordinates":[[[120.2212,22.80381],[120.223,22.80272],[120.22804,22.80175],[120.23121,22.80227],[120.2401,22.79604],[120.24436,22.79533],[120.24496,22.79638],[120.24374,22.79746],[120.24579,22.79788],[120.25018,22.79713],[120.25336,22.79545],[120.25649,22.79541],[120.2565,22.79404],[120.2542,22.79305],[120.25435,22.79122],[120.25232,22.79029],[120.255,22.78347],[120.25572,22.78036],[120.25482,22.78014],[120.25512,22.77882],[120.25944,22.77891],[120.26207,22.77569],[120.25848,22.77262],[120.25877,22.7702],[120.25463,22.7693],[120.25497,22.7682],[120.25059,22.76386],[120.25087,22.76049],[120.24946,22.75966],[120.25051,22.75652],[120.24922,22.75423],[120.24675,22.75417],[120.24658,22.75084],[120.24515,22.75131],[120.24481,22.75358],[120.24343,22.75368],[120.24307,22.75154],[120.24408,22.75128],[120.24366,22.74953],[120.24424,22.74855],[120.24299,22.74708],[120.24476,22.74558],[120.24316,22.74392],[120.23461,22.75987],[120.23124,22.76073],[120.23093,22.76193],[120.23305,22.76274],[120.23241,22.76253],[120.23236,22.76607],[120.21574,22.80222],[120.21599,22.80404],[120.21906,22.80452],[120.2212,22.80381]]]}},{"type":"Feature","properties":{"code":"64000290","name":"高雄市梓官區"},"geometry":{"type":"Polygon","coordinates":[[[120.26693,22.77071],[120.26711,22.76755],[120.26909,22.76767],[120.26958,22.77076],[120.27441,22.76916],[120.27449,22.76627],[120.27531,22.76523],[120.27429,22.7633],[120.27587,22.76119],[120.276,22.75574],[120.27392,22.7537],[120.27416,22.75063],[120.2716,22.74882],[120.27202,22.74705],[120.26927,22.74065],[120.26754,22.74191],[120.26457,22.74111],[120.26623,22.73846],[120.26299,22.73541],[120.26546,22.73452],[120.26643,22.73034],[120.2633,22.72766],[120.25628,22.71854],[120.25495,22.71956],[120.25286,22.72405],[120.24985,22.72421],[120.24933,22.72568],[120.25034,22.72788],[120.24533,22.73766],[120.24316,22.74392],[120.24476,22.74558],[120.24299,22.74708],[120.24424,22.74855],[120.24366,22.74953],[120.24408,22.75128],[120.24307,22.75154],[120.24336,22.75342],[120.24481,22.75358],[120.24515,22.75131],[120.24658,22.75084],[120.24675,22.75417],[120.24931,22.75432],[120.25058,22.75692],[120.24946,22.75966],[120.25087,22.76049],[120.25056,22.76381],[120.25497,22.7682],[120.25463,22.7693],[120.26285,22.77025],[120.26345,22.76889],[120.26693,22.77071]]]}},{"type":"Feature","properties":{"code":"64000080","name":"高雄市苓雅區"},"geometry":{"type":"Polygon","coordinates":[[[120.3452,22.63311],[120.34352,22.63305],[120.34311,22.63094],[120.34195,22.63085],[120.34173,22.6299],[120.3393,22.62952],[120.34427,22.628],[120.34403,22.62731],[120.34556,22.62657],[120.34476,22.62495],[120.33999,22.62422],[120.33818,22.62061],[120.34065,22.61905],[120.33998,22.61824],[120.33716,22.61633],[120.33488,22.61611],[120.33452,22.61848],[120.32789,22.61768],[120.32804,22.61659],[120.32678,22.61657],[120.3274,22.61415],[120.32667,22.61171],[120.32511,22.61194],[120.32525,22.61493],[120.32368,22.61445],[120.32358,22.6154],[120.3226,22.61561],[120.31819,22.6154],[120.31771,22.6183],[120.30518,22.6141],[120.3051,22.61248],[120.29662,22.60946],[120.29588,22.60773],[120.28886,22.61102],[120.29022,22.6151],[120.29028,22.62053],[120.29498,22.62103],[120.29622,22.61799],[120.31213,22.62324],[120.31094,22.6264],[120.31422,22.62751],[120.31326,22.63057],[120.31791,22.63026],[120.31675,22.63429],[120.31977,22.63193],[120.32076,22.63226],[120.31877,22.6372],[120.31718,22.63845],[120.34468,22.63379],[120.3452,22.63311]]]}},{"type":"Feature","properties":{"code":"64000050","name":"高雄市三民區"},"geometry":{"type":"Polygon","coordinates":[[[120.32644,22.67975],[120.32791,22.67601],[120.32631,22.67554],[120.32646,22.67493],[120.32947,22.67651],[120.33064,22.67595],[120.32685,22.67391],[120.32701,22.67232],[120.32806,22.67303],[120.32804,22.67163],[120.33774,22.67349],[120.33959,22.672],[120.33928,22.6708],[120.33335,22.66564],[120.33653,22.6599],[120.33512,22.65958],[120.3325,22.66058],[120.33077,22.66001],[120.33491,22.655],[120.33746,22.65316],[120.33702,22.65244],[120.34551,22.64618],[120.34691,22.64735],[120.34849,22.64662],[120.3459,22.64169],[120.35015,22.63883],[120.34519,22.63712],[120.34468,22.63379],[120.31765,22.6385],[120.32076,22.63226],[120.31977,22.63193],[120.31375,22.6366],[120.29971,22.6369],[120.28842,22.63322],[120.28596,22.63174],[120.28449,22.63861],[120.28176,22.64328],[120.28261,22.64629],[120.28739,22.65036],[120.29253,22.64954],[120.29595,22.65227],[120.29947,22.65143],[120.30242,22.6531],[120.30579,22.65316],[120.30804,22.65461],[120.31139,22.65506],[120.31243,22.65727],[120.31108,22.66223],[120.31452,22.66711],[120.31476,22.66901],[120.31763,22.66958],[120.31958,22.67161],[120.32037,22.67448],[120.32297,22.67719],[120.32406,22.67738],[120.32531,22.67976],[120.32644,22.67975]]]}},{"type":"Feature","properties":{"code":"64000100","name":"高雄市旗津區"},"geometry":{"type":"MultiPolygon","coordinates":[[[[114.36981,10.37994],[114.37116,10.3796],[114.37141,10.37861],[114.36999,10.37724],[114.3674,10.37557],[114.36344,10.37445],[114.36251,10.37308],[114.3618,10.37483],[114.36113,10.3736],[114.36027,10.37355],[114.35996,10.37223],[114.36157,10.37135],[114.35968,10.37213],[114.3602,10.37423],[114.35929,10.37527],[114.36003,10.37629],[114.36981,10.37994]]],[[[116.71662,20.70967],[116.72308,20.70662],[116.72761,20.70591],[116.73067,20.70343],[116.73188,20.70328],[116.73256,20.70208],[116.73337,20.7022],[116.73263,20.70199],[116.73286,20.70033],[116.73486,20.69748],[116.73092,20.69722],[116.72793,20.69799],[116.72771,20.6974],[116.72733,20.69825],[116.72527,20.69871],[116.72491,20.69815],[116.72479,20.69881],[116.7106,20.70366],[116.71085,20.70503],[116.71292,20.70519],[116.71308,20.70371],[116.71459,20.7026],[116.71564,20.70316],[116.71691,20.70204],[116.72338,20.69996],[116.72365,20.70181],[116.721,20.70191],[116.72503,20.70343],[116.72672,20.70331],[116.72597,20.70492],[116.72462,20.70496],[116.72422,20.70428],[116.72247,20.70575],[116.71827,20.70529],[116.7184,20.7059],[116.71553,20.70645],[116.71542,20.70741],[116.71329,20.70769],[116.71171,20.70751],[116.71246,20.7059],[116.711,20.70627],[116.71167,20.70843],[116.71662,20.70967]]],[[[120.26641,22.61652],[120.27421,22.61344],[120.28065,22.60828],[120.29758,22.58179],[120.30548,22.57181],[120.32034,22.55526],[120.31559,22.55185],[120.3034,22.54552],[120.30201,22.54575],[120.30146,22.54501],[120.30176,22.54581],[120.29854,22.5475],[120.30342,22.55433],[120.30284,22.55777],[120.28577,22.57786],[120.2845,22.57807],[120.27836,22.58436],[120.27129,22.59278],[120.26679,22.59999],[120.26377,22.6019],[120.26303,22.60139],[120.2637,22.60513],[120.26525,22.6066],[120.26599,22.6088],[120.2658,22.61053],[120.26419,22.6114],[120.26318,22.61035],[120.26318,22.61298],[120.25613,22.6177],[120.25651,22.61958],[120.26641,22.61652]]]]}},{"type":"Feature","properties":{"code":"64000020","name":"高雄市鼓山區"},"geometry":{"type":"Polygon","coordinates":[[[120.27878,22.6738],[120.28181,22.6714],[120.2845,22.67146],[120.28653,22.67061],[120.28673,22.66882],[120.28853,22.66772],[120.29287,22.67263],[120.29354,22.67254],[120.29863,22.66649],[120.30331,22.66581],[120.30323,22.65622],[120.30655,22.65699],[120.30882,22.6566],[120.30875,22.65472],[120.30617,22.65325],[120.30242,22.6531],[120.29927,22.65141],[120.29595,22.65227],[120.29253,22.64954],[120.28721,22.65029],[120.28199,22.64535],[120.28176,22.64328],[120.28435,22.63898],[120.28517,22.63472],[120.28281,22.63241],[120.27707,22.6228],[120.27916,22.62088],[120.27882,22.62032],[120.29018,22.61494],[120.28886,22.61102],[120.28127,22.61434],[120.2776,22.6111],[120.27222,22.61443],[120.25651,22.61958],[120.25673,22.62093],[120.2633,22.62401],[120.26325,22.62738],[120.25933,22.63391],[120.25613,22.63625],[120.25507,22.63965],[120.25147,22.64528],[120.25147,22.64802],[120.24991,22.65092],[120.25115,22.66193],[120.25636,22.6686],[120.25749,22.66885],[120.25761,22.66786],[120.2586,22.66741],[120.26406,22.67164],[120.27224,22.67313],[120.27377,22.67406],[120.27878,22.6738]]]}},{"type":"Feature","properties":{"code":"64000030","name":"高雄市左營區"},"geometry":{"type":"Polygon","coordinates":[[[120.29962,22.70783],[120.29985,22.70695],[120.29481,22.70532],[120.2963,22.70415],[120.29774,22.70071],[120.30253,22.70077],[120.30258,22.69895],[120.30805,22.69521],[120.3119,22.69937],[120.3168,22.69425],[120.31635,22.69336],[120.32037,22.68993],[120.32117,22.69021],[120.32293,22.68793],[120.32367,22.68508],[120.32471,22.68516],[120.32212,22.68154],[120.32351,22.68026],[120.3262,22.68051],[120.32663,22.67976],[120.32531,22.67976],[120.32406,22.67738],[120.32297,22.67719],[120.32037,22.67448],[120.31958,22.67161],[120.31763,22.66958],[120.31476,22.66901],[120.31452,22.66711],[120.31108,22.66223],[120.31239,22.65801],[120.31166,22.6553],[120.30875,22.65472],[120.30882,22.6566],[120.30721,22.65697],[120.30323,22.65622],[120.30331,22.66581],[120.29863,22.66649],[120.29325,22.67265],[120.28853,22.66772],[120.28673,22.66882],[120.28653,22.67061],[120.2845,22.67146],[120.28181,22.6714],[120.2776,22.67414],[120.27377,22.67406],[120.27224,22.67313],[120.26406,22.67164],[120.25995,22.66808],[120.2586,22.66741],[120.25761,22.66786],[120.25749,22.66885],[120.25926,22.66904],[120.26364,22.67324],[120.26454,22.67643],[120.26282,22.68904],[120.25805,22.68932],[120.25805,22.69362],[120.26348,22.6968],[120.26304,22.7001],[120.26573,22.7036],[120.26636,22.70621],[120.26783,22.70523],[120.26752,22.70662],[120.26841,22.70689],[120.26885,22.70553],[120.27131,22.70487],[120.29252,22.70514],[120.29282,22.70651],[120.29347,22.70634],[120.29681,22.70953],[120.29962,22.70783]]]}}]}