{"type":"FeatureCollection","source":"https://data.gov.tw/dataset/7441 鄉鎮市區界線(TWD97經緯度)","agency":"內政部國土測繪中心","license":"政府資料開放授權條款第1版","generatedBy":"scripts/build-geo.py","features":[{"type":"Feature","properties":{"code":"65000040","name":"新北市永和區"},"geometry":{"type":"Polygon","coordinates":[[[121.51145,25.02183],[121.51955,25.01939],[121.52597,25.01164],[121.53184,25.00869],[121.53391,25.00339],[121.53122,25.00036],[121.53051,24.99801],[121.53137,24.99543],[121.52674,24.99544],[121.52593,24.99756],[121.5171,24.9956],[121.51401,24.99349],[121.51229,24.99349],[121.515,24.99805],[121.5141,24.99998],[121.515,25.00163],[121.51443,25.00395],[121.51246,25.00429],[121.50872,25.00002],[121.50636,24.9998],[121.50774,25.00227],[121.50871,25.00251],[121.50888,25.00421],[121.49944,25.0086],[121.49791,25.00905],[121.495,25.0083],[121.49403,25.00919],[121.49973,25.01154],[121.50846,25.02091],[121.51145,25.02183]]]}},{"type":"Feature","properties":{"code":"65000060","name":"新北市新店區"},"geometry":{"type":"Polygon","coordinates":[[[121.53946,24.98773],[121.54417,24.98821],[121.54481,24.98703],[121.54425,24.98464],[121.5463,24.98331],[121.54963,24.98416],[121.551,24.9857],[121.55085,24.98723],[121.55247,24.98687],[121.55394,24.9848],[121.55305,24.98075],[121.55368,24.97742],[121.5552,24.97653],[121.55612,24.9733],[121.5577,24.97182],[121.55854,24.96833],[121.56127,24.96469],[121.57254,24.96398],[121.57435,24.96529],[121.57456,24.96684],[121.57864,24.96659],[121.58103,24.96516],[121.58466,24.9645],[121.58573,24.9632],[121.58875,24.96338],[121.59107,24.96461],[121.59197,24.96394],[121.5934,24.96421],[121.59483,24.96158],[121.59708,24.9605],[121.59843,24.96126],[121.60156,24.96097],[121.60506,24.96295],[121.60817,24.96304],[121.60923,24.96402],[121.61057,24.95923],[121.61017,24.95666],[121.60771,24.95634],[121.60848,24.95199],[121.60648,24.9498],[121.60705,24.94712],[121.60633,24.94621],[121.60446,24.94703],[121.60117,24.94707],[121.60018,24.94514],[121.598,24.94476],[121.59804,24.94304],[121.59943,24.94129],[121.59988,24.93914],[121.5969,24.93595],[121.59648,24.93281],[121.59415,24.92741],[121.59561,24.92386],[121.59701,24.91204],[121.59856,24.91049],[121.59662,24.91023],[121.59324,24.91382],[121.58949,24.9145],[121.57906,24.90899],[121.57188,24.90869],[121.57009,24.90624],[121.56634,24.90357],[121.56803,24.90325],[121.57174,24.90014],[121.57622,24.89873],[121.57865,24.89629],[121.57824,24.89082],[121.57638,24.886],[121.57792,24.88322],[121.57695,24.8817],[121.57796,24.87935],[121.57578,24.87508],[121.57338,24.87479],[121.57136,24.87689],[121.57003,24.87657],[121.56846,24.87756],[121.56456,24.87713],[121.56415,24.88679],[121.55909,24.8906],[121.55467,24.89166],[121.55112,24.89125],[121.54673,24.88832],[121.53977,24.89379],[121.53532,24.8918],[121.53293,24.88805],[121.52939,24.88507],[121.52629,24.8836],[121.52071,24.88328],[121.51779,24.88086],[121.50885,24.87753],[121.4992,24.87032],[121.49487,24.86847],[121.48836,24.86219],[121.4854,24.86296],[121.48314,24.86182],[121.48038,24.86175],[121.47767,24.86565],[121.47925,24.87022],[121.47765,24.87116],[121.47711,24.87285],[121.47456,24.87555],[121.47178,24.87712],[121.47496,24.88197],[121.47536,24.88617],[121.48041,24.89073],[121.48422,24.89711],[121.48632,24.89822],[121.48572,24.89916],[121.48631,24.90026],[121.48984,24.90128],[121.49253,24.90347],[121.49089,24.90499],[121.48939,24.90832],[121.49018,24.91009],[121.4896,24.91134],[121.49085,24.91253],[121.49206,24.91708],[121.48814,24.92236],[121.48675,24.92223],[121.48598,24.92297],[121.48522,24.92448],[121.48577,24.92626],[121.48458,24.92803],[121.47826,24.92859],[121.47339,24.93084],[121.46839,24.93077],[121.46417,24.93318],[121.45993,24.93423],[121.45972,24.93544],[121.46089,24.9376],[121.45872,24.93945],[121.45745,24.946],[121.45931,24.94768],[121.46173,24.94745],[121.46692,24.95155],[121.46784,24.95442],[121.47144,24.95519],[121.4722,24.95615],[121.47185,24.95893],[121.47382,24.96077],[121.4798,24.96392],[121.48248,24.96336],[121.48428,24.96473],[121.49584,24.9692],[121.4977,24.97076],[121.50199,24.96985],[121.50594,24.97501],[121.50901,24.97651],[121.51448,24.98175],[121.51382,24.98311],[121.51498,24.98608],[121.51724,24.98793],[121.52345,24.98791],[121.52252,24.98507],[121.52354,24.98387],[121.53317,24.99186],[121.53518,24.99513],[121.53707,24.99229],[121.53685,24.98873],[121.53946,24.98773]]]}},{"type":"Feature","properties":{"code":"65000130","name":"新北市土城區"},"geometry":{"type":"Polygon","coordinates":[[[121.45813,24.99106],[121.46027,24.99042],[121.46102,24.98916],[121.46331,24.98907],[121.46652,24.99064],[121.46717,24.99302],[121.46901,24.99464],[121.46998,24.99176],[121.473,24.99411],[121.47694,24.99062],[121.47972,24.99032],[121.47748,24.98659],[121.47418,24.98321],[121.47568,24.97934],[121.47702,24.97943],[121.47907,24.97773],[121.47937,24.976],[121.48064,24.97538],[121.48183,24.97322],[121.47957,24.97258],[121.47987,24.97009],[121.47866,24.96663],[121.4798,24.96392],[121.47188,24.95898],[121.4722,24.95615],[121.47144,24.95519],[121.46781,24.9544],[121.46692,24.95155],[121.46173,24.94745],[121.45946,24.94773],[121.45773,24.94615],[121.45605,24.94629],[121.45436,24.94444],[121.45148,24.94429],[121.44234,24.93767],[121.43681,24.93558],[121.43314,24.941],[121.43044,24.9392],[121.42234,24.93826],[121.41964,24.93877],[121.41759,24.93754],[121.41467,24.93945],[121.41354,24.94148],[121.40922,24.94168],[121.40978,24.94335],[121.40857,24.9477],[121.40881,24.95099],[121.40757,24.95214],[121.40979,24.95403],[121.41055,24.95623],[121.41035,24.96489],[121.42263,24.96875],[121.42532,24.97114],[121.42825,24.97167],[121.43382,24.97554],[121.43513,24.98165],[121.43694,24.98318],[121.43832,24.98637],[121.44009,24.98817],[121.44086,24.99259],[121.44202,24.9922],[121.44271,24.99292],[121.44424,24.99104],[121.44966,24.99308],[121.45306,24.991],[121.45493,24.99579],[121.45628,24.99634],[121.45662,24.99246],[121.45813,24.99106]]]}},{"type":"Feature","properties":{"code":"65000140","name":"新北市蘆洲區"},"geometry":{"type":"Polygon","coordinates":[[[121.46653,25.10165],[121.48108,25.10088],[121.48652,25.0985],[121.49115,25.09476],[121.48409,25.08865],[121.48403,25.08449],[121.47917,25.07841],[121.47708,25.07722],[121.47539,25.07329],[121.47447,25.07282],[121.47158,25.07316],[121.46956,25.07601],[121.46099,25.07893],[121.45699,25.08136],[121.45544,25.08371],[121.45479,25.08934],[121.45583,25.09241],[121.45776,25.09406],[121.45824,25.09797],[121.46106,25.09905],[121.46267,25.10316],[121.46653,25.10165]]]}},{"type":"Feature","properties":{"code":"65000150","name":"新北市五股區"},"geometry":{"type":"Polygon","coordinates":[[[121.42635,25.12956],[121.4296,25.12866],[121.43152,25.12901],[121.43595,25.12729],[121.44156,25.1231],[121.44719,25.12245],[121.44901,25.12017],[121.45179,25.12008],[121.45316,25.12081],[121.45299,25.11933],[121.45606,25.11785],[121.45538,25.11625],[121.45637,25.11485],[121.45855,25.11429],[121.45841,25.11282],[121.45903,25.11272],[121.45767,25.11022],[121.45729,25.10719],[121.46267,25.10316],[121.46106,25.09905],[121.45824,25.09797],[121.45776,25.09406],[121.45583,25.09241],[121.45463,25.08793],[121.45554,25.08342],[121.45699,25.08136],[121.46335,25.07781],[121.46956,25.07601],[121.471,25.07348],[121.47084,25.07226],[121.46966,25.0724],[121.46979,25.06859],[121.46695,25.06665],[121.46589,25.06672],[121.46555,25.06553],[121.46457,25.06772],[121.46131,25.06875],[121.45352,25.06533],[121.45353,25.06301],[121.45021,25.06081],[121.44803,25.06263],[121.44835,25.06325],[121.44579,25.06416],[121.44555,25.06938],[121.44293,25.06915],[121.44226,25.06736],[121.4384,25.06728],[121.43879,25.06571],[121.43753,25.06441],[121.43497,25.06662],[121.43195,25.06611],[121.43157,25.06848],[121.43064,25.06905],[121.41957,25.06896],[121.41734,25.06981],[121.4156,25.0706],[121.41043,25.07558],[121.40828,25.07585],[121.40794,25.07698],[121.40568,25.07639],[121.40511,25.0772],[121.40396,25.07621],[121.40206,25.07639],[121.4035,25.07703],[121.40523,25.08025],[121.40312,25.08041],[121.40329,25.08164],[121.40227,25.08297],[121.40269,25.08398],[121.40175,25.08454],[121.40396,25.08517],[121.40371,25.08411],[121.40661,25.08266],[121.40865,25.08047],[121.40954,25.08257],[121.41448,25.07885],[121.41502,25.08251],[121.41293,25.08053],[121.41241,25.0821],[121.4108,25.08239],[121.40897,25.08451],[121.40922,25.08598],[121.40801,25.08837],[121.41071,25.09004],[121.40985,25.09231],[121.40867,25.092],[121.40945,25.0934],[121.40693,25.09612],[121.4091,25.0951],[121.41219,25.0919],[121.41263,25.09634],[121.4109,25.09513],[121.41021,25.09549],[121.40911,25.09952],[121.40824,25.0987],[121.40711,25.09977],[121.4074,25.10109],[121.40653,25.10266],[121.40467,25.10079],[121.40404,25.10099],[121.40352,25.10598],[121.40161,25.10783],[121.40168,25.11044],[121.40081,25.11294],[121.40001,25.11332],[121.40099,25.11513],[121.40106,25.11807],[121.40317,25.11931],[121.4032,25.12011],[121.40223,25.1204],[121.40472,25.12255],[121.41004,25.12099],[121.41269,25.12277],[121.41495,25.123],[121.41607,25.12506],[121.41612,25.12992],[121.42047,25.13014],[121.42124,25.12953],[121.4249,25.13227],[121.42635,25.12956]]]}},{"type":"Feature","properties":{"code":"65000200","name":"新北市坪林區"},"geometry":{"type":"Polygon","coordinates":[[[121.7763,24.98527],[121.78166,24.98202],[121.79251,24.98345],[121.79409,24.97736],[121.79389,24.97316],[121.79189,24.97031],[121.79226,24.96657],[121.79067,24.96429],[121.79015,24.96049],[121.79126,24.9555],[121.79325,24.95434],[121.79325,24.95354],[121.79232,24.9517],[121.79098,24.95116],[121.78777,24.94498],[121.78951,24.94048],[121.78624,24.93701],[121.78599,24.93432],[121.78498,24.93325],[121.78532,24.93103],[121.78187,24.92823],[121.78061,24.92293],[121.77813,24.91964],[121.78162,24.91795],[121.78396,24.91568],[121.78616,24.90641],[121.78805,24.90613],[121.79114,24.90341],[121.79341,24.89975],[121.79178,24.89968],[121.79206,24.89762],[121.7931,24.89641],[121.79001,24.89345],[121.78588,24.89255],[121.78565,24.89062],[121.78299,24.89038],[121.78168,24.88947],[121.78224,24.87918],[121.78428,24.87758],[121.78505,24.87401],[121.78322,24.87422],[121.77733,24.87076],[121.77519,24.86672],[121.77543,24.86508],[121.77115,24.86487],[121.76911,24.86593],[121.76782,24.86542],[121.76784,24.86365],[121.7661,24.86252],[121.76438,24.85989],[121.7633,24.86005],[121.76279,24.86126],[121.76156,24.86015],[121.76211,24.85878],[121.76099,24.8567],[121.75429,24.85641],[121.75356,24.85503],[121.75063,24.85447],[121.74797,24.85495],[121.74611,24.85298],[121.7429,24.85245],[121.73682,24.85565],[121.73061,24.85533],[121.72716,24.85314],[121.72521,24.85079],[121.72061,24.84875],[121.71974,24.84559],[121.71566,24.84439],[121.71427,24.84178],[121.70898,24.84058],[121.70778,24.83886],[121.70399,24.8423],[121.69319,24.84404],[121.69068,24.84811],[121.68851,24.84837],[121.68739,24.84996],[121.68533,24.8494],[121.68222,24.85021],[121.6779,24.84897],[121.67724,24.84971],[121.66989,24.84805],[121.66563,24.85036],[121.66404,24.84963],[121.65952,24.85118],[121.65715,24.84965],[121.65504,24.85137],[121.65298,24.85522],[121.64562,24.85951],[121.64466,24.86073],[121.64713,24.86386],[121.64828,24.8678],[121.65033,24.8684],[121.65348,24.87082],[121.65422,24.87643],[121.64968,24.88033],[121.6516,24.88489],[121.65182,24.88856],[121.65291,24.89016],[121.64994,24.89289],[121.64892,24.89543],[121.65157,24.89759],[121.65284,24.89764],[121.65313,24.89853],[121.66051,24.90159],[121.66207,24.90347],[121.6617,24.90521],[121.66606,24.90835],[121.66421,24.91109],[121.66323,24.91485],[121.66375,24.9159],[121.66956,24.91793],[121.67477,24.92148],[121.67792,24.92209],[121.67624,24.9231],[121.67483,24.92646],[121.67016,24.93012],[121.66961,24.9389],[121.667,24.93985],[121.66672,24.94489],[121.66588,24.94565],[121.66566,24.95],[121.66689,24.95241],[121.68065,24.95458],[121.68319,24.95743],[121.68536,24.95849],[121.68773,24.96281],[121.68882,24.96353],[121.69163,24.9632],[121.69411,24.96452],[121.69864,24.96466],[121.70004,24.96645],[121.70229,24.96685],[121.70466,24.97065],[121.70779,24.97268],[121.71098,24.97179],[121.71214,24.97243],[121.71586,24.97084],[121.71777,24.97142],[121.71818,24.9749],[121.72108,24.974],[121.73378,24.97644],[121.73648,24.97572],[121.73887,24.97979],[121.73963,24.97909],[121.74244,24.9797],[121.7441,24.97514],[121.74616,24.97522],[121.74841,24.97419],[121.75219,24.9771],[121.75379,24.97672],[121.75626,24.97773],[121.75874,24.97691],[121.76392,24.98073],[121.76745,24.97957],[121.77132,24.97954],[121.77313,24.98137],[121.7751,24.98536],[121.7763,24.98527]]]}},{"type":"Feature","properties":{"code":"65000240","name":"新北市平溪區"},"geometry":{"type":"Polygon","coordinates":[[[121.79827,25.07553],[121.80339,25.06787],[121.80562,25.06641],[121.80564,25.06505],[121.80446,25.06341],[121.80596,25.0584],[121.80678,25.05806],[121.81008,25.05969],[121.81424,25.05807],[121.81355,25.05181],[121.8153,25.04796],[121.81479,25.04568],[121.81688,25.04211],[121.81589,25.04093],[121.81474,25.04143],[121.8126,25.04078],[121.8088,25.03749],[121.8087,25.03494],[121.80668,25.03156],[121.7994,25.0301],[121.79277,25.02363],[121.78878,25.02276],[121.7883,25.02133],[121.78453,25.01788],[121.78435,25.01369],[121.78199,25.01116],[121.78011,25.01039],[121.77873,25.00794],[121.77935,25.00644],[121.77713,25.00576],[121.77472,25.00252],[121.76366,24.99618],[121.76477,24.9935],[121.76781,24.99229],[121.76874,24.99014],[121.77096,24.98896],[121.77434,24.98855],[121.77579,24.98553],[121.77712,24.98485],[121.7751,24.98536],[121.77313,24.98137],[121.77124,24.97951],[121.76745,24.97957],[121.76392,24.98073],[121.75874,24.97691],[121.75626,24.97773],[121.75379,24.97672],[121.75219,24.9771],[121.74841,24.97419],[121.74616,24.97522],[121.7441,24.97514],[121.74235,24.97973],[121.73963,24.97909],[121.73882,24.97976],[121.73648,24.97572],[121.73378,24.97644],[121.72108,24.974],[121.71818,24.9749],[121.7183,24.97677],[121.71727,24.97918],[121.72073,24.98026],[121.72188,24.98228],[121.72419,24.98307],[121.72465,24.98678],[121.72683,24.98928],[121.7237,24.99617],[121.72058,24.99988],[121.7205,25.00089],[121.72178,25.0013],[121.72263,25.00506],[121.72231,25.00733],[121.72113,25.00883],[121.71964,25.00738],[121.71363,25.00601],[121.71191,25.00971],[121.70639,25.01459],[121.70694,25.01704],[121.70422,25.01832],[121.70106,25.0232],[121.7023,25.02542],[121.70445,25.0267],[121.70317,25.02961],[121.70323,25.03204],[121.7083,25.03409],[121.71273,25.03358],[121.71326,25.03484],[121.71578,25.03625],[121.71664,25.03919],[121.71598,25.04175],[121.72228,25.0482],[121.72706,25.04944],[121.73009,25.05335],[121.73221,25.05272],[121.7375,25.05476],[121.7398,25.05306],[121.74312,25.05247],[121.74372,25.05313],[121.74591,25.05299],[121.74763,25.05372],[121.74818,25.05505],[121.75115,25.05726],[121.75555,25.05825],[121.75688,25.05934],[121.75929,25.05945],[121.76263,25.05697],[121.76411,25.05752],[121.76481,25.05954],[121.76735,25.06182],[121.77001,25.06349],[121.77173,25.06321],[121.77305,25.06684],[121.77643,25.07052],[121.7846,25.07252],[121.78849,25.07551],[121.79361,25.07722],[121.79539,25.07731],[121.79827,25.07553]]]}},{"type":"Feature","properties":{"code":"65000290","name":"新北市烏來區"},"geometry":{"type":"Polygon","coordinates":[[[121.5421,24.89216],[121.54673,24.88832],[121.55112,24.89125],[121.55467,24.89166],[121.55909,24.8906],[121.56415,24.88679],[121.56456,24.87713],[121.56846,24.87756],[121.57003,24.87657],[121.57136,24.87689],[121.57338,24.87479],[121.57596,24.87508],[121.5837,24.87332],[121.59004,24.86935],[121.59212,24.86644],[121.59588,24.86631],[121.59773,24.86414],[121.60113,24.86325],[121.60928,24.86306],[121.61547,24.8607],[121.61795,24.86192],[121.61959,24.86152],[121.62024,24.86294],[121.62126,24.86323],[121.62583,24.86142],[121.62977,24.86142],[121.63194,24.85935],[121.63405,24.85894],[121.63521,24.85742],[121.63894,24.86131],[121.6413,24.86203],[121.64332,24.86062],[121.64466,24.86073],[121.64573,24.85941],[121.65298,24.85522],[121.65504,24.85137],[121.65715,24.84965],[121.65952,24.85118],[121.66404,24.84963],[121.66563,24.85036],[121.66989,24.84805],[121.67724,24.84971],[121.6779,24.84897],[121.68222,24.85021],[121.68533,24.8494],[121.68739,24.84996],[121.68851,24.84837],[121.69068,24.84811],[121.69319,24.84404],[121.70399,24.8423],[121.70753,24.83885],[121.70187,24.8344],[121.69916,24.83558],[121.69816,24.8342],[121.6964,24.83462],[121.69617,24.82989],[121.68797,24.82542],[121.68776,24.82419],[121.69012,24.82149],[121.68895,24.81933],[121.68928,24.81717],[121.68831,24.81612],[121.68729,24.8162],[121.6862,24.81753],[121.68307,24.81691],[121.68124,24.81762],[121.67716,24.81409],[121.67531,24.8147],[121.67436,24.81412],[121.66905,24.81801],[121.66863,24.81679],[121.661,24.81189],[121.66069,24.81083],[121.65311,24.81127],[121.65052,24.81297],[121.64867,24.81265],[121.64732,24.81395],[121.64621,24.81031],[121.64504,24.80929],[121.6388,24.81073],[121.63723,24.80944],[121.63041,24.80902],[121.62842,24.80792],[121.62583,24.80878],[121.62637,24.80499],[121.62594,24.80284],[121.62482,24.80161],[121.62601,24.79667],[121.62547,24.79506],[121.62096,24.7925],[121.61681,24.79389],[121.61334,24.7932],[121.60964,24.79377],[121.60564,24.78913],[121.60293,24.78944],[121.59889,24.7877],[121.59208,24.78773],[121.59338,24.78503],[121.59326,24.78211],[121.59433,24.78105],[121.5944,24.77899],[121.59759,24.77217],[121.59559,24.7693],[121.59628,24.76694],[121.59344,24.76482],[121.59078,24.76134],[121.59082,24.75878],[121.5894,24.75721],[121.58897,24.75515],[121.59033,24.75124],[121.59459,24.75019],[121.59613,24.7483],[121.59467,24.74643],[121.59167,24.74492],[121.59192,24.74332],[121.59493,24.74084],[121.59531,24.73963],[121.59417,24.735],[121.59501,24.73248],[121.59377,24.72954],[121.59784,24.72928],[121.59755,24.72767],[121.59057,24.72356],[121.58738,24.72019],[121.58381,24.72046],[121.57831,24.72236],[121.57761,24.72107],[121.57728,24.71487],[121.57481,24.71011],[121.57216,24.71058],[121.57038,24.71397],[121.56778,24.71156],[121.56254,24.71284],[121.55832,24.71095],[121.55649,24.71127],[121.55443,24.70837],[121.55062,24.70574],[121.54727,24.70627],[121.54321,24.70564],[121.54084,24.70231],[121.53786,24.69984],[121.53889,24.69478],[121.53753,24.69393],[121.53773,24.69093],[121.53674,24.68841],[121.5295,24.68757],[121.5275,24.68882],[121.52695,24.68525],[121.5238,24.6833],[121.51481,24.68324],[121.51369,24.6843],[121.51174,24.68435],[121.5073,24.68234],[121.505,24.67949],[121.49903,24.67795],[121.49636,24.67513],[121.49301,24.67324],[121.48792,24.67519],[121.48474,24.67383],[121.48,24.67385],[121.476,24.67919],[121.47542,24.68365],[121.47395,24.68533],[121.47304,24.6898],[121.47464,24.69266],[121.47424,24.6961],[121.47096,24.69679],[121.4695,24.69615],[121.46255,24.70164],[121.45022,24.70568],[121.44879,24.71219],[121.4449,24.71515],[121.44096,24.72608],[121.43832,24.72659],[121.43428,24.73002],[121.43529,24.73355],[121.43292,24.73696],[121.43275,24.74075],[121.43037,24.74346],[121.43016,24.74555],[121.42869,24.74806],[121.42922,24.74995],[121.42849,24.75345],[121.42557,24.7584],[121.42584,24.76059],[121.42345,24.76174],[121.4233,24.76269],[121.42673,24.76826],[121.43143,24.77194],[121.43692,24.77372],[121.44058,24.77914],[121.44611,24.78185],[121.44952,24.78594],[121.44884,24.78824],[121.4504,24.78985],[121.45083,24.7916],[121.45587,24.79247],[121.45533,24.79892],[121.45939,24.80155],[121.46192,24.80542],[121.46906,24.80725],[121.47248,24.81052],[121.47328,24.81336],[121.47841,24.81602],[121.48142,24.81568],[121.48374,24.81797],[121.484,24.81967],[121.48045,24.82384],[121.48368,24.82839],[121.48392,24.83154],[121.48674,24.83423],[121.4903,24.83448],[121.49444,24.83648],[121.49721,24.84842],[121.49618,24.85102],[121.49311,24.85289],[121.49283,24.85658],[121.48836,24.86219],[121.49487,24.86847],[121.4992,24.87032],[121.50885,24.87753],[121.51779,24.88086],[121.52071,24.88328],[121.52629,24.8836],[121.52939,24.88507],[121.53293,24.88805],[121.53532,24.8918],[121.53837,24.89336],[121.53986,24.89379],[121.5421,24.89216]]]}},{"type":"Feature","properties":{"code":"65000100","name":"新北市淡水區"},"geometry":{"type":"Polygon","coordinates":[[[121.45068,25.24424],[121.45479,25.24403],[121.45695,25.24314],[121.45745,25.2412],[121.45856,25.24038],[121.46361,25.23914],[121.46761,25.23921],[121.46827,25.2386],[121.46925,25.23988],[121.47347,25.23748],[121.47516,25.23771],[121.48858,25.23217],[121.49219,25.23195],[121.49762,25.22952],[121.49631,25.22713],[121.49668,25.22596],[121.4998,25.22527],[121.50154,25.22375],[121.50029,25.22156],[121.49824,25.22205],[121.49852,25.22069],[121.49624,25.22221],[121.49653,25.21903],[121.49853,25.21599],[121.49769,25.21378],[121.49597,25.2146],[121.49293,25.21195],[121.49154,25.2129],[121.49088,25.21123],[121.48674,25.21131],[121.48502,25.20827],[121.48653,25.20637],[121.48526,25.20515],[121.48702,25.20457],[121.48927,25.20142],[121.48879,25.20027],[121.4857,25.19908],[121.48552,25.1973],[121.49161,25.19605],[121.49301,25.19502],[121.49304,25.1933],[121.49475,25.19299],[121.49537,25.19109],[121.50077,25.19294],[121.50261,25.19265],[121.50313,25.19083],[121.50669,25.18994],[121.50771,25.18876],[121.50762,25.18761],[121.50997,25.18754],[121.51396,25.18396],[121.5195,25.18238],[121.52232,25.17789],[121.52251,25.17443],[121.51985,25.16923],[121.51354,25.17099],[121.51042,25.16944],[121.50706,25.17116],[121.50575,25.17108],[121.50485,25.17325],[121.50257,25.17325],[121.50166,25.17128],[121.50185,25.16942],[121.50011,25.16831],[121.49875,25.16495],[121.4924,25.16041],[121.48763,25.153],[121.48734,25.1513],[121.48286,25.15022],[121.48169,25.14801],[121.47674,25.1439],[121.47167,25.13739],[121.46896,25.13563],[121.46561,25.13155],[121.4643,25.12757],[121.46483,25.12426],[121.46088,25.12296],[121.45879,25.12294],[121.45861,25.1246],[121.45692,25.12623],[121.4526,25.14681],[121.45023,25.15303],[121.44746,25.15663],[121.44098,25.16259],[121.43417,25.16712],[121.42453,25.17134],[121.41743,25.17555],[121.41885,25.17741],[121.41637,25.18066],[121.40561,25.18258],[121.40397,25.18392],[121.4046,25.18608],[121.40401,25.18768],[121.40486,25.18983],[121.4109,25.19071],[121.41224,25.18994],[121.41422,25.19011],[121.41901,25.19185],[121.4194,25.19255],[121.41775,25.19443],[121.41869,25.19506],[121.41817,25.19626],[121.41894,25.19927],[121.43087,25.21589],[121.43764,25.21802],[121.43731,25.21967],[121.44089,25.22842],[121.44227,25.2296],[121.44353,25.23252],[121.44341,25.23423],[121.44612,25.24036],[121.4459,25.24185],[121.45068,25.24424]]]}},{"type":"Feature","properties":{"code":"65000120","name":"新北市瑞芳區"},"geometry":{"type":"Polygon","coordinates":[[[121.8235,25.13601],[121.82663,25.13564],[121.8234,25.13276],[121.82396,25.13181],[121.82194,25.13259],[121.82171,25.13054],[121.81976,25.12936],[121.8191,25.12681],[121.81955,25.12512],[121.82045,25.12535],[121.81991,25.12417],[121.82253,25.12144],[121.8254,25.12173],[121.82565,25.12255],[121.82797,25.12219],[121.82735,25.12439],[121.82639,25.12417],[121.82773,25.12522],[121.82801,25.12274],[121.82957,25.12437],[121.82881,25.12765],[121.83151,25.12703],[121.83212,25.12778],[121.83375,25.12701],[121.8341,25.12843],[121.83693,25.12792],[121.8407,25.1286],[121.84148,25.12804],[121.84186,25.12886],[121.84301,25.12853],[121.84287,25.12782],[121.84895,25.12725],[121.85608,25.12481],[121.86064,25.12458],[121.86092,25.12556],[121.86132,25.12509],[121.86248,25.12633],[121.86263,25.1243],[121.86406,25.12421],[121.86504,25.12314],[121.86851,25.12314],[121.86988,25.12537],[121.87151,25.1238],[121.87252,25.12538],[121.87364,25.12479],[121.87373,25.12539],[121.87475,25.12485],[121.87599,25.12556],[121.87932,25.12308],[121.88056,25.12395],[121.8807,25.12338],[121.88302,25.12404],[121.88342,25.12333],[121.88454,25.12397],[121.88437,25.12332],[121.8863,25.12248],[121.88803,25.12325],[121.88728,25.1225],[121.88971,25.12172],[121.88898,25.1205],[121.88982,25.11986],[121.89103,25.12027],[121.89164,25.11957],[121.89307,25.12063],[121.89462,25.12016],[121.89598,25.12101],[121.89707,25.11969],[121.90176,25.1213],[121.90401,25.12283],[121.90453,25.12432],[121.91075,25.12333],[121.91357,25.12492],[121.91378,25.12416],[121.915,25.12435],[121.91648,25.12726],[121.9197,25.12785],[121.92226,25.12954],[121.92402,25.13012],[121.92679,25.12884],[121.92294,25.12257],[121.91956,25.1205],[121.91306,25.11767],[121.90858,25.1167],[121.90781,25.1176],[121.90628,25.11739],[121.90209,25.11592],[121.90005,25.11367],[121.89763,25.11376],[121.89477,25.10867],[121.8974,25.10365],[121.89572,25.10116],[121.88737,25.10033],[121.88171,25.09778],[121.87866,25.09508],[121.87415,25.095],[121.87226,25.09375],[121.86706,25.0941],[121.86657,25.09512],[121.8619,25.0965],[121.85873,25.0963],[121.85757,25.09735],[121.85375,25.09541],[121.85156,25.08917],[121.84765,25.08935],[121.84576,25.08737],[121.84305,25.0825],[121.84074,25.08063],[121.84079,25.07915],[121.83917,25.07646],[121.83252,25.07184],[121.83236,25.06891],[121.82968,25.06492],[121.83051,25.05914],[121.83128,25.05813],[121.83039,25.05629],[121.83476,25.04746],[121.83404,25.04447],[121.83194,25.04412],[121.82763,25.04553],[121.82479,25.0449],[121.82352,25.04592],[121.8218,25.04597],[121.81972,25.04293],[121.8174,25.04202],[121.81484,25.04554],[121.8153,25.04796],[121.81355,25.05181],[121.81424,25.05807],[121.81008,25.05969],[121.80678,25.05806],[121.80596,25.0584],[121.80446,25.06341],[121.80564,25.06505],[121.80562,25.06641],[121.80339,25.06787],[121.79789,25.07592],[121.79481,25.07738],[121.7906,25.07645],[121.7846,25.07252],[121.7832,25.07266],[121.78092,25.07116],[121.77823,25.07125],[121.77568,25.07006],[121.77131,25.07614],[121.76857,25.07841],[121.76151,25.0785],[121.75917,25.08426],[121.75982,25.09024],[121.75836,25.09413],[121.75947,25.09636],[121.75989,25.10062],[121.7568,25.10182],[121.7567,25.10275],[121.75805,25.10368],[121.75743,25.10423],[121.75752,25.1064],[121.75606,25.10841],[121.75396,25.10871],[121.75274,25.10684],[121.75089,25.10774],[121.74998,25.10951],[121.7519,25.11102],[121.75714,25.11012],[121.75939,25.11259],[121.76145,25.11239],[121.76329,25.11344],[121.76691,25.11252],[121.76973,25.11497],[121.77193,25.11906],[121.77353,25.12027],[121.77603,25.11862],[121.78338,25.11661],[121.78592,25.11819],[121.79016,25.11226],[121.79468,25.11257],[121.79569,25.11374],[121.79777,25.11431],[121.79863,25.11666],[121.79758,25.11772],[121.79888,25.11924],[121.79415,25.12344],[121.79461,25.12639],[121.79911,25.12435],[121.79981,25.12312],[121.80237,25.12177],[121.80502,25.12533],[121.80378,25.12745],[121.80532,25.12912],[121.80531,25.13129],[121.80403,25.13345],[121.80253,25.13433],[121.80351,25.1362],[121.80685,25.13562],[121.81043,25.1331],[121.81542,25.13476],[121.81808,25.13425],[121.82187,25.13603],[121.8235,25.13601]]]}},{"type":"Feature","properties":{"code":"65000170","name":"新北市林口區"},"geometry":{"type":"Polygon","coordinates":[[[121.37094,25.12843],[121.37432,25.12455],[121.37481,25.1222],[121.37709,25.12142],[121.37689,25.11984],[121.38014,25.1167],[121.38332,25.11474],[121.38588,25.11492],[121.38545,25.11253],[121.38651,25.11139],[121.38517,25.10955],[121.3871,25.10911],[121.38799,25.10709],[121.38942,25.10644],[121.39173,25.10066],[121.39235,25.10028],[121.39242,25.10125],[121.39347,25.10054],[121.39296,25.10477],[121.39304,25.10333],[121.39405,25.10288],[121.3935,25.10215],[121.39535,25.10025],[121.39572,25.09823],[121.39497,25.09761],[121.39611,25.09648],[121.39552,25.09591],[121.39702,25.09556],[121.39643,25.09507],[121.39693,25.09305],[121.39671,25.09082],[121.39604,25.09046],[121.39624,25.08713],[121.39462,25.08613],[121.39407,25.08744],[121.39456,25.08812],[121.39285,25.08901],[121.3928,25.08748],[121.38998,25.08812],[121.39022,25.08687],[121.39272,25.08638],[121.39283,25.0845],[121.3936,25.08406],[121.39241,25.08135],[121.39289,25.07986],[121.39376,25.08013],[121.39547,25.08384],[121.39621,25.08197],[121.39885,25.08106],[121.39723,25.08294],[121.3973,25.08448],[121.39864,25.08407],[121.39928,25.08571],[121.39992,25.0854],[121.39969,25.08776],[121.40204,25.08749],[121.40293,25.08858],[121.40035,25.08959],[121.40074,25.09174],[121.40297,25.09296],[121.40295,25.09486],[121.404,25.09543],[121.40178,25.09794],[121.40249,25.09906],[121.4008,25.10169],[121.40192,25.10112],[121.40162,25.10328],[121.40244,25.10412],[121.40026,25.10639],[121.40195,25.10614],[121.40184,25.10759],[121.4028,25.10725],[121.40393,25.10412],[121.40404,25.10099],[121.40467,25.10079],[121.40653,25.10266],[121.4074,25.10109],[121.40711,25.09977],[121.40824,25.0987],[121.40911,25.09952],[121.41021,25.09549],[121.4109,25.09513],[121.41263,25.09634],[121.41219,25.0919],[121.4091,25.0951],[121.40693,25.09612],[121.40945,25.0934],[121.40867,25.092],[121.40985,25.09231],[121.41071,25.09004],[121.40801,25.08837],[121.40922,25.08598],[121.40901,25.08442],[121.4108,25.08239],[121.41241,25.0821],[121.41293,25.08053],[121.41499,25.08256],[121.41428,25.08079],[121.41461,25.07885],[121.40954,25.08257],[121.40865,25.08047],[121.40661,25.08266],[121.40371,25.08411],[121.40341,25.08479],[121.40433,25.08482],[121.40336,25.08518],[121.40173,25.08443],[121.40269,25.08398],[121.40227,25.08297],[121.40329,25.08164],[121.40312,25.08041],[121.40518,25.0803],[121.40466,25.07976],[121.40515,25.07936],[121.40371,25.07829],[121.4035,25.07703],[121.40206,25.07639],[121.40791,25.07699],[121.40828,25.07585],[121.40235,25.07497],[121.39814,25.07653],[121.39951,25.07392],[121.39919,25.06906],[121.3985,25.06808],[121.40128,25.07016],[121.40197,25.06991],[121.40144,25.0721],[121.40399,25.07012],[121.40592,25.07018],[121.40608,25.06871],[121.40293,25.06806],[121.40264,25.06739],[121.40334,25.06593],[121.40567,25.06459],[121.40557,25.06331],[121.4037,25.06255],[121.40363,25.06433],[121.40026,25.06306],[121.40066,25.06456],[121.39995,25.06547],[121.39473,25.06679],[121.39665,25.06796],[121.39549,25.06866],[121.39696,25.07068],[121.39708,25.07251],[121.3962,25.0732],[121.39193,25.07029],[121.39173,25.06936],[121.38981,25.0694],[121.38933,25.06791],[121.38825,25.06803],[121.38879,25.06899],[121.38695,25.07211],[121.38814,25.07239],[121.38764,25.07284],[121.38597,25.07254],[121.3855,25.06993],[121.38419,25.07156],[121.37876,25.07197],[121.37717,25.07276],[121.37891,25.07017],[121.38067,25.07074],[121.38293,25.06917],[121.38228,25.06848],[121.38293,25.0679],[121.38266,25.06602],[121.37989,25.06608],[121.38014,25.06514],[121.37614,25.06612],[121.36426,25.06496],[121.35489,25.06515],[121.35509,25.06708],[121.35377,25.06858],[121.3523,25.06879],[121.35214,25.06792],[121.3497,25.06965],[121.34645,25.0703],[121.34802,25.07087],[121.34889,25.07239],[121.34985,25.0713],[121.35172,25.07357],[121.35346,25.07329],[121.35176,25.07446],[121.3499,25.07354],[121.35042,25.07528],[121.34992,25.07663],[121.34796,25.0738],[121.34185,25.07267],[121.34267,25.07343],[121.34053,25.07408],[121.34046,25.07636],[121.34117,25.07571],[121.34157,25.07662],[121.34281,25.0753],[121.34468,25.07505],[121.34623,25.07564],[121.34447,25.07606],[121.34422,25.07784],[121.34635,25.07678],[121.34525,25.07854],[121.34798,25.0788],[121.34247,25.08009],[121.3488,25.0812],[121.34943,25.08075],[121.35026,25.08124],[121.34938,25.08233],[121.3436,25.08422],[121.3383,25.08374],[121.33013,25.08825],[121.32792,25.09109],[121.32487,25.0926],[121.31824,25.09301],[121.31052,25.09655],[121.30285,25.09676],[121.30139,25.09848],[121.30129,25.10155],[121.29916,25.10403],[121.29807,25.10453],[121.2955,25.10302],[121.29162,25.10264],[121.29025,25.10686],[121.28707,25.10685],[121.28269,25.10985],[121.28391,25.11244],[121.28339,25.11781],[121.28767,25.1179],[121.2926,25.1191],[121.29491,25.12082],[121.2947,25.12212],[121.29685,25.12264],[121.29671,25.12617],[121.29877,25.1242],[121.30063,25.12521],[121.30415,25.12416],[121.30486,25.12611],[121.30965,25.12586],[121.31023,25.12374],[121.31346,25.12345],[121.32686,25.12422],[121.33862,25.12696],[121.34171,25.12871],[121.34503,25.12842],[121.34689,25.12988],[121.3526,25.13118],[121.36399,25.13718],[121.36527,25.14017],[121.36713,25.13389],[121.37094,25.12843]]]}},{"type":"Feature","properties":{"code":"65000210","name":"新北市三芝區"},"geometry":{"type":"Polygon","coordinates":[[[121.50769,25.28242],[121.50836,25.27809],[121.51177,25.27655],[121.51513,25.27616],[121.51638,25.27296],[121.51968,25.26903],[121.52143,25.26854],[121.5226,25.26622],[121.52374,25.26602],[121.52409,25.2637],[121.52629,25.26223],[121.5265,25.26096],[121.52822,25.2615],[121.52899,25.26024],[121.53082,25.26091],[121.53171,25.26038],[121.53092,25.26394],[121.53315,25.26646],[121.53353,25.2655],[121.53884,25.26621],[121.54041,25.26566],[121.54177,25.26799],[121.54309,25.2681],[121.54751,25.26541],[121.54818,25.2662],[121.55036,25.26158],[121.54968,25.25948],[121.54796,25.25762],[121.54795,25.25485],[121.54641,25.25355],[121.54772,25.24968],[121.54651,25.24654],[121.54456,25.24513],[121.54588,25.24346],[121.54454,25.24144],[121.54544,25.24094],[121.55045,25.2454],[121.55191,25.24515],[121.55257,25.24386],[121.5508,25.24255],[121.55417,25.23953],[121.55646,25.23383],[121.55564,25.22756],[121.5575,25.22666],[121.5603,25.22321],[121.56266,25.22202],[121.56292,25.22019],[121.56599,25.21501],[121.56434,25.21388],[121.56244,25.2141],[121.55921,25.21014],[121.55501,25.20843],[121.55312,25.2042],[121.55166,25.20333],[121.5526,25.19881],[121.5507,25.19711],[121.54812,25.198],[121.5447,25.19556],[121.54329,25.19388],[121.54283,25.18895],[121.5411,25.18738],[121.53581,25.18667],[121.53337,25.18358],[121.52601,25.18298],[121.52173,25.17912],[121.5195,25.18238],[121.51396,25.18396],[121.50997,25.18754],[121.50762,25.18761],[121.50771,25.18876],[121.50669,25.18994],[121.50313,25.19083],[121.50261,25.19265],[121.50077,25.19294],[121.49537,25.19109],[121.49475,25.19299],[121.49304,25.1933],[121.49301,25.19502],[121.49161,25.19605],[121.48552,25.1973],[121.4857,25.19908],[121.48879,25.20027],[121.48927,25.20142],[121.48702,25.20457],[121.48526,25.20515],[121.48653,25.20637],[121.48502,25.20827],[121.48674,25.21131],[121.49088,25.21123],[121.49154,25.2129],[121.49293,25.21195],[121.49597,25.2146],[121.49769,25.21378],[121.49853,25.21599],[121.49653,25.21903],[121.49624,25.22221],[121.49852,25.22069],[121.49824,25.22205],[121.50029,25.22156],[121.50154,25.22375],[121.4998,25.22527],[121.49668,25.22596],[121.49631,25.22713],[121.49767,25.22937],[121.49647,25.23048],[121.49219,25.23195],[121.48919,25.23195],[121.47516,25.23771],[121.47347,25.23748],[121.46925,25.23988],[121.46825,25.2386],[121.45879,25.2403],[121.45745,25.2412],[121.45695,25.24314],[121.45479,25.24403],[121.45032,25.24438],[121.4459,25.24185],[121.44763,25.24666],[121.45269,25.25281],[121.45618,25.25316],[121.46251,25.25205],[121.46735,25.2533],[121.47288,25.25732],[121.47703,25.26627],[121.48095,25.27088],[121.49098,25.2747],[121.49741,25.27888],[121.49873,25.27868],[121.50126,25.28046],[121.50126,25.27986],[121.5026,25.2797],[121.50365,25.28131],[121.50577,25.28107],[121.5065,25.28158],[121.50606,25.28227],[121.50769,25.28242]]]}},{"type":"Feature","properties":{"code":"65000230","name":"新北市八里區"},"geometry":{"type":"Polygon","coordinates":[[[121.4358,25.16602],[121.44442,25.15964],[121.4504,25.1527],[121.45273,25.14634],[121.45692,25.12623],[121.45869,25.12444],[121.46094,25.1162],[121.45903,25.11272],[121.45841,25.11282],[121.45855,25.11429],[121.45672,25.1145],[121.45538,25.11625],[121.45571,25.11846],[121.45297,25.11936],[121.45318,25.1208],[121.44905,25.12016],[121.44767,25.12212],[121.44593,25.12303],[121.44156,25.1231],[121.43595,25.12729],[121.43152,25.12901],[121.4296,25.12866],[121.42615,25.12957],[121.42515,25.13221],[121.42318,25.13151],[121.42124,25.12953],[121.42047,25.13014],[121.416,25.12986],[121.41607,25.12506],[121.41495,25.123],[121.41269,25.12277],[121.41004,25.12099],[121.40472,25.12255],[121.40223,25.1204],[121.4032,25.12011],[121.40317,25.11931],[121.40106,25.11807],[121.40099,25.11513],[121.40001,25.11332],[121.40081,25.11294],[121.40168,25.11044],[121.40125,25.10922],[121.40211,25.10639],[121.40024,25.10632],[121.40253,25.10358],[121.40162,25.10328],[121.40189,25.10108],[121.4008,25.10169],[121.40249,25.09906],[121.40178,25.09794],[121.404,25.09543],[121.40295,25.09486],[121.40297,25.09296],[121.40074,25.09174],[121.40035,25.08959],[121.40293,25.08858],[121.40204,25.08749],[121.39969,25.08776],[121.39992,25.0854],[121.39928,25.08571],[121.39864,25.08407],[121.3973,25.08448],[121.39723,25.08294],[121.39885,25.08106],[121.39621,25.08197],[121.39547,25.08384],[121.39376,25.08013],[121.39289,25.07986],[121.39241,25.08135],[121.3936,25.08406],[121.39283,25.0845],[121.39272,25.08638],[121.39022,25.08687],[121.38998,25.08812],[121.3928,25.08748],[121.39285,25.08901],[121.39456,25.08812],[121.39407,25.08744],[121.39462,25.08613],[121.39624,25.08713],[121.39604,25.09046],[121.39671,25.09082],[121.39693,25.09305],[121.39643,25.09507],[121.39702,25.09556],[121.39552,25.09591],[121.39611,25.09648],[121.39497,25.09761],[121.39572,25.09823],[121.39535,25.10025],[121.3935,25.10215],[121.39405,25.10288],[121.39304,25.10333],[121.39296,25.10477],[121.39347,25.10054],[121.39242,25.10125],[121.39235,25.10028],[121.39173,25.10066],[121.38942,25.10644],[121.38799,25.10709],[121.3871,25.10911],[121.3852,25.10948],[121.38651,25.11139],[121.38545,25.11253],[121.38588,25.11492],[121.38332,25.11474],[121.38014,25.1167],[121.37689,25.11984],[121.37709,25.12142],[121.37481,25.1222],[121.37432,25.12455],[121.37261,25.12581],[121.36713,25.13389],[121.36579,25.1397],[121.36733,25.13912],[121.37093,25.14051],[121.372,25.14198],[121.37947,25.143],[121.38977,25.14774],[121.38783,25.15192],[121.39157,25.16798],[121.40257,25.15883],[121.40553,25.16043],[121.40887,25.1649],[121.40551,25.16799],[121.40894,25.16497],[121.41253,25.16848],[121.41743,25.17555],[121.4358,25.16602]]]}},{"type":"Feature","properties":{"code":"65000090","name":"新北市三峽區"},"geometry":{"type":"Polygon","coordinates":[[[121.4096,24.94255],[121.40922,24.94168],[121.41003,24.9414],[121.41354,24.94148],[121.41467,24.93945],[121.41759,24.93754],[121.41964,24.93877],[121.42234,24.93826],[121.43044,24.9392],[121.43314,24.941],[121.43671,24.93557],[121.44234,24.93767],[121.45083,24.94397],[121.45413,24.94435],[121.45565,24.94512],[121.45605,24.94629],[121.4575,24.9461],[121.45872,24.93945],[121.46089,24.9376],[121.45972,24.93544],[121.45993,24.93423],[121.46417,24.93318],[121.46839,24.93077],[121.47339,24.93084],[121.47826,24.92859],[121.48458,24.92803],[121.48577,24.92626],[121.48522,24.92448],[121.48598,24.92297],[121.48675,24.92223],[121.48814,24.92236],[121.49206,24.91708],[121.49088,24.9126],[121.4896,24.91134],[121.49018,24.91009],[121.48939,24.90832],[121.49089,24.90499],[121.49253,24.90347],[121.48984,24.90128],[121.48631,24.90026],[121.48572,24.89916],[121.48632,24.89822],[121.48422,24.89711],[121.48041,24.89073],[121.47536,24.88617],[121.47496,24.88197],[121.47178,24.877],[121.47456,24.87555],[121.47711,24.87285],[121.47765,24.87116],[121.47925,24.87022],[121.47767,24.86565],[121.48038,24.86175],[121.48314,24.86182],[121.4854,24.86296],[121.48836,24.86219],[121.4927,24.85682],[121.49311,24.85289],[121.49618,24.85102],[121.49719,24.84871],[121.49621,24.84192],[121.49473,24.83966],[121.49444,24.83648],[121.4903,24.83448],[121.48674,24.83423],[121.48392,24.83154],[121.48368,24.82839],[121.4804,24.8235],[121.48219,24.82255],[121.484,24.81967],[121.48345,24.81761],[121.48142,24.81568],[121.47841,24.81602],[121.47328,24.81336],[121.47248,24.81052],[121.46906,24.80725],[121.46192,24.80542],[121.45939,24.80155],[121.45533,24.79892],[121.45626,24.79325],[121.4548,24.792],[121.45146,24.79197],[121.45039,24.79092],[121.446,24.79006],[121.43827,24.79534],[121.4371,24.79818],[121.43801,24.80321],[121.43696,24.80556],[121.43657,24.81205],[121.42957,24.81528],[121.42701,24.81904],[121.42529,24.82011],[121.42504,24.8228],[121.42365,24.82543],[121.41692,24.82557],[121.41608,24.82874],[121.41385,24.83196],[121.41561,24.8356],[121.41269,24.83695],[121.40875,24.84068],[121.40552,24.8424],[121.4027,24.84357],[121.4009,24.84179],[121.39824,24.84169],[121.39705,24.84279],[121.39722,24.84375],[121.39367,24.84398],[121.39041,24.84247],[121.38808,24.84241],[121.38504,24.84081],[121.38457,24.83806],[121.38335,24.83698],[121.37362,24.83328],[121.37281,24.83379],[121.37282,24.83498],[121.36993,24.83629],[121.36416,24.83813],[121.36018,24.83811],[121.35779,24.83952],[121.35482,24.84397],[121.34674,24.84589],[121.34001,24.84339],[121.3358,24.84431],[121.33616,24.84688],[121.33727,24.84841],[121.34295,24.84877],[121.34621,24.85011],[121.34764,24.84993],[121.34786,24.85095],[121.34872,24.84835],[121.35038,24.84877],[121.34986,24.84965],[121.35265,24.8491],[121.35186,24.85061],[121.35334,24.85059],[121.35479,24.85335],[121.35813,24.85337],[121.35784,24.85445],[121.35557,24.85506],[121.35337,24.8587],[121.34949,24.85969],[121.34835,24.86073],[121.34634,24.8656],[121.34505,24.86694],[121.34576,24.86809],[121.34938,24.86876],[121.35312,24.8711],[121.35445,24.87347],[121.3534,24.87498],[121.35347,24.87652],[121.35208,24.87676],[121.35058,24.87858],[121.34724,24.87868],[121.34563,24.88005],[121.34468,24.88585],[121.34114,24.88799],[121.34213,24.89259],[121.34053,24.89232],[121.33845,24.89335],[121.33351,24.89159],[121.33325,24.89317],[121.33208,24.89346],[121.33338,24.89624],[121.33325,24.89943],[121.33179,24.89981],[121.33056,24.89778],[121.32717,24.8959],[121.32032,24.9002],[121.32149,24.90143],[121.3219,24.9036],[121.32403,24.90471],[121.32621,24.90719],[121.32621,24.90918],[121.32359,24.90991],[121.32245,24.91259],[121.32029,24.91354],[121.31766,24.91646],[121.32491,24.92352],[121.32777,24.92471],[121.33425,24.92472],[121.33627,24.92553],[121.34398,24.93132],[121.34852,24.93646],[121.35909,24.94216],[121.36141,24.94554],[121.36229,24.94503],[121.36523,24.9473],[121.36984,24.94656],[121.37607,24.94969],[121.37923,24.94341],[121.38151,24.94413],[121.3852,24.94378],[121.39038,24.94522],[121.3931,24.945],[121.39604,24.94636],[121.39676,24.94563],[121.39585,24.94455],[121.39726,24.94252],[121.40058,24.94443],[121.40265,24.94822],[121.40757,24.95214],[121.40881,24.95099],[121.40857,24.9477],[121.4096,24.94255]]]}},{"type":"Feature","properties":{"code":"65000080","name":"新北市鶯歌區"},"geometry":{"type":"Polygon","coordinates":[[[121.34508,24.9801],[121.34735,24.97883],[121.35235,24.98085],[121.3542,24.97778],[121.36122,24.97781],[121.36142,24.97882],[121.36391,24.97959],[121.36892,24.9768],[121.36857,24.97553],[121.37012,24.97291],[121.37474,24.97041],[121.3754,24.96836],[121.37778,24.96563],[121.38134,24.96547],[121.38226,24.96475],[121.37863,24.96085],[121.3722,24.95662],[121.36615,24.95476],[121.36592,24.9521],[121.36453,24.94921],[121.3618,24.9468],[121.35925,24.94232],[121.34852,24.93646],[121.34425,24.93157],[121.34031,24.92874],[121.33782,24.92855],[121.33325,24.92983],[121.32206,24.92804],[121.32322,24.93128],[121.32193,24.93233],[121.32123,24.93206],[121.32071,24.93367],[121.31815,24.93479],[121.31578,24.93847],[121.32414,24.94329],[121.33042,24.94453],[121.33163,24.94564],[121.32798,24.94936],[121.32809,24.95526],[121.32915,24.96058],[121.32805,24.96545],[121.32981,24.96689],[121.32885,24.96788],[121.32693,24.96659],[121.32859,24.96847],[121.32854,24.97193],[121.32805,24.97287],[121.32404,24.97111],[121.32368,24.97282],[121.32744,24.97475],[121.32861,24.97627],[121.32715,24.97767],[121.32767,24.97856],[121.33067,24.97935],[121.33158,24.97863],[121.33383,24.97869],[121.3368,24.98068],[121.34103,24.98024],[121.34268,24.98232],[121.34508,24.9801]]]}},{"type":"Feature","properties":{"code":"65000030","name":"新北市中和區"},"geometry":{"type":"Polygon","coordinates":[[[121.49154,25.01129],[121.49281,25.00939],[121.495,25.0083],[121.49798,25.00904],[121.50888,25.00421],[121.50871,25.00251],[121.50774,25.00227],[121.50636,24.9998],[121.50872,25.00002],[121.51246,25.00429],[121.51443,25.00395],[121.515,25.00163],[121.5141,24.99998],[121.515,24.99805],[121.51229,24.99349],[121.51401,24.99349],[121.5171,24.9956],[121.52593,24.99756],[121.52674,24.99544],[121.53137,24.99543],[121.53172,24.99058],[121.52354,24.98387],[121.52252,24.98507],[121.52345,24.98791],[121.51724,24.98793],[121.51498,24.98608],[121.51382,24.98311],[121.51448,24.98175],[121.50901,24.97651],[121.50594,24.97501],[121.50199,24.96985],[121.4977,24.97076],[121.49584,24.9692],[121.48196,24.96332],[121.4798,24.96392],[121.47866,24.96663],[121.47987,24.97009],[121.47958,24.97262],[121.48183,24.97322],[121.48064,24.97538],[121.47937,24.976],[121.47907,24.97773],[121.47702,24.97943],[121.47568,24.97934],[121.47418,24.98321],[121.47748,24.98659],[121.47972,24.99032],[121.47694,24.99062],[121.473,24.99411],[121.47014,24.99175],[121.46914,24.99269],[121.46901,24.99464],[121.46628,24.99295],[121.46421,24.99562],[121.46654,25.00043],[121.46586,25.00207],[121.46844,25.00335],[121.46793,25.00443],[121.47195,25.00699],[121.47615,25.01117],[121.48204,25.01123],[121.48167,25.01261],[121.48255,25.01453],[121.482,25.0157],[121.4887,25.01576],[121.48956,25.01318],[121.49154,25.01129]]]}},{"type":"Feature","properties":{"code":"65000070","name":"新北市樹林區"},"geometry":{"type":"Polygon","coordinates":[[[121.4138,25.01895],[121.41762,25.02002],[121.42383,25.01681],[121.42348,25.0149],[121.42706,25.01049],[121.42633,25.00988],[121.42689,25.00825],[121.42807,25.0088],[121.42916,25.00828],[121.43006,25.0055],[121.43202,25.00357],[121.43009,24.99522],[121.42874,24.99253],[121.42818,24.99293],[121.42791,24.99179],[121.42508,24.98941],[121.42441,24.98722],[121.42658,24.98406],[121.42673,24.98145],[121.42597,24.97995],[121.4267,24.97294],[121.42881,24.97208],[121.42575,24.97138],[121.42117,24.96816],[121.41035,24.96489],[121.41055,24.95623],[121.40987,24.95416],[121.40265,24.94822],[121.40058,24.94443],[121.39726,24.94252],[121.39585,24.94455],[121.39676,24.94563],[121.39604,24.94636],[121.3931,24.945],[121.39038,24.94522],[121.3852,24.94378],[121.38151,24.94413],[121.37923,24.94341],[121.37607,24.94969],[121.37019,24.94664],[121.36539,24.94733],[121.36427,24.94608],[121.36173,24.94518],[121.36175,24.94673],[121.3632,24.94747],[121.36568,24.95131],[121.36615,24.95476],[121.3722,24.95662],[121.37863,24.96085],[121.38228,24.96482],[121.37778,24.96563],[121.3754,24.96836],[121.37474,24.97041],[121.37012,24.97291],[121.36854,24.97636],[121.3724,24.97994],[121.37673,24.98125],[121.37933,24.98357],[121.38095,24.98429],[121.38223,24.98392],[121.38546,24.98604],[121.38341,24.98861],[121.38432,24.99168],[121.38359,24.99351],[121.38418,24.99571],[121.38804,24.9964],[121.39061,24.99326],[121.39402,24.99342],[121.39647,24.99555],[121.39684,24.9973],[121.40324,24.99933],[121.40327,25.00025],[121.40187,25.00124],[121.40204,25.00253],[121.40023,25.00422],[121.39952,25.00697],[121.39365,25.00981],[121.39119,25.01203],[121.39262,25.01375],[121.39243,25.0154],[121.39466,25.01464],[121.39719,25.01621],[121.40163,25.01577],[121.40414,25.01719],[121.40917,25.01839],[121.41127,25.01799],[121.4124,25.02031],[121.4138,25.01895]]]}},{"type":"Feature","properties":{"code":"65000180","name":"新北市深坑區"},"geometry":{"type":"Polygon","coordinates":[[[121.6335,25.02493],[121.63562,25.02401],[121.63569,25.02321],[121.63751,25.02407],[121.64022,25.02354],[121.63918,25.02066],[121.64056,25.01824],[121.64113,25.01442],[121.64047,25.00944],[121.64158,25.00784],[121.6394,25.0059],[121.6393,25.0038],[121.64025,25.00264],[121.645,25.00195],[121.64572,24.99842],[121.64412,24.99666],[121.64391,24.99515],[121.6379,24.99509],[121.63654,24.99357],[121.63641,24.99256],[121.63782,24.9912],[121.63704,24.98743],[121.63774,24.98344],[121.63918,24.98071],[121.62512,24.9712],[121.61998,24.96928],[121.61928,24.97054],[121.6162,24.97167],[121.6143,24.97354],[121.61135,24.97461],[121.60521,24.97436],[121.6005,24.97669],[121.59933,24.97868],[121.60066,24.9802],[121.59986,24.98639],[121.60183,24.98791],[121.60197,24.99029],[121.59906,24.99171],[121.59937,24.993],[121.59814,24.99449],[121.60053,24.99847],[121.60047,25.00108],[121.59789,25.00414],[121.59591,25.00451],[121.59586,25.0091],[121.59757,25.01328],[121.59732,25.01457],[121.60263,25.01508],[121.60413,25.01909],[121.60821,25.01944],[121.60926,25.02095],[121.61035,25.01987],[121.61337,25.01914],[121.61608,25.0197],[121.61752,25.01841],[121.62055,25.01839],[121.6234,25.0173],[121.62693,25.01954],[121.62894,25.01993],[121.6315,25.02523],[121.63245,25.02563],[121.6335,25.02493]]]}},{"type":"Feature","properties":{"code":"65000010","name":"新北市板橋區"},"geometry":{"type":"Polygon","coordinates":[[[121.48072,25.03942],[121.48523,25.03923],[121.48364,25.03529],[121.4888,25.02335],[121.4887,25.01576],[121.482,25.0157],[121.48255,25.01453],[121.48167,25.01261],[121.48204,25.01123],[121.47615,25.01117],[121.47195,25.00699],[121.46793,25.00443],[121.46844,25.00335],[121.46586,25.00207],[121.46654,25.00043],[121.46422,24.99567],[121.46625,24.99297],[121.46723,24.99271],[121.46661,24.99074],[121.46496,24.98972],[121.46108,24.98914],[121.45928,24.991],[121.4571,24.99139],[121.45628,24.99634],[121.45493,24.99579],[121.45306,24.991],[121.44966,24.99308],[121.44424,24.99104],[121.44271,24.99292],[121.44202,24.9922],[121.44086,24.99259],[121.44009,24.98817],[121.43832,24.98637],[121.43694,24.98318],[121.43513,24.98165],[121.43389,24.97562],[121.42881,24.97208],[121.42688,24.97273],[121.42597,24.97995],[121.42673,24.98145],[121.42658,24.98406],[121.42444,24.98712],[121.42457,24.98842],[121.42791,24.99179],[121.42818,24.99293],[121.42876,24.99256],[121.43093,24.99625],[121.4307,24.99767],[121.43152,24.99907],[121.43346,25.00018],[121.43634,25.00011],[121.43755,25.01041],[121.44882,25.02743],[121.45488,25.03288],[121.46297,25.03737],[121.46994,25.03927],[121.48072,25.03942]]]}},{"type":"Feature","properties":{"code":"65000190","name":"新北市石碇區"},"geometry":{"type":"Polygon","coordinates":[[[121.69268,25.0416],[121.69578,25.0407],[121.69635,25.03838],[121.69553,25.03691],[121.69694,25.0351],[121.7011,25.03419],[121.70319,25.03198],[121.70317,25.02961],[121.70445,25.0267],[121.7023,25.02542],[121.70106,25.0232],[121.70422,25.01832],[121.70684,25.01719],[121.70618,25.01492],[121.71191,25.00971],[121.71362,25.00602],[121.71964,25.00738],[121.72113,25.00883],[121.72193,25.00819],[121.72263,25.00506],[121.72178,25.0013],[121.7205,25.00089],[121.72058,24.99988],[121.7237,24.99617],[121.72682,24.98923],[121.72465,24.98678],[121.72419,24.98307],[121.72188,24.98228],[121.72073,24.98026],[121.71727,24.97918],[121.71843,24.97579],[121.71777,24.97142],[121.715,24.97087],[121.71214,24.97243],[121.71098,24.97179],[121.70779,24.97268],[121.70466,24.97065],[121.70229,24.96685],[121.70004,24.96645],[121.69864,24.96466],[121.69411,24.96452],[121.69163,24.9632],[121.68882,24.96353],[121.68773,24.96281],[121.68536,24.95849],[121.68319,24.95743],[121.68065,24.95458],[121.66686,24.95237],[121.66566,24.95],[121.66588,24.94565],[121.66672,24.94489],[121.667,24.93985],[121.66961,24.9389],[121.67016,24.93012],[121.67483,24.92646],[121.67624,24.9231],[121.67792,24.92209],[121.67477,24.92148],[121.66956,24.91793],[121.66375,24.9159],[121.66323,24.91485],[121.66421,24.91109],[121.66606,24.90835],[121.6617,24.90521],[121.66207,24.90347],[121.66051,24.90159],[121.65313,24.89853],[121.65284,24.89764],[121.65157,24.89759],[121.64892,24.89543],[121.64994,24.89289],[121.65291,24.89016],[121.65182,24.88856],[121.6516,24.88489],[121.64965,24.88048],[121.65067,24.87893],[121.65421,24.87695],[121.65338,24.87063],[121.64828,24.8678],[121.64713,24.86386],[121.64466,24.86073],[121.64041,24.86191],[121.63845,24.86089],[121.63521,24.85742],[121.63405,24.85894],[121.63194,24.85935],[121.62977,24.86142],[121.62583,24.86142],[121.62126,24.86323],[121.62024,24.86294],[121.61959,24.86152],[121.61795,24.86192],[121.61547,24.8607],[121.60928,24.86306],[121.60113,24.86325],[121.59773,24.86414],[121.59588,24.86631],[121.59212,24.86644],[121.59004,24.86935],[121.58494,24.87275],[121.57578,24.87508],[121.57796,24.87935],[121.57695,24.8817],[121.57792,24.88322],[121.57638,24.886],[121.57824,24.89082],[121.57865,24.89629],[121.57622,24.89873],[121.57174,24.90014],[121.56803,24.90325],[121.56634,24.90357],[121.57009,24.90624],[121.57188,24.90869],[121.57906,24.90899],[121.58949,24.9145],[121.59324,24.91382],[121.59662,24.91023],[121.59853,24.91043],[121.59701,24.91204],[121.59561,24.92386],[121.59414,24.92735],[121.59648,24.93281],[121.5969,24.93595],[121.59988,24.93914],[121.59943,24.94129],[121.59804,24.94304],[121.598,24.94476],[121.60008,24.94507],[121.60142,24.94712],[121.60673,24.94648],[121.60648,24.9498],[121.60848,24.95199],[121.60771,24.95634],[121.61024,24.95679],[121.61057,24.95951],[121.60947,24.96428],[121.61692,24.96752],[121.61816,24.96682],[121.61964,24.96716],[121.61998,24.96928],[121.62512,24.9712],[121.6338,24.97765],[121.6391,24.9806],[121.6371,24.98676],[121.63782,24.9912],[121.63641,24.99256],[121.63654,24.99357],[121.6379,24.99509],[121.64391,24.99515],[121.64412,24.99666],[121.64571,24.99827],[121.645,25.00195],[121.64025,25.00264],[121.6393,25.0038],[121.6394,25.0059],[121.64158,25.00784],[121.64047,25.00944],[121.64113,25.01442],[121.64056,25.01824],[121.63918,25.02066],[121.64022,25.02354],[121.64298,25.02456],[121.64634,25.02171],[121.64991,25.02397],[121.65382,25.02442],[121.65764,25.02323],[121.66363,25.023],[121.66536,25.02584],[121.66483,25.0278],[121.66594,25.02988],[121.66584,25.03373],[121.67076,25.03273],[121.67223,25.0344],[121.67716,25.03484],[121.6842,25.04008],[121.68608,25.04019],[121.6884,25.04161],[121.69268,25.0416]]]}},{"type":"Feature","properties":{"code":"65000050","name":"新北市新莊區"},"geometry":{"type":"Polygon","coordinates":[[[121.46593,25.06083],[121.46736,25.05876],[121.46742,25.05592],[121.46869,25.05319],[121.46571,25.04366],[121.46627,25.03852],[121.45507,25.03301],[121.44882,25.02743],[121.43755,25.01041],[121.43634,25.00011],[121.43346,25.00018],[121.43163,24.99917],[121.43009,24.99522],[121.43202,25.00357],[121.43006,25.0055],[121.42916,25.00828],[121.42807,25.0088],[121.42689,25.00825],[121.42633,25.00988],[121.42706,25.01049],[121.42348,25.0149],[121.42387,25.01677],[121.41762,25.02002],[121.41388,25.01894],[121.41249,25.02032],[121.41116,25.01934],[121.41061,25.02105],[121.40868,25.02086],[121.40443,25.0239],[121.40377,25.02528],[121.4013,25.02642],[121.40096,25.02893],[121.39827,25.0301],[121.39798,25.03115],[121.39879,25.03143],[121.39862,25.03481],[121.40121,25.03445],[121.39959,25.03588],[121.4012,25.03637],[121.40117,25.03762],[121.39959,25.0375],[121.39897,25.03861],[121.39758,25.03849],[121.39438,25.04009],[121.39355,25.042],[121.39068,25.04185],[121.39387,25.04378],[121.40015,25.04303],[121.40067,25.04333],[121.3983,25.04411],[121.40305,25.04549],[121.40824,25.04462],[121.41049,25.04261],[121.40954,25.04082],[121.41076,25.04162],[121.41068,25.04075],[121.41202,25.04036],[121.41159,25.03929],[121.41324,25.03884],[121.41268,25.03517],[121.41482,25.03444],[121.41684,25.03475],[121.41817,25.03358],[121.41656,25.0302],[121.4182,25.0303],[121.4213,25.02875],[121.42203,25.03037],[121.4234,25.0293],[121.42616,25.03016],[121.42409,25.03183],[121.43273,25.04115],[121.43669,25.03888],[121.43736,25.04322],[121.44184,25.04143],[121.44184,25.04487],[121.43988,25.04704],[121.44202,25.04773],[121.44044,25.05227],[121.43945,25.05233],[121.43868,25.0556],[121.43952,25.05681],[121.44401,25.05829],[121.44435,25.05974],[121.44526,25.05889],[121.44605,25.05966],[121.44689,25.05925],[121.4471,25.06062],[121.44811,25.06064],[121.44772,25.0626],[121.4505,25.06081],[121.45353,25.06301],[121.45352,25.06533],[121.4614,25.06877],[121.46478,25.06746],[121.46593,25.06083]]]}},{"type":"Feature","properties":{"code":"65000160","name":"新北市泰山區"},"geometry":{"type":"Polygon","coordinates":[[[121.40229,25.07498],[121.40652,25.07595],[121.41033,25.07564],[121.4145,25.07235],[121.4156,25.0706],[121.41734,25.06981],[121.41957,25.06896],[121.43064,25.06905],[121.43157,25.06848],[121.43195,25.06611],[121.43497,25.06662],[121.43753,25.06441],[121.43879,25.06571],[121.4384,25.06728],[121.44226,25.06736],[121.44293,25.06915],[121.44555,25.06938],[121.44567,25.06445],[121.44845,25.06316],[121.44755,25.06243],[121.44808,25.06053],[121.4471,25.06062],[121.44683,25.05921],[121.44605,25.05966],[121.44526,25.05889],[121.44428,25.05971],[121.44401,25.05829],[121.43952,25.05681],[121.43869,25.05578],[121.43945,25.05233],[121.44044,25.05227],[121.44202,25.04773],[121.43988,25.04704],[121.44184,25.04487],[121.44184,25.04143],[121.43736,25.04322],[121.43669,25.03888],[121.43273,25.04115],[121.42409,25.03183],[121.42616,25.03016],[121.4234,25.0293],[121.42203,25.03037],[121.4213,25.02875],[121.4182,25.0303],[121.41656,25.0302],[121.41817,25.03358],[121.41684,25.03475],[121.41482,25.03444],[121.41268,25.03517],[121.41324,25.03884],[121.41159,25.03929],[121.41202,25.04036],[121.41068,25.04075],[121.41076,25.04162],[121.40954,25.04082],[121.41049,25.04261],[121.40909,25.04416],[121.40272,25.04571],[121.39994,25.04492],[121.39956,25.04603],[121.3977,25.04629],[121.39944,25.04776],[121.39858,25.04812],[121.39603,25.04856],[121.39441,25.0475],[121.39402,25.05034],[121.39853,25.04847],[121.39749,25.0504],[121.39854,25.05101],[121.39976,25.04936],[121.4007,25.05139],[121.3977,25.0514],[121.39295,25.05398],[121.39104,25.05358],[121.39262,25.05507],[121.39089,25.05448],[121.39082,25.0533],[121.38987,25.05284],[121.3895,25.05348],[121.38444,25.05256],[121.38744,25.05491],[121.38573,25.0568],[121.3856,25.05811],[121.38864,25.05688],[121.38849,25.0583],[121.38974,25.05906],[121.38768,25.05972],[121.38895,25.0607],[121.39087,25.06078],[121.39111,25.06148],[121.38817,25.06155],[121.38831,25.06306],[121.38291,25.06293],[121.38216,25.0643],[121.3802,25.06483],[121.37989,25.06608],[121.38266,25.06602],[121.38293,25.0679],[121.38228,25.06848],[121.38293,25.06917],[121.38067,25.07074],[121.37891,25.07017],[121.37707,25.07267],[121.38419,25.07156],[121.3855,25.06993],[121.38597,25.07254],[121.38764,25.07284],[121.38814,25.07239],[121.38695,25.07211],[121.38879,25.06899],[121.38825,25.06803],[121.38933,25.06791],[121.38981,25.0694],[121.39173,25.06936],[121.39193,25.07029],[121.39626,25.07318],[121.39708,25.07251],[121.39696,25.07068],[121.39549,25.06866],[121.39665,25.06796],[121.39473,25.06679],[121.39995,25.06547],[121.40066,25.06456],[121.40026,25.06306],[121.40363,25.06433],[121.4037,25.06255],[121.40557,25.06331],[121.40567,25.06459],[121.40334,25.06593],[121.40264,25.06739],[121.40293,25.06806],[121.40608,25.06871],[121.40592,25.07018],[121.40399,25.07012],[121.40144,25.0721],[121.40197,25.06991],[121.40128,25.07016],[121.39913,25.06806],[121.3984,25.06822],[121.39919,25.06906],[121.39951,25.07392],[121.39815,25.07655],[121.40229,25.07498]]]}},{"type":"Feature","properties":{"code":"65000020","name":"新北市三重區"},"geometry":{"type":"Polygon","coordinates":[[[121.50645,25.07272],[121.50682,25.06472],[121.50539,25.05934],[121.50623,25.05363],[121.50467,25.04979],[121.50136,25.04595],[121.49566,25.04296],[121.4891,25.0427],[121.48523,25.03923],[121.4784,25.03983],[121.46627,25.03852],[121.46571,25.04366],[121.46869,25.05319],[121.46742,25.05592],[121.46736,25.05876],[121.46534,25.06252],[121.46585,25.06665],[121.46979,25.06859],[121.46966,25.0724],[121.47084,25.07226],[121.471,25.07348],[121.47351,25.07269],[121.47534,25.07322],[121.47701,25.07713],[121.47917,25.07841],[121.48403,25.08449],[121.48395,25.08846],[121.49115,25.09476],[121.50012,25.08675],[121.50405,25.08009],[121.50645,25.07272]]]}},{"type":"Feature","properties":{"code":"65000250","name":"新北市雙溪區"},"geometry":{"type":"Polygon","coordinates":[[[121.85834,25.09644],[121.8619,25.0965],[121.86873,25.09374],[121.87232,25.09376],[121.87421,25.095],[121.87553,25.0946],[121.87675,25.09288],[121.87603,25.08725],[121.87843,25.08296],[121.87716,25.07679],[121.87764,25.07473],[121.87995,25.07243],[121.88295,25.07187],[121.883,25.06992],[121.88711,25.06351],[121.88796,25.05735],[121.89058,25.0532],[121.88886,25.05109],[121.88936,25.04781],[121.88764,25.04555],[121.88783,25.04462],[121.88996,25.04388],[121.89052,25.04194],[121.89248,25.04184],[121.89681,25.03989],[121.89406,25.033],[121.89421,25.03142],[121.89215,25.02859],[121.89388,25.0248],[121.89204,25.02442],[121.88972,25.021],[121.8882,25.0207],[121.88825,25.01922],[121.89082,25.01829],[121.89113,25.01635],[121.88707,25.0141],[121.88523,25.01495],[121.88059,25.01358],[121.88062,25.01176],[121.87864,25.01049],[121.8788,25.00738],[121.87603,25.00416],[121.87531,24.99934],[121.87225,24.99619],[121.87098,24.99321],[121.86784,24.99142],[121.86448,24.98697],[121.8638,24.9855],[121.86513,24.98409],[121.86417,24.98243],[121.8624,24.98154],[121.86226,24.97504],[121.86127,24.97479],[121.86085,24.97358],[121.86169,24.96774],[121.86066,24.96597],[121.86125,24.96366],[121.85438,24.96159],[121.85402,24.96],[121.85257,24.95961],[121.85036,24.96118],[121.84876,24.96],[121.84694,24.96031],[121.84561,24.95932],[121.84519,24.95775],[121.84348,24.9569],[121.84297,24.95513],[121.84141,24.95426],[121.84176,24.95112],[121.84076,24.94801],[121.83925,24.94642],[121.83988,24.94211],[121.84255,24.93928],[121.84674,24.93771],[121.84915,24.93033],[121.85387,24.92788],[121.85363,24.92512],[121.8456,24.91937],[121.84374,24.91572],[121.84228,24.91515],[121.8364,24.90835],[121.83329,24.90664],[121.83182,24.90491],[121.8281,24.90537],[121.82701,24.90454],[121.82551,24.90526],[121.81838,24.90271],[121.81164,24.90652],[121.81049,24.90527],[121.81048,24.90363],[121.80773,24.90321],[121.80462,24.90119],[121.80347,24.90181],[121.80221,24.901],[121.79889,24.90087],[121.79716,24.90162],[121.79518,24.89975],[121.79359,24.89967],[121.79114,24.90341],[121.78805,24.90613],[121.78616,24.90641],[121.78396,24.91568],[121.78162,24.91795],[121.77813,24.91959],[121.78061,24.92293],[121.78187,24.92823],[121.78527,24.93092],[121.78498,24.93325],[121.78599,24.93432],[121.78629,24.93711],[121.78949,24.94039],[121.78777,24.94498],[121.79098,24.95116],[121.79232,24.9517],[121.79325,24.95354],[121.79325,24.95434],[121.79126,24.9555],[121.79015,24.96038],[121.79067,24.96429],[121.79226,24.96657],[121.79189,24.97031],[121.79389,24.97316],[121.79409,24.97736],[121.79275,24.98079],[121.79284,24.9831],[121.791,24.9836],[121.78654,24.98307],[121.78511,24.982],[121.78137,24.9821],[121.77579,24.98553],[121.77434,24.98855],[121.76968,24.98938],[121.76743,24.99261],[121.76477,24.9935],[121.76364,24.99614],[121.77472,25.00252],[121.77713,25.00576],[121.77935,25.00644],[121.77873,25.00794],[121.78011,25.01039],[121.78199,25.01116],[121.78435,25.01369],[121.78453,25.01788],[121.7883,25.02133],[121.78878,25.02276],[121.79277,25.02363],[121.7994,25.0301],[121.80668,25.03156],[121.8087,25.03494],[121.8088,25.03749],[121.81225,25.04057],[121.8146,25.04142],[121.81589,25.04093],[121.81688,25.04211],[121.8194,25.04269],[121.82163,25.04594],[121.82352,25.04592],[121.82479,25.0449],[121.82763,25.04553],[121.83194,25.04412],[121.83401,25.04443],[121.83476,25.04746],[121.83039,25.05629],[121.83128,25.05813],[121.82957,25.0643],[121.83236,25.06891],[121.8322,25.07124],[121.83917,25.07646],[121.84079,25.07915],[121.84074,25.08063],[121.84305,25.0825],[121.84739,25.08915],[121.85156,25.08917],[121.85345,25.09513],[121.85741,25.09733],[121.85834,25.09644]]]}},{"type":"Feature","properties":{"code":"65000260","name":"新北市貢寮區"},"geometry":{"type":"Polygon","coordinates":[[[121.92258,25.12231],[121.92121,25.12132],[121.92082,25.11746],[121.91695,25.11618],[121.91604,25.11386],[121.91861,25.11251],[121.92118,25.11414],[121.9232,25.11328],[121.92655,25.10815],[121.92546,25.1061],[121.92322,25.10531],[121.92416,25.10367],[121.92193,25.10406],[121.91945,25.10225],[121.91919,25.10025],[121.91852,25.09997],[121.91972,25.09769],[121.91959,25.09485],[121.91737,25.09425],[121.91443,25.08975],[121.91501,25.08883],[121.91442,25.08548],[121.91687,25.0814],[121.91618,25.07969],[121.91663,25.0791],[121.91545,25.07871],[121.91554,25.07664],[121.91666,25.07597],[121.91985,25.0763],[121.92449,25.07266],[121.92846,25.07087],[121.92815,25.06882],[121.93172,25.06312],[121.93127,25.06156],[121.93179,25.06107],[121.9307,25.06106],[121.93134,25.0601],[121.93066,25.05991],[121.93133,25.05632],[121.93067,25.05601],[121.93157,25.05411],[121.92976,25.05135],[121.92895,25.04624],[121.9303,25.04553],[121.9304,25.04415],[121.9295,25.04351],[121.93001,25.04314],[121.92888,25.04303],[121.92899,25.04217],[121.93033,25.04207],[121.92896,25.041],[121.93206,25.03586],[121.93456,25.03236],[121.94225,25.02464],[121.94711,25.02106],[121.94997,25.02046],[121.94967,25.02161],[121.95065,25.02168],[121.95001,25.02238],[121.95085,25.02188],[121.96088,25.02299],[121.96487,25.02468],[121.9676,25.02398],[121.97365,25.02656],[121.97789,25.02661],[121.98302,25.02492],[121.99017,25.02106],[121.99229,25.01647],[121.99145,25.01497],[121.99156,25.01279],[121.99763,25.01949],[121.99777,25.02076],[121.99802,25.01943],[121.99912,25.01961],[122.0013,25.01544],[122.00206,25.01542],[122.00182,25.01481],[122.00311,25.01444],[122.00414,25.01549],[122.005,25.01567],[122.00524,25.01476],[122.00634,25.01539],[122.00508,25.01338],[122.0065,25.01103],[122.0075,25.01173],[122.00584,25.00864],[122.00698,25.00869],[122.00695,25.00802],[122.00575,25.00792],[122.0053,25.00579],[122.00599,25.00332],[122.00516,25.00155],[122.00359,25.002],[121.99668,25.00076],[121.9893,24.99375],[121.98388,24.99056],[121.98092,24.99108],[121.97754,24.99007],[121.97608,24.98881],[121.97475,24.98529],[121.97222,24.98536],[121.97196,24.98459],[121.96772,24.98482],[121.9676,24.98313],[121.9668,24.98246],[121.96291,24.9877],[121.96108,24.98829],[121.95809,24.98729],[121.95525,24.98834],[121.95039,24.98832],[121.9479,24.98666],[121.94464,24.98818],[121.94051,24.98449],[121.93866,24.98486],[121.93749,24.98302],[121.93461,24.98325],[121.9335,24.9809],[121.93062,24.98103],[121.9285,24.97965],[121.92677,24.98017],[121.92274,24.9786],[121.92082,24.97972],[121.91899,24.97864],[121.91487,24.97935],[121.91096,24.97693],[121.91033,24.97477],[121.90826,24.97586],[121.90673,24.97551],[121.90542,24.97342],[121.90412,24.97466],[121.90283,24.97438],[121.8972,24.96707],[121.88957,24.96476],[121.88857,24.96318],[121.883,24.96424],[121.87606,24.96146],[121.87314,24.96154],[121.87155,24.96072],[121.86363,24.96213],[121.86125,24.96366],[121.86064,24.96563],[121.86168,24.96762],[121.86085,24.97358],[121.86127,24.97479],[121.86226,24.97504],[121.8624,24.98154],[121.86417,24.98243],[121.86513,24.98409],[121.86397,24.98598],[121.86637,24.98994],[121.87098,24.99321],[121.87225,24.99619],[121.87531,24.99934],[121.87603,25.00416],[121.8788,25.00738],[121.87864,25.01049],[121.88062,25.01176],[121.88059,25.01358],[121.88523,25.01495],[121.88707,25.0141],[121.89113,25.01635],[121.89082,25.01829],[121.88825,25.01922],[121.8882,25.0207],[121.88972,25.021],[121.89204,25.02442],[121.89388,25.0248],[121.89215,25.02859],[121.89421,25.03142],[121.89406,25.033],[121.89683,25.03958],[121.89607,25.04057],[121.89052,25.04194],[121.88996,25.04388],[121.88783,25.04462],[121.88764,25.04555],[121.88936,25.04781],[121.88886,25.05109],[121.89055,25.05333],[121.88796,25.05735],[121.88711,25.06351],[121.883,25.06992],[121.88295,25.07187],[121.87995,25.07243],[121.87764,25.07473],[121.87716,25.07679],[121.87843,25.08296],[121.87603,25.08725],[121.87705,25.09204],[121.87553,25.0946],[121.87866,25.09508],[121.88171,25.09778],[121.88737,25.10033],[121.89572,25.10116],[121.8974,25.10365],[121.89477,25.10867],[121.89763,25.11376],[121.90005,25.11367],[121.90209,25.11592],[121.90635,25.11741],[121.90781,25.1176],[121.90858,25.1167],[121.9131,25.11768],[121.92258,25.12231]]]}},{"type":"Feature","properties":{"code":"65000110","name":"新北市汐止區"},"geometry":{"type":"Polygon","coordinates":[[[121.62727,25.13835],[121.62847,25.1349],[121.63255,25.1324],[121.63314,25.13099],[121.63846,25.13069],[121.64318,25.12768],[121.6449,25.12337],[121.64472,25.12213],[121.64624,25.12105],[121.64569,25.11903],[121.64617,25.1138],[121.65024,25.10955],[121.65222,25.10474],[121.65188,25.1035],[121.65015,25.10332],[121.64893,25.10176],[121.65044,25.10044],[121.65072,25.09845],[121.65586,25.09514],[121.6557,25.09345],[121.66091,25.09089],[121.6618,25.0894],[121.6646,25.08928],[121.66791,25.08576],[121.67403,25.08292],[121.67881,25.0874],[121.68121,25.08802],[121.68164,25.08472],[121.67993,25.08433],[121.68049,25.08188],[121.67897,25.07958],[121.68031,25.0771],[121.6815,25.07704],[121.68842,25.07174],[121.69024,25.0717],[121.69207,25.07031],[121.69654,25.07009],[121.69952,25.06739],[121.70421,25.06794],[121.70661,25.06655],[121.71237,25.06803],[121.71782,25.06382],[121.7191,25.06152],[121.72199,25.06011],[121.72248,25.05858],[121.72621,25.05812],[121.72714,25.05608],[121.72972,25.05394],[121.73009,25.05335],[121.72706,25.04944],[121.72228,25.0482],[121.71598,25.04175],[121.71664,25.03919],[121.71578,25.03625],[121.71326,25.03484],[121.71273,25.03358],[121.7083,25.03409],[121.70319,25.03198],[121.7011,25.03419],[121.69694,25.0351],[121.69553,25.03691],[121.69635,25.03838],[121.69569,25.04076],[121.69233,25.04189],[121.68859,25.04164],[121.68608,25.04019],[121.6842,25.04008],[121.67716,25.03484],[121.67223,25.0344],[121.67061,25.03269],[121.66584,25.03373],[121.66586,25.02994],[121.66504,25.02957],[121.66098,25.03048],[121.65515,25.02744],[121.65184,25.02815],[121.65024,25.02763],[121.64798,25.02864],[121.64659,25.02805],[121.64594,25.02939],[121.63991,25.03201],[121.63791,25.03374],[121.63407,25.0348],[121.63348,25.03574],[121.63021,25.03508],[121.62964,25.03663],[121.62493,25.03772],[121.62114,25.04087],[121.61652,25.04801],[121.61631,25.05055],[121.62087,25.05342],[121.62053,25.05665],[121.62343,25.055],[121.62426,25.05576],[121.62078,25.06136],[121.61613,25.06392],[121.61672,25.0658],[121.61792,25.06516],[121.61763,25.0676],[121.62153,25.06961],[121.6206,25.07316],[121.6216,25.07479],[121.62271,25.07456],[121.62323,25.07711],[121.62494,25.07799],[121.62508,25.07883],[121.62391,25.07824],[121.62426,25.08034],[121.62798,25.08325],[121.62753,25.08458],[121.62861,25.08647],[121.62821,25.08806],[121.62601,25.09047],[121.62632,25.09147],[121.62506,25.09367],[121.62622,25.09609],[121.62537,25.09706],[121.62203,25.09741],[121.61741,25.10112],[121.61541,25.10387],[121.61038,25.10516],[121.6063,25.10729],[121.59838,25.10891],[121.59549,25.11379],[121.5975,25.11621],[121.59887,25.12012],[121.60077,25.12185],[121.60172,25.12603],[121.60346,25.1255],[121.60454,25.126],[121.60754,25.1292],[121.60868,25.13205],[121.61147,25.13339],[121.61628,25.13757],[121.61678,25.13891],[121.61897,25.13834],[121.62596,25.13975],[121.6268,25.1397],[121.62727,25.13835]]]}},{"type":"Feature","properties":{"code":"65000280","name":"新北市萬里區"},"geometry":{"type":"Polygon","coordinates":[[[121.65244,25.21824],[121.65585,25.2133],[121.66081,25.20883],[121.66214,25.20846],[121.66084,25.20818],[121.66192,25.20809],[121.66381,25.20963],[121.66223,25.20774],[121.66284,25.20748],[121.6643,25.20924],[121.66428,25.20704],[121.66489,25.20666],[121.66611,25.20798],[121.66505,25.2066],[121.6696,25.20408],[121.67006,25.20297],[121.67271,25.20212],[121.67333,25.20365],[121.67444,25.20236],[121.67498,25.20276],[121.67531,25.20323],[121.67401,25.20412],[121.67775,25.20595],[121.67849,25.20263],[121.6793,25.20282],[121.68146,25.20429],[121.68139,25.20564],[121.68247,25.20558],[121.686,25.20819],[121.68726,25.20783],[121.68732,25.20508],[121.6889,25.20523],[121.68932,25.20584],[121.68826,25.2065],[121.68938,25.20736],[121.68849,25.20832],[121.68965,25.20755],[121.69038,25.20822],[121.69267,25.20816],[121.69652,25.21466],[121.70131,25.21749],[121.70229,25.21724],[121.70171,25.21651],[121.70253,25.21626],[121.70095,25.21534],[121.70102,25.21422],[121.69277,25.20668],[121.6928,25.2047],[121.69185,25.20471],[121.69322,25.20443],[121.69212,25.20408],[121.69273,25.20331],[121.69395,25.20444],[121.69423,25.20339],[121.696,25.20392],[121.69402,25.20177],[121.6947,25.20042],[121.69334,25.19986],[121.69233,25.19784],[121.6898,25.19658],[121.68951,25.19464],[121.68883,25.19553],[121.68594,25.19239],[121.68647,25.19084],[121.68573,25.19003],[121.6877,25.18562],[121.69267,25.18013],[121.69466,25.18164],[121.69721,25.18144],[121.69669,25.18279],[121.69888,25.18097],[121.70273,25.18058],[121.70462,25.17684],[121.70658,25.17696],[121.70719,25.17604],[121.70928,25.17671],[121.7094,25.17607],[121.70661,25.17396],[121.70225,25.17352],[121.70091,25.16923],[121.69905,25.16886],[121.69895,25.16722],[121.69129,25.16632],[121.69102,25.16465],[121.68883,25.16409],[121.68728,25.16156],[121.68483,25.1601],[121.68318,25.16065],[121.68273,25.15936],[121.68102,25.15917],[121.6784,25.15743],[121.6776,25.15573],[121.67147,25.15556],[121.66963,25.15462],[121.66912,25.15335],[121.66427,25.15222],[121.65828,25.15223],[121.65554,25.14905],[121.65146,25.14796],[121.64962,25.14489],[121.64568,25.14582],[121.6422,25.14493],[121.63982,25.14584],[121.63868,25.14424],[121.63453,25.14389],[121.6309,25.14253],[121.6268,25.1397],[121.61897,25.13834],[121.61678,25.13891],[121.61628,25.13757],[121.61147,25.13339],[121.60887,25.13224],[121.60782,25.13021],[121.60464,25.13076],[121.60457,25.13454],[121.60572,25.1367],[121.60407,25.13618],[121.59839,25.14031],[121.59579,25.14343],[121.5959,25.14511],[121.59392,25.14805],[121.59358,25.1503],[121.58936,25.15245],[121.59184,25.15589],[121.58985,25.16373],[121.59668,25.16561],[121.60306,25.17376],[121.60399,25.17624],[121.60694,25.17747],[121.60721,25.18125],[121.61094,25.18723],[121.61086,25.19104],[121.61186,25.19151],[121.61241,25.19322],[121.61066,25.19517],[121.61199,25.19681],[121.61361,25.19685],[121.61668,25.201],[121.61984,25.20354],[121.62211,25.2034],[121.6239,25.20622],[121.63215,25.21295],[121.6379,25.21576],[121.64212,25.21609],[121.64406,25.21842],[121.64368,25.22003],[121.64597,25.22161],[121.65019,25.22272],[121.65244,25.21824]]]}},{"type":"Feature","properties":{"code":"65000270","name":"新北市金山區"},"geometry":{"type":"Polygon","coordinates":[[[121.63508,25.25666],[121.63589,25.25009],[121.63415,25.23955],[121.6364,25.2364],[121.63724,25.23609],[121.63797,25.23682],[121.6376,25.23554],[121.63827,25.23456],[121.64315,25.23072],[121.64559,25.23028],[121.6464,25.23148],[121.64733,25.23111],[121.64595,25.23012],[121.64869,25.23011],[121.64694,25.23303],[121.64786,25.23224],[121.65216,25.23327],[121.65256,25.23247],[121.65135,25.23051],[121.65378,25.22934],[121.65167,25.22594],[121.65219,25.22519],[121.65119,25.22491],[121.65019,25.22272],[121.64597,25.22161],[121.64373,25.22008],[121.64406,25.21842],[121.64198,25.216],[121.63778,25.21572],[121.63018,25.21174],[121.62384,25.20616],[121.62211,25.2034],[121.61978,25.20351],[121.61668,25.201],[121.6132,25.19648],[121.61199,25.19681],[121.61116,25.19595],[121.61058,25.19455],[121.61241,25.19322],[121.61186,25.19151],[121.61086,25.19104],[121.61094,25.18723],[121.60721,25.18125],[121.60694,25.17747],[121.60399,25.17624],[121.60306,25.17376],[121.59668,25.16561],[121.58814,25.16295],[121.58322,25.16581],[121.5785,25.16578],[121.57702,25.16714],[121.57738,25.17015],[121.58172,25.17379],[121.58351,25.17689],[121.58087,25.18179],[121.58277,25.18442],[121.58186,25.1864],[121.58299,25.18856],[121.584,25.18879],[121.58378,25.19198],[121.5827,25.19309],[121.58376,25.19459],[121.58055,25.19535],[121.57917,25.19412],[121.57578,25.19558],[121.57175,25.19538],[121.57,25.19826],[121.56625,25.1996],[121.56484,25.20101],[121.56497,25.20278],[121.56268,25.20944],[121.55921,25.21014],[121.56244,25.2141],[121.56434,25.21388],[121.56585,25.21488],[121.56779,25.21814],[121.57133,25.22038],[121.57783,25.22082],[121.5811,25.22326],[121.58194,25.22523],[121.58162,25.22839],[121.58382,25.23312],[121.59035,25.23816],[121.59423,25.24245],[121.59808,25.24347],[121.60001,25.24668],[121.60033,25.24901],[121.60393,25.25292],[121.6104,25.25399],[121.61582,25.2534],[121.61862,25.25805],[121.61691,25.26262],[121.61726,25.26511],[121.61602,25.26691],[121.61711,25.26822],[121.6178,25.27321],[121.62077,25.27576],[121.62974,25.26679],[121.63413,25.26003],[121.63508,25.25666]]]}},{"type":"Feature","properties":{"code":"65000220","name":"新北市石門區"},"geometry":{"type":"Polygon","coordinates":[[[121.53753,25.30003],[121.54072,25.29785],[121.54122,25.29459],[121.54748,25.29173],[121.55039,25.29163],[121.55355,25.29303],[121.56041,25.29198],[121.56197,25.29314],[121.56567,25.29326],[121.56543,25.29403],[121.56685,25.29505],[121.56608,25.29595],[121.56674,25.29568],[121.5685,25.29803],[121.57527,25.29914],[121.57773,25.29889],[121.58869,25.29262],[121.59795,25.29148],[121.59733,25.29134],[121.59761,25.28995],[121.60395,25.28649],[121.60793,25.28145],[121.6157,25.27924],[121.62077,25.27576],[121.6178,25.27321],[121.61711,25.26822],[121.61602,25.26691],[121.61726,25.26511],[121.61691,25.26262],[121.61862,25.25805],[121.61802,25.25632],[121.61568,25.25334],[121.6104,25.25399],[121.60393,25.25292],[121.60033,25.24901],[121.60001,25.24668],[121.59808,25.24347],[121.59423,25.24245],[121.59035,25.23816],[121.58382,25.23312],[121.58162,25.22839],[121.58194,25.22523],[121.5811,25.22326],[121.57783,25.22082],[121.57133,25.22038],[121.56779,25.21814],[121.56599,25.21501],[121.56292,25.22019],[121.56266,25.22202],[121.5603,25.22321],[121.5575,25.22666],[121.55564,25.22756],[121.55646,25.23383],[121.55417,25.23953],[121.5508,25.24255],[121.55257,25.24386],[121.55191,25.24515],[121.55045,25.2454],[121.54544,25.24094],[121.54454,25.24144],[121.54588,25.24346],[121.54456,25.24513],[121.54651,25.24654],[121.54772,25.24968],[121.54641,25.25355],[121.54795,25.25485],[121.54796,25.25762],[121.54968,25.25948],[121.55036,25.26158],[121.54818,25.2662],[121.54751,25.26541],[121.54309,25.2681],[121.54177,25.26799],[121.54041,25.26566],[121.53884,25.26621],[121.53353,25.2655],[121.53315,25.26646],[121.53092,25.26394],[121.53171,25.26038],[121.53082,25.26091],[121.52899,25.26024],[121.52822,25.2615],[121.5265,25.26096],[121.52629,25.26223],[121.52409,25.2637],[121.52374,25.26602],[121.5226,25.26622],[121.52143,25.26854],[121.51968,25.26903],[121.51638,25.27296],[121.51513,25.27616],[121.51177,25.27655],[121.50828,25.27825],[121.50864,25.27954],[121.50766,25.28277],[121.50937,25.28344],[121.50832,25.28906],[121.5093,25.29131],[121.51186,25.2918],[121.51341,25.28995],[121.51402,25.28667],[121.51691,25.2849],[121.51981,25.28502],[121.5217,25.28687],[121.52594,25.28601],[121.53452,25.29113],[121.53376,25.29706],[121.53624,25.29976],[121.53753,25.30003]]]}}]}