{"type":"FeatureCollection","source":"https://data.gov.tw/dataset/7441 鄉鎮市區界線(TWD97經緯度)","agency":"內政部國土測繪中心","license":"政府資料開放授權條款第1版","generatedBy":"scripts/build-geo.py","features":[{"type":"Feature","properties":{"code":"66000250","name":"臺中市龍井區"},"geometry":{"type":"Polygon","coordinates":[[[120.5125,24.22969],[120.51407,24.2295],[120.51263,24.22604],[120.52778,24.22023],[120.52927,24.22227],[120.54633,24.21819],[120.54718,24.21661],[120.54909,24.21595],[120.55034,24.21695],[120.55148,24.21679],[120.55299,24.21254],[120.556,24.20879],[120.55385,24.20677],[120.55344,24.20527],[120.55764,24.20515],[120.56032,24.20436],[120.56175,24.20268],[120.56375,24.20282],[120.56506,24.20061],[120.56608,24.19606],[120.56925,24.1949],[120.5721,24.19524],[120.57508,24.19731],[120.57794,24.19694],[120.58455,24.19359],[120.59783,24.18943],[120.59479,24.18573],[120.58861,24.18727],[120.5876,24.18541],[120.5932,24.18304],[120.59281,24.18153],[120.59364,24.18121],[120.58711,24.17789],[120.58366,24.17421],[120.57053,24.17638],[120.571,24.17025],[120.56748,24.1709],[120.56417,24.17271],[120.55985,24.17257],[120.55745,24.17376],[120.55315,24.17091],[120.54342,24.17175],[120.54171,24.17069],[120.5386,24.17163],[120.53817,24.17271],[120.53349,24.17311],[120.5337,24.17482],[120.52612,24.17603],[120.52583,24.17667],[120.51261,24.17696],[120.50811,24.18716],[120.50439,24.19114],[120.45656,24.20718],[120.46033,24.21164],[120.46491,24.21428],[120.46079,24.2156],[120.46121,24.21669],[120.46882,24.21446],[120.47234,24.22233],[120.47633,24.22433],[120.48713,24.24767],[120.50288,24.23376],[120.50814,24.23027],[120.5125,24.22969]]]}},{"type":"Feature","properties":{"code":"66000180","name":"臺中市大雅區"},"geometry":{"type":"Polygon","coordinates":[[[120.63316,24.25927],[120.63557,24.25877],[120.63797,24.25206],[120.64198,24.2483],[120.63923,24.2443],[120.64405,24.24315],[120.65305,24.25131],[120.66205,24.24738],[120.66896,24.24485],[120.66943,24.24562],[120.67518,24.24309],[120.67456,24.24188],[120.6761,24.24016],[120.67474,24.23915],[120.67435,24.2375],[120.67474,24.23308],[120.67628,24.23359],[120.67856,24.23762],[120.681,24.23832],[120.6824,24.23973],[120.68046,24.23589],[120.68086,24.23365],[120.68272,24.23391],[120.68031,24.23015],[120.67786,24.22975],[120.67774,24.22576],[120.67666,24.22391],[120.67411,24.22264],[120.67307,24.21846],[120.67866,24.21754],[120.67739,24.21278],[120.6742,24.20858],[120.67115,24.20876],[120.66983,24.20368],[120.66771,24.20233],[120.66447,24.20157],[120.66481,24.20715],[120.65926,24.20724],[120.65768,24.20851],[120.65552,24.20802],[120.65404,24.20942],[120.6516,24.20981],[120.64738,24.20633],[120.646,24.20423],[120.64513,24.2039],[120.64243,24.20501],[120.64153,24.20321],[120.63904,24.20437],[120.639,24.20346],[120.63763,24.20354],[120.63663,24.20183],[120.63568,24.20229],[120.63558,24.20389],[120.62108,24.20881],[120.60289,24.2125],[120.60074,24.21337],[120.60058,24.2148],[120.59633,24.21416],[120.59956,24.2214],[120.59996,24.22472],[120.60229,24.22835],[120.60345,24.23417],[120.6057,24.23919],[120.61022,24.23774],[120.61054,24.23819],[120.6171,24.23559],[120.62338,24.23955],[120.62253,24.24164],[120.62426,24.24458],[120.62352,24.2459],[120.62426,24.25124],[120.62623,24.25406],[120.63316,24.25927]]]}},{"type":"Feature","properties":{"code":"66000130","name":"臺中市沙鹿區"},"geometry":{"type":"Polygon","coordinates":[[[120.59373,24.26643],[120.59749,24.26623],[120.59991,24.26711],[120.60336,24.26544],[120.6031,24.26741],[120.6094,24.26595],[120.61502,24.26213],[120.6203,24.26006],[120.63316,24.25926],[120.62623,24.25406],[120.62426,24.25124],[120.62352,24.2459],[120.62426,24.24458],[120.62253,24.24164],[120.62338,24.23955],[120.6171,24.23559],[120.61054,24.23819],[120.61022,24.23774],[120.60566,24.23914],[120.60345,24.23417],[120.60229,24.22835],[120.59996,24.22472],[120.59956,24.2214],[120.59569,24.21269],[120.59459,24.20534],[120.58773,24.19264],[120.57805,24.19691],[120.57522,24.19732],[120.5721,24.19524],[120.56907,24.19491],[120.56592,24.19617],[120.56506,24.20061],[120.56368,24.20287],[120.56175,24.20268],[120.56032,24.20436],[120.55764,24.20515],[120.55344,24.20527],[120.55385,24.20677],[120.556,24.20879],[120.55299,24.21254],[120.55154,24.21675],[120.55034,24.21695],[120.54936,24.21593],[120.54782,24.21627],[120.54659,24.21828],[120.54899,24.22504],[120.54897,24.22701],[120.54814,24.22728],[120.54871,24.22852],[120.54778,24.22895],[120.55926,24.24389],[120.55517,24.24482],[120.55721,24.25352],[120.56132,24.25253],[120.56275,24.25788],[120.56902,24.25915],[120.57234,24.25893],[120.57343,24.26263],[120.57506,24.26333],[120.57628,24.26178],[120.58186,24.26537],[120.58303,24.26901],[120.58722,24.26703],[120.59373,24.26643]]]}},{"type":"Feature","properties":{"code":"66000140","name":"臺中市梧棲區"},"geometry":{"type":"Polygon","coordinates":[[[120.51735,24.28393],[120.52214,24.27925],[120.53422,24.27153],[120.5328,24.26818],[120.54094,24.26523],[120.53988,24.26273],[120.55958,24.25797],[120.56275,24.25788],[120.56132,24.25253],[120.55721,24.25352],[120.55517,24.24482],[120.55926,24.24389],[120.54778,24.22895],[120.54871,24.22852],[120.54814,24.22728],[120.54897,24.22701],[120.54899,24.22504],[120.54674,24.21787],[120.52927,24.22227],[120.52778,24.22023],[120.51263,24.22604],[120.51407,24.2295],[120.50814,24.23027],[120.50514,24.2322],[120.49612,24.2391],[120.48713,24.24767],[120.49049,24.25528],[120.48621,24.25732],[120.48901,24.25638],[120.49311,24.26614],[120.4982,24.26393],[120.49986,24.26741],[120.49904,24.26786],[120.50006,24.26764],[120.50826,24.2839],[120.50953,24.28801],[120.51735,24.28393]]]}},{"type":"Feature","properties":{"code":"66000090","name":"臺中市豐原區"},"geometry":{"type":"Polygon","coordinates":[[[120.73103,24.28212],[120.75576,24.27954],[120.76042,24.28067],[120.7628,24.27366],[120.76422,24.2733],[120.76281,24.27077],[120.76435,24.26888],[120.76408,24.26776],[120.76723,24.26689],[120.76765,24.2655],[120.76982,24.26443],[120.76776,24.25717],[120.76905,24.25715],[120.76918,24.25493],[120.76707,24.25372],[120.76714,24.25223],[120.76867,24.25148],[120.76933,24.25],[120.77116,24.24991],[120.77338,24.2483],[120.77476,24.24405],[120.77479,24.24315],[120.76782,24.24198],[120.76774,24.23899],[120.76634,24.2374],[120.76867,24.23468],[120.77105,24.23437],[120.77233,24.23277],[120.77182,24.23196],[120.77271,24.23081],[120.77083,24.22447],[120.77226,24.22227],[120.77171,24.22114],[120.76929,24.21986],[120.77209,24.21708],[120.76827,24.21693],[120.7665,24.2176],[120.76489,24.21675],[120.7609,24.21872],[120.75931,24.21776],[120.75493,24.21849],[120.75207,24.22143],[120.74682,24.22265],[120.74411,24.22221],[120.74218,24.22473],[120.7388,24.22498],[120.73769,24.22477],[120.73263,24.21937],[120.72722,24.21927],[120.72513,24.22144],[120.72193,24.22194],[120.72244,24.22396],[120.72081,24.22579],[120.72081,24.22847],[120.71987,24.22967],[120.71562,24.23034],[120.71412,24.22961],[120.714,24.2307],[120.71509,24.23153],[120.71459,24.23204],[120.7135,24.23101],[120.71185,24.23095],[120.71234,24.23313],[120.71163,24.23337],[120.71249,24.23555],[120.71155,24.23538],[120.71182,24.23681],[120.71146,24.23615],[120.70689,24.23599],[120.70362,24.22864],[120.70155,24.227],[120.70134,24.22423],[120.69823,24.22402],[120.69826,24.22562],[120.69697,24.22572],[120.69707,24.22765],[120.69615,24.22782],[120.69646,24.23001],[120.69708,24.2316],[120.69842,24.23228],[120.6991,24.23502],[120.69824,24.23562],[120.69875,24.23817],[120.69812,24.23909],[120.69564,24.23958],[120.69905,24.24663],[120.69924,24.24964],[120.70492,24.25607],[120.71144,24.25582],[120.71398,24.25673],[120.71324,24.25923],[120.71194,24.2596],[120.71086,24.26414],[120.70755,24.2674],[120.70797,24.27018],[120.70949,24.27083],[120.70954,24.27274],[120.7117,24.27434],[120.71261,24.27397],[120.71271,24.28364],[120.73103,24.28212]]]}},{"type":"Feature","properties":{"code":"66000100","name":"臺中市東勢區"},"geometry":{"type":"Polygon","coordinates":[[[120.76542,24.32551],[120.76709,24.32556],[120.77462,24.32111],[120.78383,24.31835],[120.78784,24.31836],[120.796,24.31638],[120.80653,24.31568],[120.81757,24.30742],[120.81988,24.30333],[120.82531,24.29678],[120.83338,24.29057],[120.83652,24.28957],[120.8499,24.28851],[120.85652,24.28899],[120.86684,24.29307],[120.87612,24.295],[120.89158,24.29408],[120.90251,24.29219],[120.90588,24.29261],[120.90519,24.29143],[120.89909,24.28867],[120.89883,24.2856],[120.89798,24.28463],[120.8967,24.28403],[120.89562,24.28449],[120.89104,24.28016],[120.88819,24.27912],[120.88843,24.27686],[120.88505,24.27615],[120.88455,24.27397],[120.88113,24.27128],[120.87844,24.26625],[120.87845,24.26408],[120.8805,24.26126],[120.87946,24.26025],[120.88003,24.25953],[120.88114,24.25969],[120.88091,24.25881],[120.87868,24.25761],[120.88013,24.25334],[120.87908,24.25213],[120.8788,24.24911],[120.88199,24.24764],[120.8812,24.2442],[120.87938,24.24346],[120.88024,24.24061],[120.88012,24.23901],[120.87935,24.23849],[120.88021,24.23815],[120.88105,24.23529],[120.88317,24.234],[120.88427,24.23218],[120.88803,24.22992],[120.88715,24.22546],[120.89012,24.22396],[120.89501,24.22377],[120.89849,24.22159],[120.89691,24.22139],[120.89777,24.21696],[120.89531,24.21214],[120.89743,24.2107],[120.89796,24.20697],[120.8972,24.20591],[120.89484,24.20653],[120.8943,24.20546],[120.89243,24.20467],[120.89206,24.20325],[120.88644,24.20442],[120.88524,24.2031],[120.88233,24.20302],[120.88074,24.20176],[120.88162,24.19718],[120.87543,24.18476],[120.87075,24.18043],[120.86915,24.18074],[120.86738,24.17967],[120.86704,24.17744],[120.86538,24.17566],[120.86784,24.17102],[120.86855,24.1643],[120.86202,24.16175],[120.85868,24.15877],[120.84987,24.15962],[120.84366,24.16271],[120.8373,24.17084],[120.83526,24.17523],[120.83551,24.17851],[120.83238,24.18424],[120.83115,24.18977],[120.83208,24.19926],[120.83093,24.20407],[120.83022,24.21324],[120.82427,24.23692],[120.82414,24.24502],[120.82257,24.24839],[120.82198,24.25331],[120.81875,24.26309],[120.81418,24.26926],[120.81065,24.27856],[120.80918,24.27978],[120.80567,24.28058],[120.79455,24.28116],[120.7858,24.28361],[120.77578,24.28423],[120.77419,24.28409],[120.76953,24.28134],[120.76258,24.2811],[120.75638,24.27957],[120.74825,24.28065],[120.74813,24.28615],[120.74893,24.28733],[120.75237,24.28726],[120.75501,24.28913],[120.75698,24.28912],[120.75814,24.29071],[120.75958,24.29004],[120.7634,24.29067],[120.76606,24.29297],[120.7675,24.29848],[120.76451,24.29986],[120.76283,24.30441],[120.76467,24.3064],[120.76479,24.3106],[120.76344,24.31273],[120.7635,24.31432],[120.75857,24.31872],[120.75928,24.32098],[120.75875,24.32194],[120.76001,24.32372],[120.76449,24.32573],[120.76542,24.32551]]]}},{"type":"Feature","properties":{"code":"66000150","name":"臺中市后里區"},"geometry":{"type":"Polygon","coordinates":[[[120.72816,24.35289],[120.73061,24.35167],[120.74626,24.33802],[120.75224,24.33417],[120.75814,24.32885],[120.76449,24.32573],[120.75954,24.32325],[120.75857,24.31872],[120.76102,24.31719],[120.76358,24.31415],[120.76344,24.31273],[120.76487,24.30985],[120.76467,24.3064],[120.76291,24.30461],[120.763,24.30315],[120.76451,24.29986],[120.7675,24.29848],[120.76606,24.29297],[120.76377,24.2908],[120.75976,24.29004],[120.75814,24.29071],[120.75698,24.28912],[120.75501,24.28913],[120.75237,24.28726],[120.74893,24.28733],[120.74813,24.28615],[120.74825,24.28065],[120.72181,24.28253],[120.70818,24.28431],[120.68315,24.28469],[120.65815,24.29178],[120.64635,24.29914],[120.64844,24.30553],[120.65096,24.30716],[120.65001,24.30888],[120.65093,24.31494],[120.65864,24.31495],[120.67292,24.31677],[120.68895,24.32179],[120.69484,24.32568],[120.70063,24.32706],[120.70118,24.33258],[120.70926,24.33226],[120.71475,24.33099],[120.71464,24.33398],[120.71593,24.33569],[120.71434,24.33766],[120.71497,24.33738],[120.71551,24.33986],[120.71842,24.3399],[120.71942,24.34123],[120.71697,24.34236],[120.71844,24.3451],[120.71832,24.3474],[120.7171,24.3489],[120.71827,24.35583],[120.72816,24.35289]]]}},{"type":"Feature","properties":{"code":"66000160","name":"臺中市神岡區"},"geometry":{"type":"Polygon","coordinates":[[[120.68132,24.28526],[120.71271,24.28364],[120.71261,24.27397],[120.7117,24.27434],[120.70954,24.27274],[120.70949,24.27083],[120.70797,24.27018],[120.70755,24.2674],[120.71086,24.26414],[120.71194,24.2596],[120.71324,24.25923],[120.71398,24.25673],[120.71144,24.25582],[120.70492,24.25607],[120.69924,24.24964],[120.69905,24.24663],[120.69564,24.23958],[120.69808,24.23913],[120.69875,24.23817],[120.69824,24.23562],[120.6991,24.23502],[120.69831,24.23216],[120.693,24.23114],[120.69271,24.22945],[120.68996,24.2291],[120.68973,24.23023],[120.69164,24.23514],[120.68926,24.23576],[120.68553,24.23406],[120.68526,24.23181],[120.68137,24.2321],[120.68274,24.23401],[120.68086,24.23365],[120.68047,24.23603],[120.6824,24.23973],[120.681,24.23832],[120.67856,24.23762],[120.67628,24.23359],[120.67474,24.23308],[120.67435,24.2375],[120.67474,24.23915],[120.6761,24.24016],[120.67456,24.24188],[120.67518,24.24309],[120.66943,24.24562],[120.66896,24.24485],[120.66205,24.24738],[120.65305,24.25131],[120.64405,24.24315],[120.63923,24.2443],[120.64198,24.2483],[120.63797,24.25206],[120.63557,24.25877],[120.63316,24.25927],[120.6306,24.26177],[120.6383,24.26258],[120.64059,24.26383],[120.643,24.27134],[120.64697,24.27665],[120.63827,24.27898],[120.63945,24.28095],[120.63619,24.28437],[120.63717,24.28567],[120.63657,24.28651],[120.63714,24.2879],[120.64241,24.29793],[120.6462,24.29929],[120.65815,24.29178],[120.68132,24.28526]]]}},{"type":"Feature","properties":{"code":"66000190","name":"臺中市新社區"},"geometry":{"type":"Polygon","coordinates":[[[120.79195,24.26994],[120.79329,24.27013],[120.79989,24.26646],[120.80327,24.263],[120.80572,24.26166],[120.80629,24.26212],[120.80683,24.25907],[120.80846,24.2578],[120.81184,24.25239],[120.81389,24.25179],[120.81902,24.2428],[120.8192,24.24126],[120.8222,24.24268],[120.82415,24.24231],[120.82387,24.23982],[120.82548,24.23048],[120.83022,24.21324],[120.83093,24.20407],[120.83208,24.19926],[120.83115,24.18977],[120.8322,24.18484],[120.8351,24.1797],[120.83531,24.17502],[120.8373,24.17084],[120.84279,24.16355],[120.84561,24.1612],[120.84895,24.15988],[120.85829,24.15869],[120.86202,24.16175],[120.86763,24.16413],[120.88144,24.16687],[120.89449,24.16617],[120.89407,24.16072],[120.8949,24.15895],[120.89502,24.15527],[120.88847,24.15752],[120.8833,24.15723],[120.88424,24.15454],[120.88334,24.15116],[120.88372,24.1497],[120.88295,24.14863],[120.88431,24.14582],[120.88474,24.13898],[120.88743,24.13923],[120.8899,24.1408],[120.89399,24.14053],[120.89618,24.13896],[120.89381,24.13108],[120.89468,24.12938],[120.89391,24.12584],[120.89565,24.12],[120.89527,24.11881],[120.89806,24.11827],[120.89616,24.11645],[120.89236,24.11619],[120.89055,24.11517],[120.89069,24.11268],[120.89422,24.11054],[120.89368,24.10866],[120.8942,24.10655],[120.89109,24.10203],[120.89133,24.0978],[120.88954,24.09642],[120.88587,24.09541],[120.88201,24.08832],[120.88032,24.08858],[120.87866,24.08521],[120.87802,24.08503],[120.87686,24.09119],[120.87811,24.09324],[120.87909,24.09825],[120.88149,24.10051],[120.88044,24.10321],[120.8809,24.10391],[120.87931,24.10594],[120.87914,24.1093],[120.87752,24.10987],[120.87413,24.11353],[120.87395,24.11516],[120.87245,24.11684],[120.86887,24.1176],[120.86443,24.11537],[120.8586,24.11621],[120.85721,24.1173],[120.85618,24.12153],[120.85318,24.12461],[120.84839,24.1238],[120.84485,24.12453],[120.84258,24.12256],[120.84211,24.12067],[120.83725,24.11798],[120.83567,24.12045],[120.83239,24.12297],[120.83147,24.12702],[120.83282,24.12789],[120.83462,24.13185],[120.83321,24.13499],[120.83431,24.13754],[120.83367,24.14115],[120.82928,24.14418],[120.8284,24.14302],[120.82352,24.14203],[120.82181,24.14618],[120.81972,24.14723],[120.81488,24.14447],[120.81359,24.14451],[120.81188,24.14519],[120.81035,24.14893],[120.80251,24.15082],[120.80376,24.15225],[120.80418,24.15498],[120.80537,24.1557],[120.80647,24.16083],[120.80462,24.16342],[120.80447,24.16543],[120.80207,24.16758],[120.80263,24.16946],[120.80175,24.17141],[120.80213,24.17241],[120.80156,24.17325],[120.80056,24.17277],[120.79972,24.17472],[120.80012,24.17923],[120.79885,24.17979],[120.79732,24.18246],[120.80013,24.1883],[120.79946,24.19182],[120.80116,24.19647],[120.7995,24.19824],[120.79968,24.20009],[120.79408,24.20532],[120.78858,24.20675],[120.78245,24.21065],[120.77133,24.21333],[120.7707,24.21528],[120.76827,24.21693],[120.77222,24.21736],[120.76929,24.21986],[120.77171,24.22114],[120.77226,24.22227],[120.77083,24.22447],[120.77271,24.23081],[120.77114,24.23432],[120.76867,24.23468],[120.76634,24.23737],[120.76774,24.23899],[120.76777,24.24194],[120.77463,24.24317],[120.77785,24.24179],[120.77786,24.24368],[120.77988,24.24537],[120.78035,24.25072],[120.78246,24.25033],[120.78153,24.24774],[120.78425,24.24544],[120.78411,24.24778],[120.78619,24.24955],[120.78617,24.25487],[120.7893,24.253],[120.79231,24.24996],[120.79313,24.24798],[120.80171,24.24582],[120.8017,24.24809],[120.80318,24.24964],[120.80184,24.25216],[120.80307,24.2535],[120.80171,24.25379],[120.80177,24.25545],[120.79976,24.25775],[120.80011,24.25965],[120.79791,24.2585],[120.79704,24.26057],[120.79532,24.26171],[120.79323,24.26736],[120.79042,24.26936],[120.79089,24.27036],[120.79195,24.26994]]]}},{"type":"Feature","properties":{"code":"66000200","name":"臺中市石岡區"},"geometry":{"type":"Polygon","coordinates":[[[120.77509,24.28425],[120.7858,24.28361],[120.79455,24.28116],[120.80567,24.28058],[120.80976,24.27934],[120.81245,24.27461],[120.81418,24.26926],[120.81875,24.26309],[120.82198,24.25331],[120.82257,24.24839],[120.82414,24.24502],[120.82415,24.24231],[120.8222,24.24268],[120.8192,24.24126],[120.81902,24.2428],[120.81389,24.25179],[120.81184,24.25239],[120.80846,24.2578],[120.80683,24.25907],[120.80629,24.26212],[120.80572,24.26166],[120.80327,24.263],[120.79989,24.26646],[120.79329,24.27013],[120.79104,24.27041],[120.79042,24.26936],[120.79323,24.26736],[120.79532,24.26171],[120.79704,24.26057],[120.79791,24.2585],[120.80011,24.25965],[120.79976,24.25775],[120.80177,24.25545],[120.80171,24.25379],[120.80307,24.2535],[120.80184,24.25216],[120.80318,24.24964],[120.8017,24.24809],[120.80171,24.24582],[120.79313,24.24798],[120.79231,24.24996],[120.7893,24.253],[120.78617,24.25487],[120.78619,24.24955],[120.78411,24.24778],[120.78429,24.24548],[120.78153,24.24774],[120.78246,24.25033],[120.78035,24.25072],[120.77988,24.24537],[120.77786,24.24368],[120.77789,24.24183],[120.77507,24.24289],[120.77338,24.2483],[120.77116,24.24991],[120.76933,24.25],[120.76867,24.25148],[120.76714,24.25223],[120.76707,24.25372],[120.76918,24.25493],[120.76905,24.25715],[120.76776,24.25717],[120.76982,24.26443],[120.76765,24.2655],[120.76723,24.26689],[120.76408,24.26776],[120.76435,24.26888],[120.76281,24.27077],[120.76422,24.2733],[120.7628,24.27366],[120.76042,24.28067],[120.76953,24.28134],[120.77509,24.28425]]]}},{"type":"Feature","properties":{"code":"66000210","name":"臺中市外埔區"},"geometry":{"type":"Polygon","coordinates":[[[120.65757,24.36215],[120.68334,24.35834],[120.68437,24.36226],[120.71827,24.35583],[120.7171,24.3489],[120.71832,24.3474],[120.71844,24.3451],[120.71697,24.34236],[120.71942,24.34123],[120.71842,24.3399],[120.71551,24.33986],[120.71497,24.33738],[120.71434,24.33766],[120.71593,24.33569],[120.71464,24.33398],[120.71475,24.33099],[120.70926,24.33226],[120.70118,24.33258],[120.70063,24.32706],[120.69484,24.32568],[120.68895,24.32179],[120.67292,24.31677],[120.65864,24.31495],[120.65093,24.31494],[120.65001,24.30888],[120.65096,24.30716],[120.64844,24.30553],[120.64635,24.29914],[120.64419,24.30148],[120.62366,24.31458],[120.6209,24.31537],[120.60901,24.31578],[120.61136,24.32291],[120.61182,24.32727],[120.61442,24.33208],[120.62013,24.33573],[120.62345,24.33685],[120.62783,24.33673],[120.62834,24.33768],[120.63169,24.33731],[120.63511,24.3461],[120.64024,24.34559],[120.64571,24.35068],[120.64633,24.35166],[120.64527,24.35184],[120.64535,24.35286],[120.64661,24.35505],[120.64951,24.35605],[120.65565,24.36249],[120.65757,24.36215]]]}},{"type":"Feature","properties":{"code":"66000240","name":"臺中市大肚區"},"geometry":{"type":"Polygon","coordinates":[[[120.53341,24.17483],[120.53349,24.17311],[120.53817,24.17271],[120.5386,24.17163],[120.54171,24.17069],[120.54342,24.17175],[120.55315,24.17091],[120.55745,24.17376],[120.55985,24.17257],[120.56417,24.17271],[120.56748,24.1709],[120.57093,24.17025],[120.57053,24.17638],[120.58366,24.17421],[120.58309,24.17273],[120.58483,24.16949],[120.58135,24.16512],[120.57901,24.16058],[120.5777,24.15586],[120.57442,24.15547],[120.57468,24.14746],[120.57953,24.14396],[120.58151,24.14352],[120.58615,24.13805],[120.58658,24.13693],[120.58577,24.13369],[120.58758,24.13202],[120.58849,24.12949],[120.58333,24.12325],[120.58295,24.1209],[120.58681,24.1177],[120.58448,24.11308],[120.58209,24.11189],[120.58181,24.10954],[120.57663,24.10958],[120.57275,24.10829],[120.5656,24.10982],[120.55803,24.11254],[120.54969,24.11388],[120.54523,24.11662],[120.54092,24.12366],[120.53351,24.12581],[120.53131,24.12812],[120.52345,24.1399],[120.52329,24.14095],[120.5254,24.14481],[120.52581,24.14902],[120.51753,24.16532],[120.51261,24.17696],[120.52583,24.17667],[120.52612,24.17603],[120.53341,24.17483]]]}},{"type":"Feature","properties":{"code":"66000110","name":"臺中市大甲區"},"geometry":{"type":"Polygon","coordinates":[[[120.62821,24.43807],[120.6321,24.43242],[120.63966,24.42777],[120.64029,24.42412],[120.6432,24.42171],[120.64334,24.41534],[120.64526,24.41457],[120.64597,24.41229],[120.6483,24.41116],[120.64829,24.40992],[120.658,24.40672],[120.66363,24.40231],[120.66741,24.39783],[120.66748,24.39619],[120.67011,24.39196],[120.67315,24.39099],[120.67593,24.38837],[120.67865,24.38707],[120.6774,24.38403],[120.68575,24.3789],[120.68854,24.37497],[120.68995,24.37434],[120.69233,24.36754],[120.7032,24.36188],[120.70743,24.36173],[120.7073,24.35787],[120.70221,24.35936],[120.68437,24.36226],[120.68334,24.35834],[120.65577,24.36255],[120.64951,24.35605],[120.64661,24.35505],[120.64525,24.3519],[120.6463,24.35157],[120.64146,24.34653],[120.64007,24.3455],[120.63639,24.34646],[120.63507,24.34606],[120.63193,24.33748],[120.62345,24.33685],[120.62013,24.33573],[120.61438,24.33204],[120.61182,24.32727],[120.61136,24.32291],[120.60901,24.31578],[120.59521,24.31521],[120.58919,24.31988],[120.58658,24.32343],[120.58856,24.32484],[120.59165,24.32923],[120.59401,24.33072],[120.59587,24.33418],[120.59497,24.33558],[120.59667,24.33538],[120.59711,24.33678],[120.5956,24.33784],[120.59366,24.34146],[120.59672,24.34345],[120.59937,24.34412],[120.60154,24.33941],[120.60281,24.34283],[120.602,24.34577],[120.60408,24.3472],[120.61057,24.3481],[120.60661,24.35099],[120.6061,24.3524],[120.60672,24.35231],[120.60666,24.35299],[120.60435,24.35527],[120.60388,24.35714],[120.60507,24.35648],[120.60572,24.35709],[120.60541,24.35893],[120.60796,24.35823],[120.60819,24.35961],[120.60551,24.36081],[120.60828,24.36137],[120.60919,24.3626],[120.61063,24.36238],[120.61072,24.36518],[120.61192,24.36565],[120.61338,24.37168],[120.61235,24.37158],[120.61205,24.37227],[120.61342,24.37206],[120.61426,24.37484],[120.62073,24.37611],[120.62157,24.37911],[120.63551,24.37608],[120.63822,24.37726],[120.63306,24.38599],[120.62106,24.3925],[120.61407,24.39526],[120.60917,24.39939],[120.59716,24.40636],[120.59885,24.40785],[120.60177,24.41452],[120.60757,24.41953],[120.6102,24.4233],[120.61027,24.42586],[120.61466,24.42874],[120.61586,24.43307],[120.61929,24.43489],[120.62186,24.44029],[120.62821,24.43807]]]}},{"type":"Feature","properties":{"code":"66000220","name":"臺中市大安區"},"geometry":{"type":"Polygon","coordinates":[[[120.63702,24.37935],[120.63822,24.37726],[120.63559,24.37608],[120.62157,24.37911],[120.62073,24.37611],[120.61425,24.37483],[120.61342,24.37206],[120.61203,24.37224],[120.61338,24.37168],[120.61192,24.36565],[120.61072,24.36518],[120.61063,24.36238],[120.60919,24.3626],[120.60828,24.36137],[120.60551,24.36081],[120.60819,24.35961],[120.60796,24.35823],[120.60541,24.35893],[120.60572,24.35709],[120.60507,24.35648],[120.60388,24.35714],[120.60435,24.35527],[120.60666,24.35299],[120.60672,24.35231],[120.6061,24.3524],[120.60661,24.35099],[120.61057,24.3481],[120.60408,24.3472],[120.602,24.34577],[120.60281,24.34283],[120.60154,24.33941],[120.59937,24.34412],[120.59672,24.34345],[120.59366,24.34146],[120.5956,24.33784],[120.59711,24.33678],[120.59667,24.33538],[120.59497,24.33558],[120.59587,24.33418],[120.59401,24.33072],[120.59165,24.32923],[120.58856,24.32484],[120.58658,24.32343],[120.58415,24.32535],[120.58346,24.32857],[120.57989,24.33199],[120.56535,24.33246],[120.53971,24.33488],[120.54276,24.33548],[120.54579,24.33487],[120.55585,24.34774],[120.55921,24.3498],[120.55928,24.35412],[120.56223,24.35887],[120.56122,24.35885],[120.5614,24.35954],[120.56625,24.36532],[120.56504,24.36324],[120.56901,24.36667],[120.56678,24.36593],[120.56781,24.36768],[120.56853,24.36723],[120.57021,24.36917],[120.57115,24.37424],[120.57307,24.37724],[120.58363,24.38984],[120.58671,24.39232],[120.58988,24.3993],[120.59716,24.40636],[120.60917,24.39939],[120.61407,24.39526],[120.62106,24.3925],[120.63306,24.38599],[120.63702,24.37935]]]}},{"type":"Feature","properties":{"code":"66000120","name":"臺中市清水區"},"geometry":{"type":"Polygon","coordinates":[[[120.56535,24.33246],[120.58006,24.33193],[120.58346,24.32857],[120.58415,24.32535],[120.58776,24.32221],[120.58919,24.31988],[120.59487,24.31531],[120.60187,24.31505],[120.60751,24.31598],[120.62284,24.31494],[120.64419,24.30148],[120.6462,24.29929],[120.64198,24.29745],[120.63714,24.2879],[120.63657,24.28651],[120.63717,24.28567],[120.63619,24.28437],[120.63945,24.28095],[120.63827,24.27898],[120.64697,24.27665],[120.643,24.27134],[120.64059,24.26383],[120.63731,24.26238],[120.63079,24.26197],[120.63316,24.25927],[120.62292,24.25974],[120.61742,24.26104],[120.60971,24.26579],[120.60675,24.2666],[120.6031,24.26741],[120.60336,24.26544],[120.59991,24.26711],[120.59749,24.26623],[120.59024,24.2666],[120.58722,24.26703],[120.58303,24.26901],[120.58186,24.26537],[120.57628,24.26178],[120.57506,24.26333],[120.57343,24.26263],[120.57234,24.25893],[120.56902,24.25915],[120.56515,24.25806],[120.56026,24.25783],[120.53988,24.26273],[120.54094,24.26523],[120.5328,24.26818],[120.53422,24.27153],[120.52214,24.27925],[120.51616,24.28481],[120.50953,24.28801],[120.51084,24.29222],[120.50809,24.29341],[120.51113,24.29273],[120.51405,24.29481],[120.51681,24.29846],[120.51895,24.30643],[120.52168,24.31186],[120.51949,24.31296],[120.52176,24.31213],[120.52375,24.31578],[120.52602,24.31772],[120.53232,24.32051],[120.53309,24.32315],[120.53913,24.33209],[120.53971,24.33488],[120.56535,24.33246]]]}},{"type":"Feature","properties":{"code":"66000260","name":"臺中市霧峰區"},"geometry":{"type":"Polygon","coordinates":[[[120.65747,24.0864],[120.65594,24.08605],[120.65589,24.08494],[120.6605,24.08163],[120.66367,24.0823],[120.66681,24.08092],[120.67187,24.08113],[120.67654,24.07779],[120.68039,24.07184],[120.68411,24.07024],[120.69021,24.0718],[120.69282,24.07357],[120.69567,24.07724],[120.70744,24.08183],[120.72098,24.08053],[120.72678,24.07849],[120.72862,24.08045],[120.72875,24.08165],[120.72968,24.0818],[120.73647,24.08018],[120.7389,24.07869],[120.7431,24.07844],[120.7448,24.07908],[120.74632,24.07735],[120.74997,24.07701],[120.75402,24.07489],[120.75628,24.07515],[120.75992,24.07199],[120.76179,24.0714],[120.7639,24.0692],[120.76414,24.06778],[120.76754,24.06455],[120.77138,24.06406],[120.77257,24.06288],[120.77883,24.06048],[120.78175,24.05804],[120.78207,24.05657],[120.78458,24.05552],[120.78482,24.05304],[120.78814,24.05267],[120.78914,24.0517],[120.78881,24.049],[120.78987,24.04744],[120.79274,24.04584],[120.79219,24.04343],[120.79356,24.04316],[120.79656,24.04031],[120.79169,24.03526],[120.79152,24.03354],[120.79292,24.03248],[120.79174,24.03178],[120.79154,24.03067],[120.78947,24.03123],[120.78606,24.02925],[120.78547,24.02863],[120.78588,24.02794],[120.78471,24.02751],[120.78465,24.02408],[120.78303,24.02471],[120.78292,24.02367],[120.77986,24.02125],[120.7797,24.02019],[120.7755,24.01879],[120.77136,24.01434],[120.77064,24.00913],[120.7675,24.00905],[120.76267,24.00626],[120.75797,24.00609],[120.7559,24.00353],[120.75325,24.00234],[120.75104,24.00283],[120.74773,23.99925],[120.74604,23.99856],[120.74365,24.00217],[120.73173,24.009],[120.71924,24.00966],[120.70638,24.00519],[120.69488,24.00712],[120.67865,24.01403],[120.66843,24.02073],[120.66391,24.02467],[120.66114,24.02574],[120.65814,24.02824],[120.65247,24.03404],[120.64997,24.03783],[120.64961,24.03983],[120.65139,24.04176],[120.65304,24.03976],[120.65503,24.04058],[120.65871,24.03957],[120.65768,24.04172],[120.65873,24.04192],[120.65836,24.04592],[120.6595,24.04676],[120.66209,24.04546],[120.66077,24.0469],[120.65995,24.05226],[120.661,24.05388],[120.66047,24.05656],[120.6626,24.05782],[120.662,24.05918],[120.65943,24.06063],[120.66021,24.06108],[120.65985,24.06278],[120.65647,24.06378],[120.65297,24.06664],[120.65269,24.07006],[120.65045,24.07364],[120.6505,24.07899],[120.6526,24.08127],[120.6494,24.08639],[120.64822,24.08689],[120.64778,24.08897],[120.64825,24.09236],[120.65305,24.08829],[120.65788,24.08706],[120.65747,24.0864]]]}},{"type":"Feature","properties":{"code":"66000280","name":"臺中市大里區"},"geometry":{"type":"Polygon","coordinates":[[[120.70416,24.12487],[120.70201,24.12088],[120.7007,24.11294],[120.70116,24.11163],[120.70218,24.11116],[120.70734,24.11195],[120.71107,24.11058],[120.71329,24.11068],[120.71395,24.10989],[120.70945,24.10605],[120.70925,24.10501],[120.7245,24.09785],[120.72844,24.09469],[120.73034,24.09415],[120.73299,24.09537],[120.73617,24.09453],[120.73847,24.0959],[120.74028,24.09467],[120.74145,24.09189],[120.74128,24.08653],[120.73944,24.08585],[120.73726,24.08323],[120.73664,24.08369],[120.737,24.08485],[120.73582,24.08586],[120.73292,24.08171],[120.72875,24.08165],[120.72692,24.07848],[120.72098,24.08053],[120.71189,24.08097],[120.70813,24.0819],[120.70456,24.08121],[120.69567,24.07724],[120.69127,24.07234],[120.68411,24.07024],[120.68039,24.07184],[120.67654,24.07779],[120.67187,24.08113],[120.66681,24.08092],[120.66367,24.0823],[120.6605,24.08163],[120.65582,24.08507],[120.65594,24.08605],[120.65791,24.08704],[120.65305,24.08829],[120.65254,24.08904],[120.65426,24.09259],[120.65661,24.09322],[120.66054,24.09617],[120.66134,24.09588],[120.66329,24.09773],[120.6579,24.10019],[120.65772,24.10172],[120.65897,24.10387],[120.65713,24.10394],[120.66133,24.10652],[120.66158,24.11015],[120.66324,24.11198],[120.66853,24.1126],[120.6713,24.11095],[120.67193,24.1118],[120.67106,24.11481],[120.67177,24.11553],[120.67571,24.11767],[120.67921,24.11738],[120.68356,24.11867],[120.68596,24.12326],[120.68833,24.12464],[120.69232,24.12401],[120.70416,24.12487]]]}},{"type":"Feature","properties":{"code":"66000030","name":"臺中市南區"},"geometry":{"type":"Polygon","coordinates":[[[120.68498,24.12947],[120.68354,24.12445],[120.68535,24.12172],[120.68467,24.11997],[120.68333,24.11858],[120.67921,24.11738],[120.6759,24.11772],[120.67238,24.11596],[120.67106,24.11481],[120.67193,24.1118],[120.6713,24.11095],[120.66853,24.1126],[120.66378,24.11225],[120.66158,24.11015],[120.66133,24.10652],[120.65709,24.10446],[120.65779,24.10773],[120.65039,24.10732],[120.65075,24.10945],[120.65003,24.11179],[120.64435,24.11024],[120.64556,24.1143],[120.64707,24.11515],[120.64719,24.1164],[120.64682,24.1187],[120.64372,24.11866],[120.64357,24.11934],[120.65463,24.12811],[120.65489,24.13527],[120.66175,24.13213],[120.66241,24.12953],[120.66592,24.12955],[120.66645,24.12879],[120.68242,24.13553],[120.68498,24.12947]]]}},{"type":"Feature","properties":{"code":"66000230","name":"臺中市烏日區"},"geometry":{"type":"Polygon","coordinates":[[[120.59092,24.13807],[120.59408,24.13612],[120.5977,24.13132],[120.6002,24.12959],[120.6076,24.12684],[120.60961,24.12538],[120.61304,24.12474],[120.61445,24.12536],[120.61887,24.12394],[120.61998,24.11265],[120.62249,24.11314],[120.62888,24.11179],[120.63014,24.11109],[120.62998,24.10917],[120.63139,24.10956],[120.63561,24.11328],[120.63691,24.11297],[120.64357,24.11934],[120.64372,24.11866],[120.64539,24.11913],[120.64682,24.1187],[120.6471,24.11526],[120.64556,24.1143],[120.64444,24.11014],[120.65003,24.11179],[120.65075,24.10945],[120.65039,24.10732],[120.65779,24.10773],[120.65713,24.10394],[120.65897,24.10387],[120.65772,24.10172],[120.6579,24.10019],[120.66329,24.09773],[120.66134,24.09588],[120.66054,24.09617],[120.65661,24.09322],[120.65426,24.09259],[120.65254,24.08904],[120.64825,24.09236],[120.64777,24.0907],[120.64822,24.08689],[120.6494,24.08639],[120.6526,24.08127],[120.6505,24.07899],[120.65045,24.07364],[120.65269,24.07006],[120.65297,24.06664],[120.65647,24.06378],[120.65985,24.06278],[120.66021,24.06108],[120.65943,24.06063],[120.662,24.05918],[120.6626,24.05782],[120.66047,24.05656],[120.661,24.05388],[120.65995,24.05226],[120.66077,24.0469],[120.66209,24.04546],[120.6595,24.04676],[120.65836,24.04592],[120.65873,24.04192],[120.65768,24.04172],[120.65871,24.03957],[120.65503,24.04058],[120.65304,24.03976],[120.65139,24.04176],[120.64961,24.03983],[120.65087,24.03617],[120.65572,24.03068],[120.65175,24.02853],[120.64656,24.03394],[120.64516,24.0343],[120.64444,24.03231],[120.64626,24.0269],[120.64464,24.02588],[120.63754,24.02853],[120.63615,24.03105],[120.62866,24.02962],[120.62548,24.03002],[120.62447,24.03099],[120.62423,24.03337],[120.62811,24.03835],[120.62763,24.04039],[120.62602,24.04162],[120.6258,24.04681],[120.6245,24.04824],[120.62343,24.05212],[120.62569,24.05703],[120.62535,24.06895],[120.62372,24.0717],[120.61967,24.07304],[120.617,24.07942],[120.61494,24.08504],[120.6149,24.08999],[120.61236,24.09986],[120.61249,24.10257],[120.60891,24.10208],[120.60803,24.10272],[120.6029,24.10289],[120.59996,24.10518],[120.59508,24.10487],[120.58836,24.10623],[120.58554,24.10757],[120.58363,24.10951],[120.58155,24.10991],[120.58209,24.11189],[120.58448,24.11308],[120.5868,24.11763],[120.58292,24.12105],[120.58339,24.12338],[120.58848,24.1294],[120.58758,24.13202],[120.58577,24.13369],[120.58626,24.1379],[120.59016,24.13858],[120.59092,24.13807]]]}},{"type":"Feature","properties":{"code":"66000010","name":"臺中市中區"},"geometry":{"type":"Polygon","coordinates":[[[120.68075,24.14693],[120.6822,24.14596],[120.68179,24.14454],[120.68433,24.14231],[120.68577,24.14327],[120.68564,24.13685],[120.68242,24.13553],[120.67376,24.14327],[120.67516,24.1453],[120.6781,24.14674],[120.67895,24.1482],[120.68075,24.14693]]]}},{"type":"Feature","properties":{"code":"66000040","name":"臺中市西區"},"geometry":{"type":"Polygon","coordinates":[[[120.66362,24.16051],[120.66534,24.1591],[120.66388,24.15764],[120.66613,24.15597],[120.66397,24.15464],[120.6659,24.15368],[120.67171,24.15436],[120.67165,24.15311],[120.67371,24.15153],[120.67532,24.15131],[120.674,24.14626],[120.67178,24.14503],[120.68242,24.13553],[120.66645,24.12879],[120.66592,24.12955],[120.66241,24.12953],[120.66175,24.13213],[120.65489,24.13527],[120.65505,24.14499],[120.65125,24.14501],[120.65125,24.14384],[120.64979,24.14381],[120.64978,24.14677],[120.65128,24.14678],[120.65137,24.14883],[120.65301,24.14882],[120.65304,24.15457],[120.65383,24.1558],[120.65663,24.15636],[120.66051,24.16229],[120.66253,24.16363],[120.66337,24.16315],[120.66254,24.16208],[120.66362,24.16051]]]}},{"type":"Feature","properties":{"code":"66000070","name":"臺中市南屯區"},"geometry":{"type":"Polygon","coordinates":[[[120.59525,24.16337],[120.5986,24.16288],[120.5989,24.16404],[120.60045,24.16506],[120.60557,24.16516],[120.61261,24.15993],[120.62003,24.15906],[120.62157,24.15569],[120.62388,24.15649],[120.62487,24.15355],[120.62562,24.15447],[120.62919,24.1556],[120.63013,24.15751],[120.63336,24.15875],[120.63405,24.16002],[120.63508,24.15984],[120.63448,24.15582],[120.63634,24.15701],[120.63671,24.15449],[120.64674,24.15466],[120.64676,24.1556],[120.64976,24.15562],[120.65093,24.15741],[120.65383,24.1558],[120.65304,24.15457],[120.65301,24.14882],[120.65137,24.14883],[120.65128,24.14678],[120.64978,24.14677],[120.64979,24.14381],[120.65125,24.14384],[120.65125,24.14501],[120.65505,24.14499],[120.65463,24.12811],[120.64016,24.11667],[120.64002,24.1157],[120.63691,24.11297],[120.63561,24.11328],[120.63139,24.10956],[120.62998,24.10917],[120.63014,24.11109],[120.62888,24.11179],[120.62249,24.11314],[120.61998,24.11265],[120.61887,24.12394],[120.61445,24.12536],[120.61304,24.12474],[120.60961,24.12538],[120.6076,24.12684],[120.59993,24.12973],[120.5977,24.13132],[120.59329,24.13674],[120.59041,24.13855],[120.58626,24.1379],[120.58151,24.14352],[120.57953,24.14396],[120.57468,24.14746],[120.57444,24.15576],[120.5777,24.15586],[120.57901,24.16058],[120.58164,24.16561],[120.58483,24.16949],[120.58437,24.17035],[120.58838,24.1695],[120.58739,24.16682],[120.59525,24.16337]]]}},{"type":"Feature","properties":{"code":"66000050","name":"臺中市北區"},"geometry":{"type":"Polygon","coordinates":[[[120.67299,24.17396],[120.67958,24.17291],[120.67867,24.16855],[120.68506,24.16842],[120.68502,24.1669],[120.68847,24.1669],[120.68784,24.16552],[120.68897,24.16455],[120.68852,24.16231],[120.70391,24.15937],[120.70383,24.15773],[120.70076,24.15398],[120.69974,24.15143],[120.69222,24.15271],[120.69165,24.15175],[120.69061,24.15206],[120.69062,24.15027],[120.69138,24.14976],[120.69024,24.14827],[120.6905,24.14665],[120.68648,24.14577],[120.68577,24.14327],[120.68433,24.14231],[120.68179,24.14454],[120.6822,24.14596],[120.67912,24.14825],[120.6781,24.14674],[120.67516,24.1453],[120.67376,24.14327],[120.67178,24.14503],[120.674,24.14626],[120.67532,24.15131],[120.67371,24.15153],[120.67165,24.15311],[120.67171,24.15436],[120.6659,24.15368],[120.66397,24.15464],[120.66613,24.15597],[120.66388,24.15764],[120.66534,24.1591],[120.66254,24.16208],[120.66562,24.16686],[120.66706,24.17307],[120.67299,24.17396]]]}},{"type":"Feature","properties":{"code":"66000060","name":"臺中市西屯區"},"geometry":{"type":"Polygon","coordinates":[[[120.60093,24.21433],[120.60074,24.21337],[120.60289,24.2125],[120.62108,24.20881],[120.63558,24.20389],[120.63568,24.20229],[120.63683,24.2018],[120.63763,24.20354],[120.639,24.20346],[120.63904,24.20437],[120.64153,24.20321],[120.64243,24.20501],[120.64513,24.2039],[120.646,24.20423],[120.64738,24.20633],[120.6516,24.20981],[120.65404,24.20942],[120.65552,24.20802],[120.65768,24.20851],[120.65926,24.20724],[120.66481,24.20715],[120.66447,24.20157],[120.66186,24.19985],[120.65871,24.19074],[120.65744,24.18911],[120.65815,24.17741],[120.66311,24.17749],[120.66293,24.18263],[120.66458,24.18267],[120.66455,24.17907],[120.66857,24.17827],[120.66953,24.17709],[120.6671,24.17327],[120.66464,24.16472],[120.66337,24.16315],[120.66253,24.16363],[120.66051,24.16229],[120.65663,24.15636],[120.65527,24.15659],[120.65449,24.15546],[120.65093,24.15741],[120.64976,24.15562],[120.64676,24.1556],[120.64674,24.15466],[120.63671,24.15449],[120.63634,24.15701],[120.63448,24.15582],[120.63508,24.15984],[120.63405,24.16002],[120.63336,24.15875],[120.63013,24.15751],[120.62919,24.1556],[120.62562,24.15447],[120.62487,24.15355],[120.62388,24.15649],[120.62157,24.15569],[120.62003,24.15906],[120.61261,24.15993],[120.60557,24.16516],[120.60045,24.16506],[120.5989,24.16404],[120.5986,24.16288],[120.59367,24.16374],[120.58739,24.16682],[120.58838,24.1695],[120.58437,24.17035],[120.58316,24.17356],[120.58711,24.17789],[120.59364,24.18121],[120.59281,24.18153],[120.5932,24.18304],[120.5876,24.18541],[120.58861,24.18727],[120.59479,24.18573],[120.59786,24.18934],[120.58773,24.19264],[120.59459,24.20534],[120.59633,24.21416],[120.60093,24.21433]]]}},{"type":"Feature","properties":{"code":"66000080","name":"臺中市北屯區"},"geometry":{"type":"Polygon","coordinates":[[[120.75493,24.21849],[120.75931,24.21776],[120.7609,24.21872],[120.76489,24.21675],[120.76735,24.21734],[120.77046,24.21555],[120.77133,24.21333],[120.78245,24.21065],[120.78858,24.20675],[120.79408,24.20532],[120.79968,24.20009],[120.7995,24.19824],[120.80116,24.19647],[120.79946,24.19182],[120.80013,24.1883],[120.79732,24.18246],[120.79885,24.17979],[120.80012,24.17923],[120.79972,24.17472],[120.80056,24.17277],[120.80156,24.17325],[120.80213,24.17241],[120.80175,24.17141],[120.80263,24.16947],[120.79901,24.1682],[120.79724,24.16641],[120.79376,24.16582],[120.7901,24.16741],[120.78684,24.16772],[120.78163,24.16671],[120.77585,24.16858],[120.774,24.16727],[120.77193,24.16202],[120.76915,24.16015],[120.76539,24.15897],[120.76189,24.15995],[120.75935,24.1579],[120.75486,24.15799],[120.75307,24.15995],[120.749,24.16221],[120.74458,24.1593],[120.73863,24.15998],[120.73134,24.15713],[120.72614,24.15678],[120.72461,24.15843],[120.71283,24.16097],[120.70932,24.16082],[120.70619,24.16314],[120.70311,24.16255],[120.70438,24.15925],[120.68852,24.16231],[120.68897,24.16455],[120.68784,24.16552],[120.68847,24.1669],[120.68502,24.1669],[120.68506,24.16842],[120.67866,24.16856],[120.67958,24.17291],[120.67285,24.17397],[120.66706,24.17307],[120.66953,24.17709],[120.66857,24.17827],[120.66455,24.17907],[120.66458,24.18267],[120.66293,24.18263],[120.66311,24.17749],[120.65803,24.17753],[120.65749,24.18947],[120.65854,24.19033],[120.66186,24.19985],[120.66447,24.20157],[120.66983,24.20368],[120.67413,24.20439],[120.67472,24.20288],[120.67962,24.20379],[120.68048,24.20331],[120.69094,24.20626],[120.69049,24.20422],[120.69483,24.20411],[120.69696,24.20297],[120.69739,24.19996],[120.69373,24.19787],[120.69513,24.19517],[120.69394,24.19291],[120.69809,24.1915],[120.69953,24.19212],[120.69917,24.18938],[120.69789,24.18831],[120.70111,24.18713],[120.70409,24.18709],[120.70328,24.18807],[120.70484,24.18898],[120.70423,24.18971],[120.70517,24.19057],[120.70531,24.19213],[120.70443,24.19252],[120.70564,24.19627],[120.70501,24.1974],[120.70734,24.1994],[120.70757,24.19726],[120.70855,24.19691],[120.70822,24.19587],[120.71209,24.19042],[120.71093,24.18793],[120.71323,24.18586],[120.71335,24.18782],[120.71462,24.18771],[120.71474,24.19011],[120.72001,24.19132],[120.72082,24.19019],[120.72334,24.19009],[120.72441,24.19197],[120.72905,24.19156],[120.7316,24.19497],[120.73552,24.19409],[120.73754,24.19616],[120.73721,24.19948],[120.73847,24.20194],[120.74341,24.20337],[120.74577,24.20302],[120.74638,24.20407],[120.75022,24.20467],[120.75103,24.2061],[120.7502,24.20685],[120.75035,24.20897],[120.74795,24.21102],[120.74943,24.21384],[120.75185,24.21564],[120.75367,24.21927],[120.75493,24.21849]]]}},{"type":"Feature","properties":{"code":"66000170","name":"臺中市潭子區"},"geometry":{"type":"Polygon","coordinates":[[[120.71176,24.23617],[120.71155,24.23538],[120.71249,24.23555],[120.71163,24.23337],[120.71234,24.23313],[120.71185,24.23095],[120.7135,24.23101],[120.71459,24.23204],[120.71509,24.23153],[120.714,24.2307],[120.71412,24.22961],[120.71562,24.23034],[120.71987,24.22967],[120.72081,24.22847],[120.72081,24.22579],[120.72244,24.22396],[120.72193,24.22194],[120.72513,24.22144],[120.72722,24.21927],[120.73263,24.21937],[120.73852,24.22497],[120.74218,24.22473],[120.74411,24.22221],[120.74682,24.22265],[120.75207,24.22143],[120.75367,24.21927],[120.75185,24.21564],[120.74943,24.21384],[120.74795,24.21102],[120.75035,24.20897],[120.7502,24.20685],[120.75103,24.2061],[120.75022,24.20467],[120.74638,24.20407],[120.74577,24.20302],[120.74341,24.20337],[120.73847,24.20194],[120.73721,24.19948],[120.73754,24.19616],[120.73552,24.19409],[120.7316,24.19497],[120.72905,24.19156],[120.72441,24.19197],[120.72334,24.19009],[120.72082,24.19019],[120.72001,24.19132],[120.71474,24.19011],[120.71462,24.18771],[120.71335,24.18782],[120.71323,24.18586],[120.71093,24.18793],[120.71209,24.19042],[120.70822,24.19587],[120.70855,24.19691],[120.70757,24.19726],[120.70734,24.1994],[120.70501,24.1974],[120.70564,24.19627],[120.70443,24.19252],[120.70531,24.19213],[120.70517,24.19057],[120.70423,24.18971],[120.70484,24.18898],[120.70328,24.18807],[120.70409,24.18709],[120.70111,24.18713],[120.69789,24.18831],[120.69917,24.18938],[120.69953,24.19212],[120.69809,24.1915],[120.69394,24.19291],[120.69513,24.19517],[120.69373,24.19787],[120.69739,24.19996],[120.69696,24.20297],[120.69483,24.20411],[120.69049,24.20422],[120.69094,24.20626],[120.68048,24.20331],[120.67962,24.20379],[120.67472,24.20288],[120.67413,24.20439],[120.66983,24.20368],[120.67115,24.20876],[120.6742,24.20858],[120.67748,24.21303],[120.67866,24.21754],[120.67307,24.21846],[120.67411,24.22264],[120.67666,24.22391],[120.67774,24.22576],[120.67805,24.22999],[120.68031,24.23015],[120.68137,24.2321],[120.68526,24.23181],[120.68566,24.23417],[120.68871,24.23569],[120.69055,24.23555],[120.69164,24.23514],[120.6899,24.22913],[120.6925,24.22931],[120.693,24.23114],[120.69705,24.23156],[120.69615,24.22782],[120.69707,24.22765],[120.69697,24.22572],[120.69826,24.22562],[120.69823,24.22402],[120.70134,24.22423],[120.70155,24.227],[120.70362,24.22864],[120.70689,24.23599],[120.71146,24.23615],[120.71182,24.23681],[120.71176,24.23617]]]}},{"type":"Feature","properties":{"code":"66000020","name":"臺中市東區"},"geometry":{"type":"Polygon","coordinates":[[[120.69391,24.1525],[120.70013,24.15131],[120.69946,24.14882],[120.70061,24.14587],[120.70364,24.14671],[120.70731,24.14945],[120.71094,24.14945],[120.71221,24.1459],[120.71075,24.1418],[120.71031,24.13753],[120.70416,24.12487],[120.69232,24.12401],[120.68859,24.12469],[120.68596,24.12326],[120.68535,24.12172],[120.68354,24.12445],[120.6851,24.13001],[120.68242,24.13553],[120.68564,24.13685],[120.68648,24.14577],[120.69063,24.14686],[120.69024,24.14827],[120.69138,24.14976],[120.69062,24.15027],[120.69056,24.15199],[120.69391,24.1525]]]}},{"type":"Feature","properties":{"code":"66000270","name":"臺中市太平區"},"geometry":{"type":"Polygon","coordinates":[[[120.80263,24.16946],[120.80207,24.16758],[120.80447,24.16543],[120.80462,24.16342],[120.80647,24.16083],[120.80537,24.1557],[120.80418,24.15498],[120.80376,24.15225],[120.80251,24.15082],[120.81035,24.14893],[120.81188,24.14519],[120.81359,24.14451],[120.81488,24.14447],[120.81972,24.14723],[120.82181,24.14618],[120.82352,24.14203],[120.8284,24.14302],[120.82928,24.14418],[120.83367,24.14115],[120.83431,24.13754],[120.83321,24.13499],[120.83462,24.13185],[120.83282,24.12789],[120.83147,24.12702],[120.83239,24.12297],[120.83773,24.11787],[120.83628,24.11695],[120.83449,24.11305],[120.83403,24.10661],[120.83029,24.1025],[120.83241,24.09964],[120.83244,24.09826],[120.82837,24.09395],[120.82809,24.0869],[120.82891,24.08355],[120.82826,24.07817],[120.8293,24.07151],[120.82066,24.06979],[120.81925,24.06846],[120.81635,24.06846],[120.81446,24.0699],[120.81187,24.06607],[120.80913,24.06625],[120.80782,24.06521],[120.80688,24.064],[120.80667,24.06107],[120.80329,24.05626],[120.80342,24.05236],[120.80088,24.05138],[120.80141,24.0505],[120.80065,24.04865],[120.79659,24.04281],[120.79753,24.04168],[120.79656,24.04031],[120.79356,24.04316],[120.79219,24.04343],[120.79274,24.04584],[120.78943,24.04802],[120.78867,24.0495],[120.7892,24.05154],[120.78814,24.05267],[120.78482,24.05304],[120.78458,24.05552],[120.78207,24.05657],[120.78175,24.05804],[120.77799,24.06101],[120.77257,24.06288],[120.77138,24.06406],[120.76754,24.06455],[120.76414,24.06778],[120.7639,24.0692],[120.76179,24.0714],[120.75992,24.07199],[120.75628,24.07515],[120.75402,24.07489],[120.74997,24.07701],[120.74632,24.07735],[120.7448,24.07908],[120.7431,24.07844],[120.7389,24.07869],[120.73215,24.08139],[120.73582,24.08586],[120.737,24.08485],[120.73664,24.08369],[120.73726,24.08323],[120.73944,24.08585],[120.74128,24.08653],[120.74145,24.09189],[120.74028,24.09467],[120.73847,24.0959],[120.73617,24.09453],[120.73299,24.09537],[120.73034,24.09415],[120.72844,24.09469],[120.7245,24.09785],[120.70925,24.10501],[120.70945,24.10605],[120.71395,24.10989],[120.71329,24.11068],[120.71107,24.11058],[120.70719,24.11196],[120.70131,24.11146],[120.7007,24.11294],[120.70205,24.12103],[120.71031,24.13753],[120.71075,24.1418],[120.71221,24.1459],[120.71117,24.14918],[120.71,24.14992],[120.70709,24.14937],[120.70364,24.14671],[120.70078,24.14586],[120.69946,24.14882],[120.70076,24.15398],[120.70438,24.15925],[120.7032,24.16161],[120.7036,24.16281],[120.70638,24.16311],[120.70971,24.16071],[120.71283,24.16097],[120.72461,24.15843],[120.72614,24.15678],[120.73134,24.15713],[120.73863,24.15998],[120.74458,24.1593],[120.749,24.16221],[120.75307,24.15995],[120.75471,24.15803],[120.75873,24.15782],[120.76168,24.15993],[120.76462,24.15887],[120.76945,24.16031],[120.77225,24.16237],[120.774,24.16727],[120.77585,24.16858],[120.78163,24.16671],[120.78668,24.16771],[120.7897,24.16749],[120.79404,24.1658],[120.79724,24.16641],[120.79901,24.1682],[120.80263,24.16946]]]}},{"type":"Feature","properties":{"code":"66000290","name":"臺中市和平區"},"geometry":{"type":"Polygon","coordinates":[[[121.32835,24.43304],[121.32767,24.43043],[121.32872,24.42701],[121.32737,24.42124],[121.32744,24.41302],[121.325,24.40691],[121.32649,24.39987],[121.32786,24.39831],[121.33234,24.39794],[121.3336,24.395],[121.33698,24.3924],[121.33913,24.3896],[121.33993,24.391],[121.34297,24.39284],[121.35239,24.39224],[121.35469,24.39327],[121.35939,24.39045],[121.36489,24.38907],[121.36841,24.38544],[121.3698,24.38259],[121.3671,24.37893],[121.36925,24.37459],[121.36929,24.37246],[121.37374,24.36805],[121.37701,24.36844],[121.38184,24.36701],[121.38762,24.36969],[121.38996,24.37515],[121.39283,24.37512],[121.39508,24.37763],[121.39812,24.37776],[121.40089,24.37967],[121.40441,24.37772],[121.40791,24.37755],[121.41277,24.37974],[121.4191,24.37905],[121.42335,24.3814],[121.42574,24.38148],[121.42937,24.38306],[121.43397,24.38323],[121.4383,24.38262],[121.44256,24.37313],[121.44798,24.37483],[121.44826,24.37257],[121.45201,24.36468],[121.44866,24.36278],[121.44727,24.35954],[121.44157,24.35859],[121.43994,24.35452],[121.43779,24.35205],[121.43562,24.34725],[121.43777,24.34222],[121.43431,24.33827],[121.43252,24.33027],[121.43337,24.32682],[121.43449,24.32558],[121.43485,24.32219],[121.43398,24.32113],[121.43164,24.32048],[121.42849,24.31736],[121.42323,24.30822],[121.42024,24.30762],[121.41678,24.30918],[121.41144,24.30726],[121.4051,24.30825],[121.40345,24.29688],[121.39723,24.29053],[121.39658,24.28874],[121.39352,24.28823],[121.39074,24.28969],[121.38724,24.28471],[121.38055,24.27976],[121.38216,24.27618],[121.38327,24.26798],[121.38566,24.26415],[121.3852,24.26183],[121.3858,24.25805],[121.38506,24.25499],[121.37815,24.2528],[121.37268,24.25412],[121.3699,24.25254],[121.36689,24.2521],[121.36442,24.24727],[121.36067,24.24394],[121.35854,24.2436],[121.35599,24.24463],[121.35261,24.24385],[121.35323,24.23951],[121.35251,24.235],[121.34918,24.23181],[121.34302,24.22355],[121.33569,24.22859],[121.3265,24.23253],[121.32444,24.23301],[121.31965,24.23187],[121.31645,24.23439],[121.31352,24.23503],[121.30882,24.23494],[121.30389,24.23368],[121.30252,24.23633],[121.30117,24.23669],[121.29875,24.23561],[121.29803,24.234],[121.29878,24.2332],[121.29546,24.2325],[121.29314,24.22916],[121.28888,24.23016],[121.28589,24.22909],[121.28284,24.23104],[121.28003,24.22977],[121.27756,24.23211],[121.27686,24.23547],[121.27072,24.23664],[121.26892,24.23792],[121.2685,24.23995],[121.26605,24.24094],[121.2664,24.24239],[121.26499,24.24587],[121.2588,24.24512],[121.25465,24.24284],[121.2509,24.23736],[121.24416,24.2225],[121.24074,24.22171],[121.23796,24.21971],[121.23041,24.22353],[121.23077,24.22605],[121.22834,24.22593],[121.22834,24.22471],[121.21971,24.22924],[121.21581,24.22535],[121.20824,24.2217],[121.20157,24.22164],[121.19634,24.223],[121.19232,24.21904],[121.19125,24.21636],[121.18851,24.21492],[121.18519,24.21445],[121.18146,24.21205],[121.17888,24.21361],[121.17349,24.22033],[121.16764,24.22539],[121.16437,24.22179],[121.16407,24.21985],[121.16098,24.21518],[121.15652,24.21474],[121.15143,24.21288],[121.14782,24.21285],[121.14615,24.20892],[121.14309,24.20562],[121.14286,24.20259],[121.14137,24.19965],[121.13636,24.19634],[121.13228,24.1969],[121.12926,24.19605],[121.12721,24.19677],[121.12295,24.19603],[121.11875,24.19721],[121.1131,24.19687],[121.10842,24.19801],[121.1042,24.19596],[121.10169,24.19563],[121.09441,24.19015],[121.09399,24.18789],[121.09107,24.18482],[121.09135,24.18273],[121.08488,24.17592],[121.08102,24.17546],[121.07525,24.17019],[121.07242,24.16987],[121.06634,24.16552],[121.0646,24.16302],[121.0594,24.16278],[121.05795,24.15923],[121.05266,24.1548],[121.05063,24.15827],[121.04743,24.16006],[121.04414,24.15966],[121.04291,24.15861],[121.03811,24.1582],[121.03577,24.15307],[121.0357,24.15091],[121.03333,24.14858],[121.03106,24.14922],[121.03122,24.15353],[121.03008,24.15506],[121.02977,24.15735],[121.02776,24.15956],[121.02736,24.15874],[121.0249,24.15797],[121.01954,24.15871],[121.01551,24.15601],[121.01336,24.15352],[121.01225,24.15333],[121.00972,24.1483],[121.00817,24.14704],[121.00707,24.14479],[121.00755,24.14378],[121.00681,24.14094],[121.0046,24.13765],[121.00325,24.13353],[121.00036,24.13228],[120.99955,24.12776],[120.99826,24.12671],[120.99202,24.12525],[120.99202,24.12105],[120.98909,24.11877],[120.98535,24.12021],[120.97569,24.11687],[120.97407,24.11928],[120.97116,24.12024],[120.96121,24.12015],[120.95634,24.12468],[120.95011,24.12786],[120.94838,24.12494],[120.94395,24.12244],[120.93255,24.11258],[120.92715,24.11172],[120.92213,24.10943],[120.91988,24.10744],[120.91455,24.10757],[120.91355,24.10893],[120.90956,24.10923],[120.9072,24.1106],[120.90671,24.11265],[120.90503,24.11443],[120.89616,24.11645],[120.89806,24.11827],[120.89527,24.11881],[120.89565,24.12],[120.89391,24.12584],[120.89468,24.12938],[120.89381,24.13108],[120.89618,24.13896],[120.89399,24.14053],[120.8899,24.1408],[120.88743,24.13923],[120.88474,24.13898],[120.88431,24.14582],[120.88295,24.14863],[120.88372,24.1497],[120.88334,24.15116],[120.88424,24.15454],[120.8833,24.15723],[120.88847,24.15752],[120.89502,24.15527],[120.8949,24.15895],[120.89407,24.16072],[120.89449,24.16617],[120.88144,24.16687],[120.86855,24.1643],[120.86784,24.17102],[120.86534,24.1755],[120.86704,24.17744],[120.86738,24.17967],[120.86915,24.18074],[120.87075,24.18043],[120.87543,24.18476],[120.87739,24.1881],[120.88162,24.19718],[120.88074,24.20176],[120.88233,24.20302],[120.88524,24.2031],[120.88644,24.20442],[120.89206,24.20325],[120.89243,24.20467],[120.8943,24.20546],[120.89484,24.20653],[120.8972,24.20591],[120.89796,24.20697],[120.89743,24.2107],[120.89531,24.21214],[120.89777,24.21696],[120.89691,24.22139],[120.89849,24.22159],[120.89501,24.22377],[120.89012,24.22396],[120.88715,24.22546],[120.88803,24.22992],[120.88427,24.23218],[120.88317,24.234],[120.88105,24.23529],[120.88021,24.23815],[120.87935,24.23849],[120.88012,24.23901],[120.88024,24.24061],[120.87938,24.24346],[120.8812,24.2442],[120.88199,24.24764],[120.8788,24.24911],[120.87908,24.25213],[120.88013,24.25334],[120.87868,24.25761],[120.88091,24.25881],[120.88114,24.25969],[120.88003,24.25953],[120.87946,24.26025],[120.8805,24.26126],[120.87845,24.26408],[120.87842,24.26618],[120.88113,24.27128],[120.88455,24.27397],[120.88505,24.27615],[120.88843,24.27686],[120.88819,24.27912],[120.89104,24.28016],[120.89562,24.28449],[120.8967,24.28403],[120.89847,24.28511],[120.89909,24.28867],[120.90519,24.29143],[120.90716,24.29321],[120.91191,24.29406],[120.91677,24.29901],[120.9221,24.3028],[120.9225,24.30471],[120.9201,24.31119],[120.9205,24.32011],[120.91638,24.33419],[120.91718,24.33585],[120.91965,24.33714],[120.92632,24.33865],[120.93564,24.34292],[120.94246,24.33914],[120.94517,24.33979],[120.94652,24.3391],[120.95409,24.3386],[120.95679,24.3393],[120.96016,24.33505],[120.96649,24.33346],[120.97994,24.33447],[120.98198,24.3359],[120.98559,24.33166],[120.99178,24.32962],[120.99726,24.33005],[121.00048,24.33266],[121.00357,24.33252],[121.0145,24.32011],[121.01802,24.3113],[121.02002,24.30924],[121.02937,24.30471],[121.03413,24.29782],[121.03698,24.29662],[121.04519,24.29533],[121.04914,24.296],[121.05224,24.29933],[121.05256,24.30424],[121.05492,24.30766],[121.05535,24.3104],[121.05743,24.31127],[121.0584,24.31273],[121.0609,24.31312],[121.0648,24.31544],[121.07021,24.31576],[121.07386,24.31919],[121.07308,24.32282],[121.07846,24.32281],[121.08147,24.32414],[121.08644,24.31768],[121.09193,24.31863],[121.09435,24.31981],[121.09571,24.32257],[121.10226,24.32458],[121.10848,24.33095],[121.11487,24.32864],[121.11855,24.33037],[121.12158,24.33068],[121.1215,24.33429],[121.12413,24.34055],[121.1253,24.34199],[121.12844,24.34217],[121.1302,24.34471],[121.13123,24.34936],[121.13644,24.35313],[121.1378,24.35469],[121.13797,24.35627],[121.14096,24.35964],[121.14491,24.35807],[121.14841,24.35788],[121.15554,24.35904],[121.15941,24.3608],[121.16837,24.36091],[121.16901,24.36431],[121.17418,24.36892],[121.17305,24.37068],[121.17342,24.37334],[121.17852,24.37792],[121.18168,24.37886],[121.1833,24.38101],[121.19024,24.38162],[121.19114,24.38394],[121.19672,24.39152],[121.19719,24.39659],[121.20071,24.39761],[121.2072,24.39791],[121.21029,24.39612],[121.21125,24.38839],[121.21346,24.38403],[121.2135,24.38185],[121.21588,24.37945],[121.21846,24.38126],[121.23186,24.38386],[121.23162,24.38761],[121.23498,24.39192],[121.23466,24.39734],[121.23802,24.40029],[121.23814,24.40151],[121.24014,24.40354],[121.24357,24.40572],[121.2429,24.40908],[121.24333,24.4112],[121.24199,24.41409],[121.2436,24.41661],[121.2434,24.41914],[121.24591,24.42262],[121.24915,24.42379],[121.25,24.42491],[121.25761,24.42505],[121.26022,24.42901],[121.2699,24.42738],[121.27106,24.42796],[121.27153,24.42975],[121.27848,24.42932],[121.28433,24.43058],[121.29275,24.43092],[121.29429,24.43236],[121.29675,24.43303],[121.30546,24.43257],[121.31003,24.43622],[121.31345,24.43706],[121.31767,24.44149],[121.32167,24.44037],[121.32835,24.43304]]]}}]}