{"type":"FeatureCollection","source":"https://data.gov.tw/dataset/7441 鄉鎮市區界線(TWD97經緯度)","agency":"內政部國土測繪中心","license":"政府資料開放授權條款第1版","generatedBy":"scripts/build-geo.py","features":[{"type":"Feature","properties":{"code":"67000010","name":"臺南市新營區"},"geometry":{"type":"Polygon","coordinates":[[[120.30618,23.34482],[120.30759,23.34521],[120.30903,23.34398],[120.30518,23.33909],[120.30568,23.33609],[120.30811,23.33318],[120.31042,23.33307],[120.31393,23.33528],[120.31626,23.33524],[120.31559,23.33221],[120.31641,23.33125],[120.3168,23.33288],[120.3188,23.33223],[120.32151,23.3327],[120.3228,23.33385],[120.32585,23.33293],[120.32598,23.32887],[120.32809,23.32836],[120.32884,23.32881],[120.3292,23.33182],[120.33002,23.33223],[120.33132,23.33166],[120.33219,23.32996],[120.32997,23.32797],[120.33477,23.32708],[120.33517,23.3299],[120.33936,23.32843],[120.33934,23.32543],[120.33816,23.32428],[120.33897,23.32376],[120.35164,23.32563],[120.35207,23.32484],[120.35108,23.32324],[120.35331,23.31944],[120.35238,23.31373],[120.35052,23.3138],[120.34595,23.31696],[120.3413,23.31898],[120.34022,23.31593],[120.34346,23.31078],[120.34341,23.30973],[120.33863,23.30995],[120.33146,23.30399],[120.32946,23.30627],[120.3261,23.30534],[120.3246,23.3029],[120.32513,23.29713],[120.32435,23.29623],[120.31351,23.29585],[120.30592,23.29662],[120.30089,23.29618],[120.29307,23.29398],[120.29233,23.29178],[120.29319,23.29114],[120.29307,23.28828],[120.29422,23.28537],[120.29364,23.28343],[120.29063,23.2785],[120.29061,23.27702],[120.28465,23.27687],[120.28346,23.27531],[120.2823,23.26626],[120.28003,23.26128],[120.27211,23.26125],[120.27172,23.25739],[120.26779,23.25727],[120.2672,23.25548],[120.26406,23.25432],[120.26065,23.25413],[120.25765,23.25625],[120.25575,23.25649],[120.25648,23.2589],[120.25457,23.25997],[120.25543,23.26115],[120.25701,23.26134],[120.25741,23.26545],[120.25847,23.26746],[120.2536,23.26739],[120.25329,23.27494],[120.24908,23.27488],[120.2532,23.2797],[120.25038,23.27975],[120.25028,23.28236],[120.2485,23.28531],[120.25326,23.28754],[120.2545,23.28727],[120.2528,23.28639],[120.25324,23.28562],[120.25483,23.28634],[120.25468,23.28487],[120.2557,23.28439],[120.25769,23.28439],[120.25897,23.28577],[120.26154,23.28569],[120.25963,23.28804],[120.27001,23.29478],[120.26915,23.29602],[120.27003,23.29672],[120.26833,23.29955],[120.26924,23.30027],[120.26723,23.30124],[120.27306,23.30343],[120.27637,23.30302],[120.27642,23.31042],[120.27406,23.31081],[120.28004,23.31519],[120.27028,23.31494],[120.27086,23.31744],[120.27255,23.3197],[120.27142,23.32189],[120.27537,23.32221],[120.2765,23.3214],[120.27744,23.31895],[120.27994,23.31897],[120.28271,23.31703],[120.28424,23.31834],[120.2819,23.32067],[120.28503,23.32021],[120.28726,23.3204],[120.28804,23.32129],[120.28894,23.32095],[120.29301,23.32475],[120.28989,23.3288],[120.29229,23.32951],[120.29537,23.32869],[120.29488,23.33062],[120.29678,23.33097],[120.29708,23.33343],[120.29857,23.33398],[120.29386,23.33414],[120.29288,23.33599],[120.29405,23.33851],[120.29652,23.34111],[120.29763,23.33828],[120.30017,23.33617],[120.30239,23.33609],[120.30345,23.33957],[120.30558,23.34103],[120.30386,23.34293],[120.30453,23.34487],[120.30618,23.34482]]]}},{"type":"Feature","properties":{"code":"67000020","name":"臺南市鹽水區"},"geometry":{"type":"Polygon","coordinates":[[[120.29585,23.35699],[120.29705,23.34171],[120.29633,23.34141],[120.2958,23.34215],[120.2959,23.34086],[120.29289,23.33588],[120.29393,23.33411],[120.29512,23.33456],[120.29694,23.33363],[120.2986,23.33417],[120.29708,23.33343],[120.29678,23.33097],[120.29488,23.33062],[120.29537,23.32869],[120.29229,23.32951],[120.28989,23.3288],[120.29296,23.3249],[120.29275,23.32418],[120.28886,23.32091],[120.28804,23.32129],[120.28726,23.3204],[120.28503,23.32021],[120.2819,23.32067],[120.28424,23.31834],[120.28279,23.31703],[120.27994,23.31897],[120.27744,23.31895],[120.2765,23.3214],[120.27537,23.32221],[120.27151,23.32199],[120.27255,23.3197],[120.27086,23.31744],[120.27028,23.31494],[120.28004,23.31519],[120.27406,23.31081],[120.27642,23.31042],[120.27637,23.30302],[120.27306,23.30343],[120.26723,23.30124],[120.26924,23.30027],[120.26833,23.29955],[120.27003,23.29672],[120.26915,23.29602],[120.27001,23.29478],[120.25963,23.28804],[120.26154,23.28569],[120.25897,23.28577],[120.25769,23.28439],[120.2557,23.28439],[120.25468,23.28487],[120.25483,23.28634],[120.25324,23.28562],[120.2528,23.28639],[120.2545,23.28727],[120.25326,23.28754],[120.2485,23.28531],[120.25028,23.28236],[120.25038,23.27975],[120.2532,23.2797],[120.24908,23.27488],[120.25329,23.27494],[120.2536,23.26739],[120.25847,23.26746],[120.25741,23.26545],[120.25701,23.26134],[120.25543,23.26115],[120.25457,23.25997],[120.25648,23.2589],[120.25575,23.25649],[120.25765,23.25625],[120.26065,23.25413],[120.26315,23.25423],[120.26319,23.25338],[120.25468,23.24864],[120.25318,23.24999],[120.24305,23.24434],[120.24242,23.24519],[120.23982,23.24357],[120.23691,23.24326],[120.23319,23.24887],[120.23169,23.24904],[120.22865,23.24726],[120.22752,23.24981],[120.22864,23.25],[120.22889,23.25161],[120.22983,23.25186],[120.2227,23.25615],[120.22214,23.26112],[120.22575,23.2619],[120.22123,23.26322],[120.2205,23.26325],[120.21992,23.26208],[120.21888,23.26259],[120.2193,23.26448],[120.22307,23.26622],[120.22196,23.26869],[120.22042,23.26673],[120.21678,23.26617],[120.21608,23.26223],[120.20989,23.26091],[120.21142,23.26414],[120.20915,23.26465],[120.2078,23.26392],[120.20796,23.26138],[120.20646,23.25992],[120.20422,23.25897],[120.2056,23.26185],[120.20408,23.26248],[120.20197,23.26122],[120.20069,23.25862],[120.19825,23.25765],[120.19874,23.26092],[120.19743,23.2617],[120.19556,23.26086],[120.19497,23.26362],[120.1918,23.26594],[120.19399,23.27172],[120.1936,23.27621],[120.19619,23.27225],[120.19761,23.27137],[120.20009,23.27364],[120.20434,23.27423],[120.20653,23.27616],[120.21065,23.2774],[120.21127,23.28016],[120.21064,23.28136],[120.21227,23.28201],[120.2117,23.2867],[120.21235,23.29169],[120.22087,23.296],[120.22264,23.29832],[120.22706,23.30531],[120.22828,23.31015],[120.23123,23.31619],[120.23428,23.31981],[120.23759,23.32665],[120.2397,23.32756],[120.24631,23.32696],[120.24922,23.32893],[120.25744,23.33169],[120.26708,23.34069],[120.2675,23.34476],[120.26071,23.34447],[120.26502,23.35149],[120.26681,23.35311],[120.27049,23.35369],[120.27332,23.35273],[120.27478,23.35171],[120.27616,23.34833],[120.27849,23.34769],[120.28687,23.35061],[120.28801,23.35313],[120.28793,23.35505],[120.29118,23.35757],[120.29322,23.35668],[120.29458,23.35853],[120.29585,23.35699]]]}},{"type":"Feature","properties":{"code":"67000030","name":"臺南市白河區"},"geometry":{"type":"Polygon","coordinates":[[[120.44025,23.41308],[120.44156,23.41316],[120.44454,23.41101],[120.45008,23.40923],[120.45327,23.40648],[120.45432,23.40634],[120.45398,23.40722],[120.45919,23.40464],[120.46094,23.40471],[120.46184,23.40244],[120.46495,23.40077],[120.46769,23.40112],[120.46952,23.3994],[120.47325,23.39817],[120.47611,23.39394],[120.47538,23.391],[120.47747,23.39071],[120.47942,23.38759],[120.48087,23.38931],[120.48315,23.38984],[120.484,23.39152],[120.48567,23.39144],[120.48554,23.39306],[120.48921,23.39248],[120.48865,23.39361],[120.49032,23.39562],[120.49494,23.39436],[120.4948,23.39331],[120.4975,23.39123],[120.49715,23.38929],[120.49914,23.38804],[120.49903,23.3874],[120.49682,23.38425],[120.49452,23.38431],[120.49141,23.38263],[120.49028,23.38307],[120.48918,23.38178],[120.4844,23.37948],[120.48294,23.37233],[120.48394,23.36957],[120.48635,23.37038],[120.48873,23.37307],[120.4901,23.37112],[120.4915,23.37249],[120.49427,23.36949],[120.49606,23.36995],[120.49947,23.36803],[120.50179,23.36782],[120.5026,23.36954],[120.50484,23.3689],[120.50493,23.36743],[120.50676,23.36703],[120.50877,23.36462],[120.51054,23.36436],[120.51118,23.36064],[120.51243,23.35983],[120.51242,23.35586],[120.51084,23.354],[120.50803,23.35276],[120.50616,23.3553],[120.50472,23.35468],[120.50356,23.35029],[120.50378,23.34939],[120.50464,23.34935],[120.50445,23.34654],[120.50567,23.34547],[120.50509,23.34481],[120.50786,23.343],[120.512,23.34413],[120.52068,23.34195],[120.52142,23.34046],[120.52376,23.3401],[120.52454,23.33831],[120.52693,23.33939],[120.52759,23.33859],[120.53029,23.33806],[120.53153,23.33682],[120.53372,23.33647],[120.53681,23.33326],[120.53996,23.3278],[120.53706,23.32654],[120.53511,23.32325],[120.53195,23.32115],[120.53101,23.31725],[120.52941,23.31686],[120.52709,23.31453],[120.52389,23.31335],[120.52255,23.31175],[120.52388,23.30239],[120.52628,23.29533],[120.52601,23.29223],[120.52258,23.28932],[120.52198,23.2874],[120.51742,23.28729],[120.51818,23.29027],[120.51399,23.29209],[120.51163,23.29188],[120.50872,23.28986],[120.50618,23.29047],[120.50468,23.28814],[120.50386,23.28846],[120.50267,23.28756],[120.50218,23.28882],[120.50382,23.29101],[120.50758,23.29312],[120.50779,23.29527],[120.50478,23.29612],[120.50268,23.29769],[120.49764,23.29791],[120.49582,23.29941],[120.49066,23.29886],[120.48595,23.29358],[120.48111,23.29351],[120.48109,23.29487],[120.47918,23.29573],[120.47764,23.29797],[120.47445,23.29846],[120.47108,23.29655],[120.46838,23.29764],[120.46639,23.30001],[120.46464,23.29999],[120.46416,23.30099],[120.46096,23.30043],[120.45985,23.30159],[120.45483,23.29832],[120.4542,23.29978],[120.45266,23.29888],[120.45246,23.29704],[120.45104,23.29686],[120.45005,23.29836],[120.45036,23.30012],[120.44902,23.30018],[120.44821,23.29919],[120.44576,23.30063],[120.44801,23.30398],[120.4477,23.30523],[120.4411,23.30977],[120.44116,23.31236],[120.44025,23.31433],[120.43873,23.31349],[120.43777,23.3145],[120.43682,23.31423],[120.43145,23.32054],[120.42643,23.32218],[120.42313,23.3248],[120.42003,23.32554],[120.41842,23.32503],[120.41604,23.32726],[120.41512,23.33234],[120.41317,23.33235],[120.41151,23.33481],[120.40811,23.33461],[120.40713,23.3354],[120.40723,23.33877],[120.40532,23.34156],[120.40457,23.34163],[120.4027,23.33938],[120.40306,23.33568],[120.40449,23.33315],[120.40403,23.33223],[120.40172,23.33181],[120.4004,23.33334],[120.39876,23.33679],[120.39856,23.33964],[120.39445,23.34036],[120.39332,23.33962],[120.39403,23.33778],[120.39306,23.33379],[120.39223,23.33253],[120.39099,23.33236],[120.39006,23.33464],[120.39029,23.33966],[120.39255,23.34122],[120.39452,23.34522],[120.39069,23.34476],[120.38764,23.34572],[120.38847,23.35234],[120.38793,23.35421],[120.38604,23.3565],[120.38056,23.3569],[120.38019,23.35885],[120.38436,23.35992],[120.38386,23.36269],[120.38543,23.36278],[120.38849,23.3655],[120.39414,23.36718],[120.40502,23.36821],[120.4068,23.37115],[120.40511,23.37639],[120.40572,23.37692],[120.40476,23.3782],[120.40581,23.38034],[120.39921,23.38374],[120.40024,23.38666],[120.39949,23.38999],[120.39999,23.39079],[120.39582,23.38887],[120.39295,23.39124],[120.38707,23.39131],[120.38543,23.39354],[120.3835,23.39415],[120.38339,23.3964],[120.38668,23.40039],[120.38687,23.40476],[120.40417,23.41005],[120.4067,23.41151],[120.40811,23.41343],[120.41049,23.41017],[120.41449,23.41124],[120.4163,23.41042],[120.41795,23.40852],[120.42006,23.40346],[120.42207,23.4071],[120.42328,23.40642],[120.42776,23.40637],[120.42868,23.40731],[120.43031,23.40648],[120.43168,23.40792],[120.43225,23.41082],[120.43435,23.41108],[120.43449,23.4122],[120.43621,23.41282],[120.43702,23.41231],[120.43808,23.41336],[120.4394,23.41295],[120.44,23.41373],[120.44025,23.41308]]]}},{"type":"Feature","properties":{"code":"67000050","name":"臺南市後壁區"},"geometry":{"type":"Polygon","coordinates":[[[120.38698,23.40343],[120.38641,23.3997],[120.38335,23.3963],[120.3835,23.39415],[120.38543,23.39354],[120.38707,23.39131],[120.39295,23.39124],[120.39582,23.38887],[120.39999,23.39079],[120.39949,23.38999],[120.40024,23.38666],[120.39921,23.38374],[120.40581,23.38034],[120.40476,23.3782],[120.40572,23.37692],[120.40511,23.37639],[120.40678,23.37101],[120.40502,23.36821],[120.39414,23.36718],[120.38849,23.3655],[120.38543,23.36278],[120.38386,23.36269],[120.38436,23.35992],[120.38019,23.35885],[120.38056,23.3569],[120.38604,23.3565],[120.38793,23.35421],[120.38847,23.35234],[120.38764,23.34572],[120.39069,23.34476],[120.39436,23.34535],[120.39448,23.34468],[120.39143,23.34001],[120.38755,23.33982],[120.3853,23.33853],[120.38468,23.33688],[120.38513,23.33171],[120.37864,23.33385],[120.37867,23.33158],[120.38308,23.32705],[120.38162,23.32571],[120.37253,23.3267],[120.36936,23.32544],[120.36936,23.32469],[120.37135,23.32387],[120.37276,23.32112],[120.37192,23.31578],[120.36892,23.31735],[120.36827,23.32132],[120.36284,23.32311],[120.36128,23.32524],[120.35906,23.32344],[120.3594,23.32146],[120.35812,23.31738],[120.35373,23.31537],[120.35253,23.31405],[120.3522,23.31563],[120.35305,23.31626],[120.35331,23.31944],[120.35108,23.32324],[120.35207,23.32484],[120.35164,23.32563],[120.33897,23.32376],[120.33816,23.32428],[120.33934,23.32543],[120.33936,23.32843],[120.33517,23.3299],[120.33477,23.32708],[120.32997,23.32797],[120.33219,23.32996],[120.33132,23.33166],[120.33002,23.33223],[120.3292,23.33182],[120.32884,23.32881],[120.32809,23.32836],[120.32598,23.32887],[120.32585,23.33293],[120.3228,23.33385],[120.32151,23.3327],[120.3188,23.33223],[120.3168,23.33288],[120.31641,23.33125],[120.31559,23.33221],[120.31626,23.33524],[120.31393,23.33528],[120.31042,23.33307],[120.30811,23.33318],[120.30568,23.33609],[120.30518,23.33896],[120.30903,23.34392],[120.30759,23.34521],[120.30459,23.34498],[120.30386,23.34293],[120.3055,23.34084],[120.30345,23.33957],[120.30239,23.33609],[120.30017,23.33617],[120.29756,23.33837],[120.29659,23.34106],[120.29566,23.34099],[120.2958,23.34215],[120.29633,23.34141],[120.29705,23.34171],[120.29583,23.35724],[120.29477,23.35848],[120.29334,23.35672],[120.29128,23.35761],[120.2883,23.35548],[120.28738,23.35128],[120.28622,23.35029],[120.28606,23.35396],[120.28461,23.35625],[120.28367,23.36],[120.28589,23.36722],[120.29274,23.37532],[120.30361,23.37596],[120.30796,23.37495],[120.31095,23.37544],[120.31034,23.3831],[120.3112,23.38339],[120.311,23.38557],[120.31477,23.38846],[120.31784,23.38843],[120.31979,23.38693],[120.31945,23.38604],[120.32169,23.38359],[120.32331,23.38358],[120.32869,23.38612],[120.32894,23.38488],[120.33386,23.3861],[120.34272,23.39622],[120.3431,23.39828],[120.34866,23.40111],[120.35381,23.40126],[120.35985,23.40267],[120.38104,23.40344],[120.38687,23.40476],[120.38698,23.40343]]]}},{"type":"Feature","properties":{"code":"67000070","name":"臺南市麻豆區"},"geometry":{"type":"Polygon","coordinates":[[[120.22292,23.23053],[120.2241,23.23053],[120.22663,23.22771],[120.23339,23.22342],[120.23686,23.21562],[120.24056,23.21622],[120.24091,23.21423],[120.24196,23.21433],[120.24212,23.21297],[120.24631,23.21332],[120.24747,23.20633],[120.24995,23.2046],[120.25505,23.20343],[120.25667,23.20148],[120.26543,23.20324],[120.2674,23.20437],[120.27003,23.20278],[120.26904,23.20165],[120.29033,23.20321],[120.28784,23.19996],[120.2885,23.19794],[120.28765,23.19748],[120.28819,23.1953],[120.28741,23.19264],[120.28749,23.19129],[120.28901,23.1912],[120.2892,23.18922],[120.29129,23.18819],[120.28984,23.17608],[120.27943,23.17464],[120.26988,23.17113],[120.2701,23.17374],[120.26726,23.17124],[120.26532,23.16795],[120.26359,23.16092],[120.26427,23.15851],[120.26357,23.15418],[120.26051,23.1535],[120.2612,23.14481],[120.26285,23.14194],[120.25991,23.13791],[120.25658,23.13579],[120.24323,23.13089],[120.24162,23.13075],[120.24158,23.13719],[120.23715,23.13763],[120.2331,23.14051],[120.21817,23.15609],[120.21743,23.15601],[120.21426,23.1605],[120.21129,23.16642],[120.21313,23.16745],[120.21588,23.16739],[120.21496,23.1736],[120.21386,23.17421],[120.21492,23.17429],[120.21569,23.18369],[120.21468,23.18382],[120.21489,23.18536],[120.20715,23.18774],[120.2076,23.19374],[120.19451,23.19679],[120.19932,23.19992],[120.19873,23.20278],[120.19766,23.20411],[120.19418,23.20336],[120.19383,23.20705],[120.19181,23.20744],[120.19247,23.21079],[120.20033,23.21171],[120.19988,23.21391],[120.2032,23.215],[120.20351,23.21444],[120.20451,23.21505],[120.20541,23.21411],[120.20948,23.21538],[120.21068,23.21728],[120.21179,23.21753],[120.21275,23.21982],[120.21425,23.21988],[120.21568,23.22135],[120.21633,23.22535],[120.21869,23.22936],[120.22082,23.23138],[120.22292,23.23053]]]}},{"type":"Feature","properties":{"code":"67000080","name":"臺南市下營區"},"geometry":{"type":"Polygon","coordinates":[[[120.30001,23.26176],[120.29945,23.2614],[120.29992,23.25806],[120.29693,23.25535],[120.29772,23.25068],[120.29919,23.24806],[120.29747,23.24813],[120.29694,23.24694],[120.29404,23.24491],[120.29377,23.24361],[120.28843,23.23957],[120.28791,23.23711],[120.28676,23.23682],[120.28761,23.23525],[120.28637,23.2337],[120.28736,23.23308],[120.28843,23.23387],[120.28912,23.23162],[120.28604,23.23162],[120.28444,23.2307],[120.28654,23.22869],[120.29036,23.22859],[120.29032,23.22642],[120.29486,23.22105],[120.29377,23.22025],[120.29203,23.22173],[120.29042,23.22056],[120.29025,23.2185],[120.28695,23.21623],[120.28711,23.21543],[120.28885,23.21461],[120.2879,23.21094],[120.28906,23.21015],[120.28955,23.20856],[120.28904,23.20642],[120.29144,23.20678],[120.2927,23.20523],[120.29293,23.20271],[120.29232,23.20184],[120.29027,23.20194],[120.2903,23.20335],[120.26904,23.20165],[120.27003,23.20278],[120.2674,23.20437],[120.26543,23.20324],[120.25667,23.20148],[120.25505,23.20343],[120.24995,23.2046],[120.24747,23.20633],[120.24631,23.21332],[120.24212,23.21297],[120.24196,23.21433],[120.24091,23.21423],[120.24056,23.21622],[120.23686,23.21562],[120.23339,23.22342],[120.22663,23.22771],[120.2241,23.23053],[120.22082,23.23138],[120.22016,23.23257],[120.22179,23.2361],[120.22558,23.23656],[120.23245,23.24223],[120.23141,23.2425],[120.22864,23.24651],[120.22867,23.24732],[120.23169,23.24904],[120.23338,23.24874],[120.23691,23.24326],[120.23982,23.24357],[120.24242,23.24519],[120.24305,23.24434],[120.25318,23.24999],[120.25468,23.24864],[120.26319,23.25338],[120.26315,23.25423],[120.26714,23.25544],[120.26779,23.25727],[120.27146,23.25721],[120.27214,23.25803],[120.27211,23.26125],[120.27721,23.2609],[120.28042,23.26186],[120.28384,23.26017],[120.28721,23.26007],[120.2883,23.26042],[120.28917,23.26222],[120.29433,23.26181],[120.29545,23.26429],[120.29713,23.26487],[120.30001,23.26176]]]}},{"type":"Feature","properties":{"code":"67000090","name":"臺南市六甲區"},"geometry":{"type":"Polygon","coordinates":[[[120.30788,23.26352],[120.30986,23.26256],[120.3098,23.26012],[120.31516,23.25909],[120.31871,23.26336],[120.32079,23.2631],[120.32231,23.26107],[120.32461,23.26359],[120.32588,23.26232],[120.32605,23.26053],[120.32812,23.26033],[120.32963,23.26111],[120.33026,23.25783],[120.33146,23.25879],[120.33301,23.26326],[120.33536,23.26342],[120.33861,23.25739],[120.34125,23.25527],[120.34248,23.25491],[120.34467,23.25646],[120.34656,23.25663],[120.35169,23.25212],[120.35192,23.24817],[120.35038,23.24403],[120.35485,23.24199],[120.35896,23.24168],[120.36236,23.2382],[120.36191,23.23498],[120.36579,23.23627],[120.36577,23.238],[120.36819,23.23986],[120.37037,23.23971],[120.37316,23.24103],[120.37334,23.2403],[120.37581,23.24006],[120.38095,23.23677],[120.38303,23.23747],[120.38761,23.23515],[120.39074,23.23595],[120.39466,23.234],[120.39679,23.23107],[120.40128,23.23047],[120.40228,23.23348],[120.40831,23.23392],[120.41044,23.2353],[120.412,23.23502],[120.41704,23.23725],[120.4185,23.23856],[120.422,23.23908],[120.42351,23.24162],[120.42336,23.24468],[120.42427,23.24538],[120.43271,23.23916],[120.43303,23.2358],[120.43458,23.23702],[120.4364,23.23665],[120.43737,23.23735],[120.44012,23.23724],[120.44187,23.23561],[120.4454,23.23745],[120.4426,23.22937],[120.44296,23.22748],[120.44441,23.22927],[120.44475,23.22714],[120.44609,23.22767],[120.44768,23.23069],[120.45047,23.23191],[120.45175,23.23044],[120.45351,23.23031],[120.45518,23.23123],[120.46007,23.22812],[120.46463,23.22738],[120.46493,23.22789],[120.46789,23.22538],[120.46988,23.22588],[120.47145,23.22491],[120.47604,23.22443],[120.47706,23.223],[120.47524,23.22222],[120.47459,23.22058],[120.47093,23.21715],[120.47047,23.21454],[120.46826,23.213],[120.46829,23.2113],[120.4632,23.20314],[120.4637,23.20234],[120.46311,23.19957],[120.46162,23.19871],[120.46022,23.19431],[120.45807,23.19233],[120.44961,23.19945],[120.44661,23.19948],[120.44383,23.19778],[120.4423,23.19923],[120.44039,23.19872],[120.43307,23.20132],[120.43149,23.20028],[120.43004,23.20066],[120.43041,23.20136],[120.42874,23.20054],[120.42695,23.20131],[120.42451,23.19886],[120.42333,23.20118],[120.42075,23.20115],[120.41731,23.20528],[120.41578,23.20457],[120.41322,23.20667],[120.41223,23.20647],[120.41222,23.20492],[120.40395,23.20675],[120.39285,23.20645],[120.39213,23.20496],[120.389,23.20344],[120.3891,23.20216],[120.38666,23.20043],[120.38611,23.1987],[120.38491,23.19902],[120.38044,23.19588],[120.37397,23.20468],[120.37188,23.20446],[120.37034,23.21031],[120.37114,23.21192],[120.37038,23.21303],[120.37088,23.21545],[120.36793,23.215],[120.36621,23.21563],[120.36502,23.21501],[120.36261,23.21567],[120.36185,23.21371],[120.35891,23.21276],[120.35735,23.21456],[120.35582,23.21507],[120.35624,23.216],[120.35338,23.21574],[120.35035,23.21743],[120.34949,23.21681],[120.34977,23.21333],[120.34628,23.21459],[120.34384,23.21404],[120.34283,23.21442],[120.34437,23.22009],[120.34106,23.22071],[120.34114,23.22294],[120.3336,23.22177],[120.33366,23.22496],[120.33461,23.22614],[120.33066,23.22699],[120.32917,23.2261],[120.3279,23.22664],[120.32853,23.228],[120.32764,23.2285],[120.32268,23.22785],[120.31986,23.22898],[120.31311,23.22836],[120.31268,23.22749],[120.31122,23.22768],[120.30948,23.22609],[120.30344,23.22568],[120.29911,23.22404],[120.29579,23.22443],[120.29321,23.22334],[120.29032,23.22642],[120.29026,23.22867],[120.28783,23.22832],[120.28528,23.2296],[120.28444,23.2307],[120.2855,23.23142],[120.28912,23.23162],[120.28843,23.23387],[120.28736,23.23308],[120.28637,23.2337],[120.28761,23.23525],[120.28676,23.23682],[120.28791,23.23711],[120.28924,23.24068],[120.29377,23.24361],[120.29404,23.24491],[120.29694,23.24694],[120.29747,23.24813],[120.29919,23.24806],[120.29772,23.25068],[120.29693,23.25535],[120.29992,23.25806],[120.29945,23.2614],[120.30001,23.26176],[120.29936,23.26253],[120.30528,23.26388],[120.30788,23.26352]]]}},{"type":"Feature","properties":{"code":"67000100","name":"臺南市官田區"},"geometry":{"type":"Polygon","coordinates":[[[120.32014,23.22889],[120.32224,23.22786],[120.32775,23.22847],[120.32853,23.228],[120.3279,23.22664],[120.32917,23.2261],[120.33066,23.22699],[120.33461,23.22614],[120.33366,23.22496],[120.3336,23.22177],[120.34114,23.22294],[120.34106,23.22071],[120.34437,23.22009],[120.34283,23.21442],[120.34384,23.21404],[120.34628,23.21459],[120.34977,23.21333],[120.34949,23.21681],[120.35035,23.21743],[120.35338,23.21574],[120.35624,23.216],[120.35582,23.21507],[120.35735,23.21456],[120.35891,23.21276],[120.36185,23.21371],[120.36261,23.21567],[120.36502,23.21501],[120.36621,23.21563],[120.36793,23.215],[120.37088,23.21545],[120.37038,23.21303],[120.37114,23.21192],[120.37034,23.21031],[120.37188,23.20446],[120.37397,23.20468],[120.38044,23.19588],[120.38491,23.19902],[120.38611,23.1987],[120.38666,23.20043],[120.3891,23.20216],[120.389,23.20344],[120.39213,23.20496],[120.3928,23.20642],[120.39572,23.20627],[120.39757,23.20704],[120.39946,23.2064],[120.40395,23.20675],[120.41171,23.20493],[120.41256,23.20518],[120.41232,23.20657],[120.41339,23.20666],[120.41578,23.20457],[120.41731,23.20528],[120.42075,23.20115],[120.42333,23.20118],[120.42451,23.19886],[120.42672,23.20125],[120.42874,23.20054],[120.43053,23.20116],[120.42573,23.19746],[120.42553,23.19586],[120.42265,23.19375],[120.41992,23.18711],[120.41834,23.18571],[120.41493,23.17844],[120.41263,23.17912],[120.41116,23.17847],[120.40957,23.17742],[120.40841,23.17442],[120.40695,23.17466],[120.40591,23.17377],[120.40512,23.17587],[120.40278,23.17602],[120.40003,23.17277],[120.39923,23.17263],[120.3982,23.17385],[120.3972,23.1734],[120.39574,23.16947],[120.39857,23.1679],[120.3944,23.16655],[120.39337,23.16427],[120.39058,23.16345],[120.38512,23.16514],[120.38446,23.1644],[120.37983,23.16456],[120.37816,23.16378],[120.37814,23.16447],[120.37661,23.16429],[120.37651,23.16524],[120.37595,23.16452],[120.37394,23.1644],[120.37199,23.16526],[120.37164,23.16466],[120.37046,23.16495],[120.36934,23.16376],[120.36819,23.16414],[120.36638,23.16341],[120.3647,23.16181],[120.36475,23.16094],[120.36244,23.16112],[120.36157,23.1567],[120.35963,23.15673],[120.35773,23.15432],[120.35634,23.15451],[120.35607,23.15543],[120.35507,23.15522],[120.35316,23.15154],[120.34972,23.15059],[120.34587,23.151],[120.3429,23.15347],[120.33128,23.1597],[120.3202,23.16852],[120.3088,23.17254],[120.30634,23.17505],[120.29911,23.17636],[120.28984,23.17608],[120.2913,23.18811],[120.2892,23.18922],[120.28901,23.1912],[120.28749,23.19129],[120.28819,23.1953],[120.28765,23.19748],[120.2885,23.19794],[120.28784,23.19996],[120.28993,23.20225],[120.29238,23.20188],[120.29287,23.20381],[120.29155,23.20672],[120.28904,23.20642],[120.28955,23.20856],[120.28906,23.21015],[120.2879,23.21094],[120.28885,23.21461],[120.28711,23.21543],[120.28698,23.21636],[120.29025,23.2185],[120.29042,23.22056],[120.29203,23.22173],[120.29365,23.2203],[120.29462,23.2204],[120.29456,23.2219],[120.29321,23.22334],[120.29444,23.22406],[120.30038,23.22424],[120.30344,23.22568],[120.30948,23.22609],[120.31122,23.22768],[120.31268,23.22749],[120.31311,23.22836],[120.32014,23.22889]]]}},{"type":"Feature","properties":{"code":"67000110","name":"臺南市大內區"},"geometry":{"type":"Polygon","coordinates":[[[120.43573,23.20031],[120.44039,23.19872],[120.4423,23.19923],[120.44383,23.19778],[120.44661,23.19948],[120.44961,23.19945],[120.45176,23.19718],[120.45428,23.19616],[120.45533,23.19425],[120.45807,23.19225],[120.45444,23.18574],[120.45286,23.18483],[120.45309,23.18367],[120.44924,23.17841],[120.44751,23.17391],[120.44342,23.16853],[120.44369,23.16502],[120.4389,23.16286],[120.43882,23.15992],[120.43667,23.15802],[120.43646,23.15617],[120.43373,23.15392],[120.43382,23.15155],[120.43526,23.14976],[120.43522,23.14705],[120.43106,23.13743],[120.43632,23.13253],[120.43535,23.12597],[120.4368,23.12323],[120.43562,23.12043],[120.4308,23.11616],[120.43029,23.11381],[120.42889,23.11367],[120.42952,23.11157],[120.42793,23.11187],[120.42867,23.11098],[120.42733,23.11105],[120.42724,23.10999],[120.42628,23.1106],[120.42523,23.10845],[120.42426,23.10884],[120.41996,23.10486],[120.41831,23.10456],[120.41767,23.1066],[120.4195,23.10891],[120.41776,23.1119],[120.41184,23.11119],[120.41009,23.11314],[120.40909,23.11296],[120.40895,23.11398],[120.40566,23.11564],[120.40262,23.11565],[120.39904,23.10776],[120.39753,23.10825],[120.39681,23.10768],[120.39558,23.10857],[120.39549,23.10742],[120.39338,23.10632],[120.3869,23.10584],[120.38509,23.10294],[120.38301,23.10174],[120.3768,23.10155],[120.36934,23.0999],[120.34976,23.11457],[120.34345,23.12297],[120.33941,23.13296],[120.33931,23.13765],[120.34467,23.14237],[120.34627,23.14905],[120.34587,23.151],[120.34972,23.15059],[120.35316,23.15154],[120.35507,23.15522],[120.35607,23.15543],[120.35634,23.15451],[120.35773,23.15432],[120.35963,23.15673],[120.36157,23.1567],[120.36244,23.16112],[120.36475,23.16094],[120.3647,23.16181],[120.36638,23.16341],[120.36819,23.16414],[120.36934,23.16376],[120.37046,23.16495],[120.37164,23.16466],[120.37199,23.16526],[120.37394,23.1644],[120.37595,23.16452],[120.37651,23.16524],[120.37661,23.16429],[120.37814,23.16447],[120.37816,23.16378],[120.37983,23.16456],[120.38446,23.1644],[120.38512,23.16514],[120.39058,23.16345],[120.39337,23.16427],[120.3944,23.16655],[120.39857,23.1679],[120.39574,23.16947],[120.39711,23.17333],[120.39815,23.17386],[120.39923,23.17263],[120.40003,23.17277],[120.40278,23.17602],[120.40512,23.17587],[120.40591,23.17377],[120.40695,23.17466],[120.40841,23.17442],[120.40957,23.17742],[120.41116,23.17847],[120.41263,23.17912],[120.41493,23.17844],[120.41834,23.18571],[120.41992,23.18711],[120.42265,23.19375],[120.42553,23.19586],[120.42573,23.19746],[120.43,23.2007],[120.43159,23.20029],[120.43307,23.20132],[120.43573,23.20031]]]}},{"type":"Feature","properties":{"code":"67000120","name":"臺南市佳里區"},"geometry":{"type":"Polygon","coordinates":[[[120.18458,23.20967],[120.18508,23.20681],[120.18837,23.20793],[120.18941,23.21004],[120.19196,23.20965],[120.19181,23.20744],[120.19383,23.20705],[120.19418,23.20336],[120.19766,23.20411],[120.19927,23.20023],[120.19451,23.19679],[120.2076,23.19374],[120.20715,23.18774],[120.21489,23.18536],[120.21468,23.18382],[120.21571,23.18359],[120.21547,23.17809],[120.21492,23.17429],[120.21386,23.17421],[120.21496,23.1736],[120.21588,23.16739],[120.21313,23.16745],[120.21129,23.16642],[120.21447,23.16021],[120.21102,23.15948],[120.20915,23.16142],[120.20297,23.16353],[120.20279,23.16271],[120.1925,23.15982],[120.19598,23.15141],[120.18777,23.14847],[120.19075,23.145],[120.18385,23.14102],[120.18038,23.14072],[120.18006,23.13675],[120.17395,23.13649],[120.17456,23.12201],[120.17129,23.12153],[120.16925,23.12314],[120.16754,23.12292],[120.16837,23.11724],[120.16106,23.11628],[120.16127,23.12015],[120.16232,23.12141],[120.15804,23.12411],[120.1518,23.12255],[120.152,23.12661],[120.14893,23.12721],[120.14888,23.1344],[120.15571,23.13482],[120.15502,23.13505],[120.15422,23.13846],[120.15375,23.14356],[120.1554,23.14893],[120.15814,23.15216],[120.15889,23.15717],[120.1567,23.15613],[120.15662,23.15814],[120.15361,23.1579],[120.15331,23.16387],[120.15002,23.16575],[120.14494,23.16685],[120.14566,23.17047],[120.14727,23.17329],[120.14482,23.17461],[120.14496,23.17536],[120.14825,23.17599],[120.14712,23.17983],[120.15308,23.17939],[120.15187,23.18267],[120.15032,23.18416],[120.15122,23.18491],[120.15128,23.18685],[120.15234,23.18687],[120.1523,23.1879],[120.15596,23.18815],[120.15936,23.18496],[120.16071,23.18518],[120.16164,23.18364],[120.16699,23.18397],[120.16978,23.18511],[120.17079,23.18744],[120.17131,23.19256],[120.17446,23.19697],[120.17577,23.20296],[120.17829,23.20847],[120.17715,23.2133],[120.18505,23.21056],[120.18458,23.20967]]]}},{"type":"Feature","properties":{"code":"67000130","name":"臺南市學甲區"},"geometry":{"type":"Polygon","coordinates":[[[120.20189,23.29305],[120.20794,23.29125],[120.21191,23.2927],[120.21227,23.28201],[120.21064,23.28136],[120.21127,23.28016],[120.21088,23.27778],[120.20966,23.27665],[120.20653,23.27616],[120.20434,23.27423],[120.20009,23.27364],[120.19761,23.27137],[120.19619,23.27225],[120.1936,23.27621],[120.19399,23.27172],[120.19184,23.26587],[120.19497,23.26362],[120.19556,23.26086],[120.19743,23.2617],[120.19874,23.26092],[120.19825,23.25765],[120.19891,23.25765],[120.20069,23.25862],[120.20184,23.26105],[120.20339,23.26228],[120.20559,23.26196],[120.20422,23.25897],[120.20646,23.25992],[120.20796,23.26138],[120.2078,23.26392],[120.20915,23.26465],[120.21142,23.26414],[120.20989,23.26091],[120.21608,23.26223],[120.21678,23.26617],[120.22042,23.26673],[120.22211,23.26866],[120.22307,23.26622],[120.2193,23.26448],[120.2188,23.26274],[120.21992,23.26208],[120.2205,23.26325],[120.22123,23.26322],[120.22575,23.2619],[120.22214,23.26112],[120.2227,23.25615],[120.22983,23.25186],[120.22889,23.25161],[120.22864,23.25],[120.22754,23.24985],[120.22754,23.24858],[120.23141,23.2425],[120.23247,23.24229],[120.22558,23.23656],[120.22132,23.23565],[120.22013,23.23278],[120.22104,23.23165],[120.21862,23.22928],[120.21639,23.22546],[120.21605,23.22202],[120.21439,23.21999],[120.21275,23.21982],[120.21179,23.21753],[120.20748,23.21436],[120.20531,23.21411],[120.20451,23.21505],[120.20351,23.21444],[120.20327,23.21501],[120.20005,23.21402],[120.20033,23.21171],[120.19247,23.21079],[120.19196,23.20965],[120.18941,23.21004],[120.18837,23.20793],[120.18508,23.20681],[120.18437,23.2084],[120.18513,23.20877],[120.18447,23.20941],[120.18505,23.21056],[120.17715,23.2133],[120.17489,23.22318],[120.17379,23.22509],[120.17002,23.22758],[120.16835,23.23299],[120.16185,23.23772],[120.15871,23.23794],[120.14443,23.23385],[120.13559,23.22897],[120.13812,23.23588],[120.13807,23.23887],[120.14107,23.23925],[120.1412,23.24091],[120.14316,23.24125],[120.1426,23.24465],[120.1396,23.2469],[120.13976,23.25025],[120.13608,23.25164],[120.13561,23.25331],[120.13343,23.25312],[120.13413,23.25609],[120.14151,23.26244],[120.14346,23.26235],[120.14787,23.26038],[120.15035,23.26539],[120.1524,23.26756],[120.1498,23.27514],[120.15081,23.27546],[120.14973,23.27996],[120.15016,23.28216],[120.14539,23.28648],[120.14414,23.29338],[120.1468,23.29332],[120.14893,23.28948],[120.15168,23.28691],[120.15657,23.28878],[120.15925,23.28482],[120.16304,23.28202],[120.16702,23.27762],[120.16856,23.27962],[120.1712,23.2811],[120.1801,23.28264],[120.18311,23.28171],[120.18362,23.28415],[120.18112,23.28557],[120.17966,23.28452],[120.17894,23.28561],[120.18177,23.28742],[120.18277,23.28714],[120.1829,23.2879],[120.18489,23.28755],[120.18407,23.29032],[120.18829,23.29007],[120.18943,23.29073],[120.18936,23.29235],[120.18615,23.29538],[120.18579,23.2966],[120.18841,23.30123],[120.19169,23.30027],[120.20189,23.29305]]]}},{"type":"Feature","properties":{"code":"67000140","name":"臺南市西港區"},"geometry":{"type":"Polygon","coordinates":[[[120.20602,23.16229],[120.20915,23.16142],[120.21102,23.15948],[120.21447,23.16021],[120.21743,23.15601],[120.21817,23.15609],[120.2331,23.14051],[120.23715,23.13763],[120.24158,23.13719],[120.24162,23.13075],[120.23062,23.12651],[120.21697,23.11559],[120.20278,23.10719],[120.20308,23.09993],[120.20103,23.09859],[120.19808,23.09355],[120.18167,23.07759],[120.18121,23.07837],[120.17641,23.07833],[120.17624,23.08121],[120.17501,23.0811],[120.1727,23.08355],[120.17464,23.08551],[120.17601,23.09896],[120.17362,23.09967],[120.17206,23.10293],[120.17811,23.11109],[120.17554,23.11791],[120.17129,23.12153],[120.17456,23.12201],[120.17395,23.13649],[120.18006,23.13675],[120.18038,23.14072],[120.18385,23.14102],[120.19075,23.145],[120.18777,23.14847],[120.19598,23.15141],[120.1925,23.15982],[120.20279,23.16271],[120.20297,23.16353],[120.20602,23.16229]]]}},{"type":"Feature","properties":{"code":"67000180","name":"臺南市新化區"},"geometry":{"type":"Polygon","coordinates":[[[120.34157,23.08258],[120.34209,23.08157],[120.34153,23.08001],[120.34222,23.07939],[120.34541,23.0808],[120.34848,23.07925],[120.35073,23.08107],[120.35112,23.07889],[120.34984,23.0758],[120.35156,23.07566],[120.35331,23.07268],[120.35449,23.07365],[120.35405,23.07508],[120.35478,23.07713],[120.35677,23.07631],[120.35724,23.0751],[120.35621,23.07364],[120.35844,23.07219],[120.35826,23.07025],[120.36136,23.07061],[120.35909,23.06607],[120.35984,23.06407],[120.36303,23.0642],[120.3643,23.06214],[120.3633,23.06147],[120.3616,23.06186],[120.36141,23.06124],[120.36368,23.05848],[120.36568,23.05937],[120.366,23.05843],[120.36755,23.05814],[120.36676,23.05732],[120.36772,23.05657],[120.36573,23.05527],[120.36585,23.05425],[120.36664,23.05418],[120.36888,23.05683],[120.36979,23.05635],[120.37048,23.05282],[120.37358,23.05297],[120.37276,23.05078],[120.37404,23.05111],[120.37463,23.04946],[120.37347,23.0473],[120.37468,23.04743],[120.37667,23.0459],[120.37652,23.04396],[120.37527,23.04273],[120.37707,23.04284],[120.37809,23.04164],[120.37543,23.03981],[120.37756,23.03823],[120.37864,23.03472],[120.37786,23.03386],[120.37891,23.03353],[120.37576,23.03324],[120.37644,23.03158],[120.37527,23.03166],[120.37502,23.02944],[120.3739,23.02851],[120.37384,23.02594],[120.37573,23.02518],[120.37467,23.02323],[120.37522,23.02089],[120.37597,23.02045],[120.37788,23.0215],[120.37965,23.02131],[120.38034,23.01946],[120.38125,23.01908],[120.38211,23.02003],[120.3842,23.01972],[120.38576,23.02125],[120.38893,23.01995],[120.38861,23.01556],[120.38714,23.01438],[120.38849,23.0134],[120.38678,23.01331],[120.3866,23.012],[120.38774,23.01052],[120.39193,23.00971],[120.39272,23.00764],[120.3905,23.00473],[120.38955,23.0077],[120.38743,23.00777],[120.38636,23.00863],[120.38427,23.00833],[120.38258,23.00643],[120.3826,23.00472],[120.37939,23.00519],[120.37797,23.00453],[120.37654,23.00589],[120.37439,23.00447],[120.37155,23.00473],[120.36785,23.00362],[120.36499,23.00165],[120.36114,23.00473],[120.35757,23.00417],[120.35461,23.00148],[120.35349,23.00139],[120.35295,23.00021],[120.3518,23.00014],[120.35085,22.99567],[120.34839,22.9936],[120.34858,22.99252],[120.34502,22.9905],[120.34393,22.98877],[120.34278,22.98867],[120.34004,22.98972],[120.34144,22.99228],[120.33471,22.99428],[120.33284,22.99819],[120.33331,23.00168],[120.32877,23.00983],[120.32466,23.00925],[120.31858,23.01093],[120.31553,23.01059],[120.31299,23.01292],[120.31008,23.01319],[120.30957,23.0117],[120.30351,23.01144],[120.30271,23.01032],[120.29932,23.01048],[120.29403,23.01521],[120.28408,23.01955],[120.28326,23.02188],[120.28329,23.02684],[120.28413,23.02808],[120.28754,23.0298],[120.289,23.03254],[120.2847,23.03703],[120.28243,23.03794],[120.2818,23.0409],[120.28301,23.04346],[120.28452,23.04388],[120.28668,23.04615],[120.28681,23.04753],[120.28448,23.04878],[120.28389,23.05028],[120.28172,23.0515],[120.27789,23.0561],[120.27969,23.05625],[120.28099,23.05521],[120.28323,23.05628],[120.28721,23.05617],[120.28948,23.05376],[120.2925,23.05429],[120.29412,23.05306],[120.29561,23.05309],[120.29388,23.05821],[120.29724,23.06039],[120.29773,23.05933],[120.30168,23.05983],[120.30187,23.05528],[120.30279,23.0533],[120.30458,23.0537],[120.30754,23.05632],[120.31209,23.0574],[120.31355,23.05865],[120.31533,23.05774],[120.31681,23.05926],[120.3209,23.0596],[120.32167,23.06128],[120.32343,23.06089],[120.32339,23.0601],[120.32466,23.05946],[120.32798,23.06102],[120.32928,23.06056],[120.33091,23.06169],[120.332,23.06376],[120.33732,23.06785],[120.33515,23.07052],[120.33968,23.075],[120.33594,23.0781],[120.33503,23.08104],[120.34054,23.08354],[120.34157,23.08258]]]}},{"type":"Feature","properties":{"code":"67000200","name":"臺南市新市區"},"geometry":{"type":"Polygon","coordinates":[[[120.27927,23.11061],[120.27948,23.10997],[120.28179,23.1099],[120.28119,23.10612],[120.28685,23.10944],[120.28657,23.11014],[120.28814,23.11103],[120.28959,23.10735],[120.2936,23.11003],[120.29555,23.10936],[120.29595,23.10663],[120.29748,23.10667],[120.29854,23.10562],[120.30947,23.11064],[120.31356,23.10995],[120.32085,23.10716],[120.32142,23.10799],[120.32313,23.10723],[120.32517,23.10779],[120.32519,23.10627],[120.33288,23.10656],[120.33589,23.09901],[120.34409,23.08909],[120.34343,23.0884],[120.3441,23.08402],[120.34125,23.08395],[120.33498,23.08093],[120.33594,23.0781],[120.33968,23.075],[120.33515,23.07052],[120.33732,23.06785],[120.332,23.06376],[120.33091,23.06169],[120.32928,23.06056],[120.32798,23.06102],[120.32466,23.05946],[120.32339,23.0601],[120.32343,23.06089],[120.32167,23.06128],[120.3209,23.0596],[120.31681,23.05926],[120.31533,23.05774],[120.31364,23.05868],[120.31209,23.0574],[120.30952,23.05721],[120.30417,23.05353],[120.30248,23.05366],[120.30168,23.05983],[120.29773,23.05933],[120.29724,23.06039],[120.29388,23.05821],[120.29579,23.05334],[120.29483,23.05296],[120.2925,23.05429],[120.28948,23.05376],[120.28721,23.05617],[120.28323,23.05628],[120.28073,23.05524],[120.27969,23.05625],[120.27789,23.05641],[120.27771,23.05912],[120.27679,23.05971],[120.2705,23.05938],[120.26821,23.06087],[120.26565,23.06101],[120.26409,23.06195],[120.26064,23.06137],[120.25973,23.05958],[120.25702,23.05973],[120.25519,23.06169],[120.2526,23.06145],[120.25173,23.06677],[120.24918,23.06676],[120.24805,23.06764],[120.24693,23.0656],[120.24152,23.06614],[120.24109,23.06655],[120.24234,23.06757],[120.24184,23.07853],[120.24281,23.07955],[120.24783,23.07815],[120.24782,23.08193],[120.24621,23.08357],[120.24815,23.08363],[120.24696,23.08452],[120.24806,23.0852],[120.24853,23.08672],[120.24707,23.09289],[120.24887,23.09735],[120.24872,23.09875],[120.24846,23.0995],[120.24461,23.10085],[120.24394,23.10259],[120.25167,23.1046],[120.25222,23.10694],[120.25581,23.10796],[120.25664,23.10515],[120.25871,23.10607],[120.26182,23.10512],[120.26824,23.10855],[120.26747,23.10625],[120.26975,23.1072],[120.27048,23.10488],[120.27147,23.10578],[120.27208,23.10865],[120.27497,23.11111],[120.276,23.11059],[120.27781,23.11141],[120.27927,23.11061]]]}},{"type":"Feature","properties":{"code":"67000210","name":"臺南市安定區"},"geometry":{"type":"Polygon","coordinates":[[[120.25516,23.13253],[120.25606,23.13267],[120.25593,23.1312],[120.25946,23.13166],[120.25965,23.13065],[120.26055,23.13141],[120.26104,23.13001],[120.26212,23.13013],[120.26299,23.12799],[120.26165,23.12812],[120.26286,23.12453],[120.26466,23.1254],[120.26611,23.12139],[120.26906,23.12265],[120.26923,23.12211],[120.26728,23.11652],[120.26539,23.11608],[120.26458,23.11333],[120.26135,23.10977],[120.2592,23.10849],[120.25297,23.10742],[120.25178,23.10657],[120.25167,23.1046],[120.24394,23.10259],[120.24461,23.10085],[120.24846,23.0995],[120.24872,23.09875],[120.24887,23.09735],[120.24707,23.09289],[120.24853,23.08672],[120.24806,23.0852],[120.24696,23.08452],[120.24815,23.08363],[120.24621,23.08357],[120.24782,23.08193],[120.24783,23.07815],[120.24281,23.07955],[120.24184,23.07853],[120.24234,23.06757],[120.2412,23.06663],[120.23784,23.06696],[120.23487,23.06974],[120.2244,23.07275],[120.22336,23.07579],[120.22274,23.07584],[120.22106,23.07541],[120.22052,23.07389],[120.21673,23.07429],[120.21416,23.07353],[120.21323,23.06969],[120.20672,23.06856],[120.20561,23.07006],[120.2021,23.06773],[120.19963,23.07189],[120.20717,23.07855],[120.20247,23.07788],[120.1874,23.08313],[120.19808,23.09355],[120.20103,23.09859],[120.20308,23.09993],[120.20278,23.10719],[120.21697,23.11559],[120.23225,23.12738],[120.25432,23.13499],[120.2549,23.13504],[120.25516,23.13253]]]}},{"type":"Feature","properties":{"code":"67000230","name":"臺南市玉井區"},"geometry":{"type":"Polygon","coordinates":[[[120.45938,23.17998],[120.46139,23.1783],[120.4607,23.17828],[120.46035,23.17567],[120.46123,23.17447],[120.46263,23.17653],[120.46488,23.17606],[120.46385,23.17583],[120.46486,23.17503],[120.46367,23.17415],[120.46581,23.17265],[120.46547,23.17174],[120.4668,23.17196],[120.46661,23.17085],[120.46788,23.16928],[120.46863,23.1694],[120.46693,23.168],[120.46964,23.16735],[120.46945,23.16625],[120.47036,23.16548],[120.47332,23.16613],[120.4729,23.1652],[120.47404,23.16452],[120.47482,23.16253],[120.47393,23.15671],[120.47631,23.15509],[120.47451,23.15169],[120.47514,23.14831],[120.47069,23.14128],[120.47278,23.13923],[120.47752,23.14135],[120.47808,23.14098],[120.47744,23.13999],[120.4796,23.13972],[120.48026,23.14051],[120.47992,23.14144],[120.48184,23.14278],[120.48567,23.14089],[120.48556,23.13969],[120.48702,23.13818],[120.48499,23.13391],[120.48743,23.13046],[120.48583,23.13007],[120.48541,23.12873],[120.48777,23.12389],[120.49063,23.12311],[120.4954,23.12393],[120.49757,23.12184],[120.49928,23.12161],[120.499,23.11964],[120.50028,23.1186],[120.50449,23.11789],[120.50827,23.12525],[120.51234,23.12269],[120.51613,23.12193],[120.51744,23.12238],[120.51967,23.11965],[120.52727,23.11625],[120.52505,23.11295],[120.52473,23.11062],[120.52293,23.10978],[120.5206,23.10672],[120.51583,23.09578],[120.51367,23.0947],[120.51165,23.09177],[120.50779,23.09156],[120.49996,23.08736],[120.49756,23.08895],[120.49615,23.0881],[120.49254,23.08819],[120.48951,23.0872],[120.48753,23.08867],[120.4863,23.08839],[120.48501,23.09109],[120.48163,23.09041],[120.47762,23.08328],[120.4798,23.08237],[120.4815,23.08052],[120.47926,23.07656],[120.4793,23.07307],[120.47687,23.07266],[120.47571,23.07383],[120.47448,23.07281],[120.47338,23.07376],[120.4724,23.07338],[120.47116,23.07405],[120.46901,23.07352],[120.46774,23.07185],[120.46681,23.072],[120.46488,23.07525],[120.46274,23.07518],[120.46196,23.07618],[120.4614,23.07988],[120.4623,23.08114],[120.45964,23.08467],[120.45663,23.08447],[120.45498,23.08034],[120.45276,23.07849],[120.44867,23.07979],[120.44619,23.07853],[120.44561,23.07662],[120.44184,23.07615],[120.444,23.07209],[120.44325,23.06716],[120.44129,23.06705],[120.44052,23.06453],[120.43731,23.0644],[120.43553,23.0634],[120.43411,23.06525],[120.43233,23.06607],[120.42887,23.06599],[120.42827,23.06576],[120.42865,23.06453],[120.42646,23.06281],[120.42339,23.07024],[120.42074,23.06956],[120.41878,23.07027],[120.41487,23.07005],[120.41502,23.07193],[120.41372,23.07391],[120.41347,23.07608],[120.4111,23.07893],[120.40977,23.07922],[120.41036,23.08118],[120.40633,23.08688],[120.41008,23.09066],[120.41076,23.09404],[120.41238,23.09424],[120.41413,23.0976],[120.41414,23.09942],[120.41836,23.10219],[120.41831,23.10456],[120.41996,23.10486],[120.42426,23.10884],[120.42523,23.10845],[120.42628,23.1106],[120.42724,23.10999],[120.42733,23.11105],[120.42867,23.11098],[120.42793,23.11187],[120.42952,23.11157],[120.42889,23.11367],[120.43024,23.11375],[120.4308,23.11616],[120.43658,23.12207],[120.4368,23.12323],[120.43535,23.12597],[120.43632,23.13253],[120.43106,23.13743],[120.43522,23.14705],[120.43526,23.14976],[120.43382,23.15155],[120.43373,23.15392],[120.43646,23.15617],[120.43667,23.15802],[120.43882,23.15992],[120.4389,23.16286],[120.44369,23.16502],[120.44342,23.16853],[120.44763,23.17411],[120.44924,23.17841],[120.45309,23.18367],[120.45286,23.18483],[120.45444,23.18574],[120.4569,23.18998],[120.46097,23.18716],[120.46147,23.18429],[120.45938,23.17998]]]}},{"type":"Feature","properties":{"code":"67000240","name":"臺南市楠西區"},"geometry":{"type":"Polygon","coordinates":[[[120.52657,23.231],[120.52959,23.23257],[120.53133,23.23173],[120.53196,23.22967],[120.54151,23.22783],[120.54853,23.22399],[120.54978,23.22134],[120.55251,23.22027],[120.55498,23.21747],[120.55808,23.21682],[120.56137,23.21741],[120.56529,23.22098],[120.57103,23.21821],[120.57487,23.2177],[120.57824,23.2148],[120.57709,23.20827],[120.57831,23.20463],[120.58002,23.20308],[120.57615,23.20137],[120.57448,23.19934],[120.57335,23.19121],[120.5687,23.18577],[120.56745,23.18279],[120.56803,23.18056],[120.56746,23.17888],[120.56431,23.1734],[120.56099,23.17015],[120.5588,23.16632],[120.5566,23.15857],[120.55464,23.15559],[120.55261,23.15421],[120.55208,23.1525],[120.54931,23.15101],[120.54611,23.14563],[120.5432,23.14368],[120.5438,23.1408],[120.54714,23.13936],[120.54787,23.13622],[120.55013,23.13366],[120.55037,23.13174],[120.54877,23.1282],[120.54939,23.12627],[120.5486,23.12151],[120.54939,23.12025],[120.54874,23.11876],[120.54664,23.11734],[120.5449,23.11742],[120.53967,23.11975],[120.5367,23.11515],[120.53392,23.11586],[120.53304,23.11857],[120.52959,23.11909],[120.52773,23.11773],[120.52727,23.11625],[120.52458,23.11714],[120.51967,23.11965],[120.51744,23.12238],[120.51613,23.12193],[120.51234,23.12269],[120.50827,23.12525],[120.50449,23.11789],[120.50028,23.1186],[120.499,23.11964],[120.49928,23.12161],[120.49757,23.12184],[120.4954,23.12393],[120.49063,23.12311],[120.48777,23.12389],[120.48541,23.12873],[120.48583,23.13007],[120.48743,23.13046],[120.48499,23.13391],[120.48702,23.13818],[120.48556,23.13969],[120.48567,23.14089],[120.48184,23.14278],[120.47992,23.14144],[120.48026,23.14051],[120.4796,23.13972],[120.47744,23.13999],[120.47808,23.14098],[120.47752,23.14135],[120.47278,23.13923],[120.47069,23.14128],[120.47514,23.14831],[120.47451,23.15169],[120.47631,23.15509],[120.47393,23.15671],[120.47488,23.16232],[120.47404,23.16452],[120.4729,23.1652],[120.47332,23.16613],[120.47036,23.16548],[120.46945,23.16625],[120.46964,23.16735],[120.46693,23.168],[120.46863,23.1694],[120.46788,23.16928],[120.46661,23.17085],[120.4668,23.17196],[120.46547,23.17174],[120.46581,23.17265],[120.46367,23.17415],[120.46485,23.17495],[120.46384,23.17577],[120.46476,23.17618],[120.46263,23.17653],[120.46129,23.17443],[120.46043,23.17543],[120.4607,23.17828],[120.46139,23.1783],[120.45932,23.18018],[120.46109,23.18267],[120.46097,23.18716],[120.4569,23.18998],[120.45807,23.19233],[120.46022,23.19431],[120.46162,23.19871],[120.46311,23.19957],[120.4637,23.20234],[120.4632,23.20314],[120.46829,23.2113],[120.46826,23.213],[120.47047,23.21454],[120.47093,23.21715],[120.47554,23.22241],[120.47713,23.223],[120.48191,23.22009],[120.48612,23.22066],[120.48781,23.22231],[120.49079,23.22232],[120.49328,23.22076],[120.49917,23.22483],[120.50336,23.22997],[120.51061,23.23309],[120.51231,23.23528],[120.51907,23.23948],[120.51966,23.2379],[120.52657,23.231]]]}},{"type":"Feature","properties":{"code":"67000250","name":"臺南市南化區"},"geometry":{"type":"Polygon","coordinates":[[[120.60971,23.22273],[120.61165,23.22281],[120.61308,23.224],[120.61676,23.22355],[120.61839,23.22565],[120.62476,23.22717],[120.62821,23.22944],[120.63121,23.22951],[120.6333,23.22862],[120.63411,23.22922],[120.63891,23.22795],[120.64301,23.22554],[120.64438,23.22537],[120.64691,23.22713],[120.64793,23.22674],[120.64823,23.22554],[120.65138,23.22409],[120.65435,23.22431],[120.65582,23.22183],[120.65625,23.21764],[120.65396,23.21554],[120.65146,23.20851],[120.64836,23.20858],[120.64345,23.20354],[120.64312,23.20106],[120.64097,23.19877],[120.63899,23.19274],[120.63695,23.19133],[120.63657,23.19013],[120.6384,23.18568],[120.64111,23.183],[120.6373,23.1804],[120.63745,23.17853],[120.63617,23.1751],[120.62932,23.17436],[120.63102,23.17083],[120.63066,23.17006],[120.62702,23.16797],[120.62523,23.16776],[120.62322,23.16416],[120.62124,23.16296],[120.61654,23.1631],[120.61504,23.15953],[120.61343,23.15925],[120.61111,23.1559],[120.61234,23.15361],[120.61185,23.1517],[120.60785,23.14844],[120.60557,23.14853],[120.60561,23.14647],[120.60379,23.14492],[120.60111,23.14417],[120.599,23.14106],[120.59848,23.13858],[120.59628,23.13686],[120.59465,23.13159],[120.5905,23.1272],[120.58845,23.12336],[120.58892,23.11997],[120.58812,23.11418],[120.57722,23.09946],[120.57587,23.09588],[120.57413,23.09486],[120.5744,23.09073],[120.56689,23.08183],[120.56372,23.08034],[120.56278,23.07849],[120.5589,23.07565],[120.55905,23.07344],[120.5545,23.06883],[120.54681,23.06569],[120.54543,23.06395],[120.54237,23.06337],[120.54156,23.0623],[120.5394,23.06173],[120.53801,23.06075],[120.53769,23.05885],[120.5353,23.05749],[120.53007,23.05582],[120.52303,23.04957],[120.52365,23.04744],[120.52231,23.04567],[120.51967,23.04498],[120.51129,23.03616],[120.50867,23.03482],[120.50372,23.02865],[120.49755,23.02412],[120.48407,23.01706],[120.48267,23.01558],[120.48098,23.01151],[120.48106,23.00907],[120.47938,23.00501],[120.47989,23.00271],[120.47839,23.00352],[120.47055,23.00238],[120.4681,23.00264],[120.46721,23.00356],[120.46266,23.00321],[120.4614,23.0041],[120.46037,23.00339],[120.45795,23.00495],[120.45784,23.00706],[120.45551,23.01121],[120.4531,23.0112],[120.45174,23.00857],[120.44931,23.01063],[120.44637,23.01088],[120.44706,23.01744],[120.44626,23.02117],[120.44481,23.02205],[120.44027,23.02217],[120.43888,23.02332],[120.43837,23.02682],[120.43699,23.02739],[120.43713,23.02919],[120.43964,23.03219],[120.43781,23.03256],[120.43917,23.03419],[120.43915,23.03556],[120.43841,23.03672],[120.43692,23.03709],[120.43802,23.03994],[120.4368,23.04156],[120.43852,23.04517],[120.43708,23.04629],[120.43443,23.04515],[120.43325,23.04676],[120.43326,23.04905],[120.43103,23.0501],[120.43136,23.05143],[120.43371,23.05208],[120.43223,23.05398],[120.43385,23.05629],[120.43296,23.0562],[120.4331,23.057],[120.43241,23.0572],[120.43217,23.05985],[120.43606,23.06277],[120.4359,23.06378],[120.43997,23.06416],[120.44129,23.06705],[120.44325,23.06716],[120.44401,23.07228],[120.44184,23.07615],[120.44561,23.07662],[120.44619,23.07853],[120.44867,23.07979],[120.45276,23.07849],[120.45498,23.08034],[120.45647,23.08436],[120.45912,23.08493],[120.4623,23.08114],[120.4614,23.07988],[120.46243,23.07537],[120.46488,23.07525],[120.46681,23.072],[120.46774,23.07185],[120.46901,23.07352],[120.47116,23.07405],[120.4724,23.07338],[120.47338,23.07376],[120.47448,23.07281],[120.47571,23.07383],[120.47687,23.07266],[120.47925,23.07305],[120.47926,23.07656],[120.4815,23.08052],[120.4798,23.08237],[120.47762,23.08328],[120.48163,23.09041],[120.48501,23.09109],[120.4863,23.08839],[120.48753,23.08867],[120.48951,23.0872],[120.49254,23.08819],[120.49615,23.0881],[120.49756,23.08895],[120.49996,23.08736],[120.50779,23.09156],[120.51152,23.09171],[120.51367,23.0947],[120.51583,23.09578],[120.5206,23.10672],[120.52293,23.10978],[120.52473,23.11062],[120.52505,23.11295],[120.52856,23.11839],[120.52959,23.11909],[120.53304,23.11857],[120.53392,23.11586],[120.5367,23.11515],[120.53967,23.11975],[120.5449,23.11742],[120.54664,23.11734],[120.54873,23.11875],[120.54939,23.12025],[120.5486,23.12151],[120.54939,23.12627],[120.54877,23.1282],[120.55037,23.13174],[120.55013,23.13366],[120.54787,23.13622],[120.54714,23.13936],[120.5438,23.1408],[120.54315,23.14353],[120.54611,23.14563],[120.54931,23.15101],[120.55208,23.1525],[120.55261,23.15421],[120.55464,23.15559],[120.5566,23.15857],[120.5588,23.16632],[120.56099,23.17015],[120.56431,23.1734],[120.56746,23.17888],[120.56803,23.18056],[120.56745,23.18279],[120.5687,23.18577],[120.57335,23.19121],[120.57448,23.19934],[120.57615,23.20137],[120.58002,23.20308],[120.57831,23.20463],[120.57709,23.20827],[120.57968,23.21899],[120.58178,23.21992],[120.58661,23.22416],[120.59003,23.23166],[120.59025,23.23433],[120.59197,23.23672],[120.59248,23.23985],[120.5938,23.23942],[120.59579,23.23673],[120.59724,23.22904],[120.60272,23.22608],[120.60652,23.22578],[120.60971,23.22273]]]}},{"type":"Feature","properties":{"code":"67000260","name":"臺南市左鎮區"},"geometry":{"type":"Polygon","coordinates":[[[120.40797,23.08406],[120.40876,23.08401],[120.41036,23.08118],[120.40977,23.07922],[120.4111,23.07893],[120.41347,23.07608],[120.41372,23.07391],[120.41502,23.07193],[120.41491,23.07001],[120.41878,23.07027],[120.42074,23.06956],[120.42339,23.07024],[120.42646,23.06281],[120.42865,23.06453],[120.42834,23.06586],[120.43127,23.06623],[120.43411,23.06525],[120.43604,23.06294],[120.43217,23.05985],[120.43241,23.0572],[120.4331,23.057],[120.43296,23.0562],[120.43385,23.05629],[120.43223,23.05398],[120.43371,23.05208],[120.43136,23.05143],[120.43103,23.0501],[120.43326,23.04905],[120.43325,23.04676],[120.43443,23.04515],[120.43708,23.04629],[120.43852,23.04517],[120.4368,23.04156],[120.43802,23.03994],[120.43692,23.03709],[120.43841,23.03672],[120.43915,23.03556],[120.43917,23.03419],[120.43781,23.03256],[120.43964,23.03219],[120.43713,23.02919],[120.43703,23.02728],[120.43837,23.02682],[120.43888,23.02332],[120.44027,23.02217],[120.44481,23.02205],[120.44626,23.02117],[120.44706,23.01736],[120.44625,23.01098],[120.44931,23.01063],[120.45174,23.00857],[120.4531,23.0112],[120.45551,23.01121],[120.45784,23.00706],[120.45795,23.00495],[120.46037,23.00339],[120.45954,23.00079],[120.46053,23.0003],[120.46148,22.99812],[120.4591,22.99574],[120.46107,22.99225],[120.46111,22.99077],[120.45963,22.9899],[120.45543,22.99113],[120.45471,22.99062],[120.45319,22.98481],[120.45476,22.98273],[120.45472,22.98096],[120.45301,22.97775],[120.45172,22.97863],[120.44963,22.97724],[120.4443,22.9794],[120.44264,22.97732],[120.44215,22.97378],[120.43725,22.96218],[120.43529,22.95945],[120.43308,22.95952],[120.4293,22.96522],[120.42651,22.96622],[120.42547,22.96749],[120.42253,22.96754],[120.42088,22.96862],[120.41777,22.96796],[120.41114,22.96914],[120.411,22.97144],[120.40687,22.97251],[120.40537,22.97207],[120.40616,22.98322],[120.40797,22.98952],[120.40342,22.99267],[120.40263,22.9961],[120.40012,22.9961],[120.39779,22.99729],[120.39792,22.99936],[120.39486,23.00465],[120.39402,23.00768],[120.39272,23.00764],[120.39193,23.00971],[120.38774,23.01052],[120.3869,23.01144],[120.38678,23.01331],[120.38849,23.0134],[120.38714,23.01438],[120.38861,23.01556],[120.38893,23.01995],[120.38576,23.02125],[120.3842,23.01972],[120.38211,23.02003],[120.38125,23.01908],[120.38034,23.01946],[120.37965,23.02131],[120.37533,23.02069],[120.37467,23.02323],[120.37573,23.02518],[120.37384,23.02594],[120.3739,23.02851],[120.37502,23.02944],[120.37527,23.03166],[120.37644,23.03158],[120.37576,23.03324],[120.37891,23.03336],[120.37786,23.03386],[120.37864,23.03472],[120.37756,23.03823],[120.37539,23.03999],[120.37809,23.0415],[120.37707,23.04284],[120.37527,23.04273],[120.37652,23.04396],[120.37665,23.04599],[120.37468,23.04743],[120.37347,23.0473],[120.37463,23.04946],[120.37404,23.05111],[120.37276,23.05078],[120.37358,23.05297],[120.37048,23.05282],[120.36968,23.0565],[120.36861,23.0568],[120.36671,23.05424],[120.36585,23.05425],[120.36573,23.05527],[120.36772,23.05657],[120.36676,23.05732],[120.36745,23.05833],[120.366,23.05843],[120.36568,23.05937],[120.36368,23.05848],[120.36141,23.06124],[120.3616,23.06186],[120.36428,23.06184],[120.36315,23.06404],[120.36,23.06391],[120.35909,23.06577],[120.36138,23.07053],[120.3583,23.07021],[120.35841,23.07159],[120.35943,23.07164],[120.35952,23.07265],[120.36381,23.07253],[120.36893,23.07457],[120.37048,23.07447],[120.371,23.07577],[120.36938,23.07765],[120.3705,23.07912],[120.37392,23.07952],[120.37528,23.07881],[120.37774,23.08116],[120.37877,23.08068],[120.37965,23.07872],[120.38078,23.07854],[120.38124,23.07728],[120.38248,23.07718],[120.38306,23.07565],[120.38469,23.07553],[120.38505,23.07709],[120.38647,23.07757],[120.38855,23.07573],[120.38841,23.07911],[120.39601,23.07882],[120.39839,23.07973],[120.40143,23.0814],[120.40358,23.08487],[120.40633,23.08688],[120.40797,23.08406]]]}},{"type":"Feature","properties":{"code":"67000270","name":"臺南市仁德區"},"geometry":{"type":"Polygon","coordinates":[[[120.26788,22.99467],[120.26831,22.99345],[120.27203,22.99432],[120.27345,22.99372],[120.27309,22.98859],[120.27124,22.98715],[120.27274,22.98662],[120.26947,22.94393],[120.27278,22.94141],[120.27519,22.94069],[120.27388,22.9389],[120.27491,22.93936],[120.27496,22.93863],[120.27403,22.93795],[120.26882,22.93915],[120.26721,22.9386],[120.26645,22.93422],[120.26805,22.93313],[120.26761,22.92978],[120.26659,22.92585],[120.26533,22.92566],[120.26446,22.92418],[120.26351,22.9187],[120.26149,22.91603],[120.26326,22.91247],[120.26962,22.90396],[120.27007,22.90143],[120.26863,22.90039],[120.27017,22.89769],[120.26984,22.8967],[120.26054,22.90176],[120.25878,22.90186],[120.25751,22.9012],[120.25683,22.89954],[120.25888,22.89663],[120.25856,22.895],[120.25628,22.894],[120.25257,22.89486],[120.24761,22.89819],[120.24286,22.90351],[120.23291,22.90555],[120.23157,22.90866],[120.23169,22.9154],[120.23042,22.91669],[120.22666,22.91628],[120.22103,22.90999],[120.21811,22.90962],[120.21329,22.91103],[120.20807,22.91524],[120.20474,22.91467],[120.20235,22.91544],[120.19206,22.92119],[120.19412,22.92441],[120.1941,22.9281],[120.19524,22.92913],[120.19806,22.92955],[120.20237,22.93729],[120.2023,22.93828],[120.1989,22.93776],[120.19849,22.93857],[120.20122,22.94485],[120.21662,22.94517],[120.2166,22.96056],[120.22019,22.9607],[120.22158,22.96203],[120.22652,22.96127],[120.22742,22.95945],[120.23781,22.9611],[120.23716,22.96365],[120.23818,22.96753],[120.23786,22.97417],[120.23895,22.98011],[120.24222,22.97948],[120.2433,22.97742],[120.2465,22.9759],[120.24779,22.97586],[120.24907,22.97716],[120.24945,22.98762],[120.24758,22.98973],[120.24784,22.99068],[120.2672,22.99654],[120.26788,22.99467]]]}},{"type":"Feature","properties":{"code":"67000280","name":"臺南市歸仁區"},"geometry":{"type":"Polygon","coordinates":[[[120.29357,23.01513],[120.2958,23.01381],[120.29539,23.01121],[120.29602,23.00981],[120.29524,23.00786],[120.29605,23.00448],[120.29956,23.00025],[120.30042,22.99591],[120.29993,22.99276],[120.29867,22.99131],[120.29812,22.98767],[120.2972,22.98635],[120.29753,22.9847],[120.29627,22.98242],[120.29679,22.98067],[120.2978,22.97974],[120.30369,22.97998],[120.30995,22.97542],[120.31105,22.97374],[120.31013,22.97145],[120.31092,22.96856],[120.31591,22.96782],[120.31474,22.96692],[120.3138,22.96247],[120.31146,22.96083],[120.31732,22.95645],[120.32555,22.94573],[120.32663,22.94317],[120.32611,22.93853],[120.32677,22.93778],[120.32666,22.93523],[120.32545,22.93451],[120.32469,22.93177],[120.32293,22.93052],[120.32306,22.92874],[120.32395,22.92833],[120.3209,22.92105],[120.32164,22.91932],[120.32113,22.9152],[120.32218,22.91346],[120.3214,22.91176],[120.32319,22.9101],[120.32465,22.90995],[120.32708,22.90745],[120.3265,22.90542],[120.32393,22.9061],[120.32226,22.90502],[120.32291,22.90151],[120.32164,22.8995],[120.31915,22.90249],[120.31648,22.89844],[120.31352,22.89992],[120.30171,22.90059],[120.28457,22.90472],[120.27862,22.90473],[120.2778,22.90404],[120.27776,22.9023],[120.27958,22.89644],[120.27359,22.89529],[120.26984,22.8967],[120.27017,22.89769],[120.26863,22.90039],[120.27007,22.90143],[120.26962,22.90396],[120.26326,22.91247],[120.26149,22.91603],[120.26351,22.9187],[120.26446,22.92418],[120.26533,22.92566],[120.26659,22.92585],[120.26761,22.92978],[120.26805,22.93313],[120.26645,22.93422],[120.26721,22.9386],[120.26901,22.93913],[120.27327,22.93787],[120.275,22.93875],[120.27491,22.93936],[120.27388,22.9389],[120.27491,22.93974],[120.275,22.94122],[120.27278,22.94141],[120.26947,22.94393],[120.27274,22.98662],[120.27124,22.98715],[120.27309,22.98859],[120.27498,23.01099],[120.28187,23.0105],[120.28243,23.01394],[120.28548,23.01266],[120.28739,23.01348],[120.28774,23.01249],[120.28869,23.01243],[120.28994,23.01316],[120.29153,23.0128],[120.2925,23.0158],[120.29357,23.01513]]]}},{"type":"Feature","properties":{"code":"67000290","name":"臺南市關廟區"},"geometry":{"type":"Polygon","coordinates":[[[120.29932,23.01048],[120.30271,23.01032],[120.30351,23.01144],[120.30957,23.0117],[120.31008,23.01319],[120.31299,23.01292],[120.31553,23.01059],[120.31858,23.01093],[120.32466,23.00925],[120.32871,23.00986],[120.33331,23.00168],[120.33258,22.99976],[120.33324,22.99661],[120.33488,22.99409],[120.34149,22.99223],[120.34024,22.98932],[120.34381,22.98871],[120.34502,22.9905],[120.34858,22.99252],[120.34839,22.9936],[120.35085,22.99567],[120.35177,23.00009],[120.35301,23.00028],[120.35361,22.99977],[120.35301,22.99698],[120.35711,22.99366],[120.35625,22.99123],[120.35724,22.98915],[120.36138,22.98822],[120.36258,22.98698],[120.36276,22.98467],[120.36121,22.98246],[120.3622,22.98067],[120.36422,22.98107],[120.36755,22.98491],[120.36945,22.98403],[120.3725,22.98395],[120.37329,22.98317],[120.36974,22.98059],[120.3694,22.97923],[120.36823,22.97898],[120.37098,22.97726],[120.36929,22.97332],[120.36623,22.97088],[120.36748,22.96936],[120.3685,22.96978],[120.36823,22.9709],[120.37042,22.97084],[120.37042,22.96835],[120.36883,22.96773],[120.37092,22.96708],[120.36935,22.96666],[120.37038,22.96561],[120.36944,22.96433],[120.37059,22.96352],[120.37009,22.96239],[120.37205,22.96285],[120.37132,22.96158],[120.36968,22.96025],[120.3658,22.96258],[120.36354,22.96526],[120.35996,22.96489],[120.35952,22.96678],[120.35763,22.96732],[120.35516,22.96486],[120.35148,22.96338],[120.3531,22.95985],[120.35171,22.95891],[120.35145,22.95748],[120.34738,22.95445],[120.34937,22.94453],[120.34902,22.94309],[120.35016,22.94199],[120.35016,22.93871],[120.3508,22.93814],[120.34827,22.93782],[120.34786,22.93675],[120.34908,22.93618],[120.3503,22.9294],[120.35276,22.9268],[120.35451,22.92631],[120.35519,22.92406],[120.35271,22.92179],[120.35233,22.91687],[120.3551,22.91511],[120.35541,22.91236],[120.35778,22.90939],[120.35933,22.90565],[120.36202,22.90545],[120.36445,22.90628],[120.3658,22.9077],[120.36738,22.90685],[120.36772,22.90571],[120.36918,22.90627],[120.36896,22.90788],[120.37023,22.91018],[120.37171,22.91082],[120.37314,22.90933],[120.37249,22.90664],[120.37026,22.90681],[120.36824,22.90394],[120.36732,22.90518],[120.36606,22.90488],[120.36551,22.90392],[120.36599,22.90223],[120.36415,22.90177],[120.36336,22.9023],[120.3619,22.90091],[120.3615,22.90205],[120.35947,22.90142],[120.35967,22.89978],[120.36161,22.90051],[120.36108,22.8978],[120.35797,22.89586],[120.3569,22.89292],[120.3554,22.89393],[120.3545,22.89269],[120.3555,22.892],[120.35329,22.89238],[120.35321,22.89122],[120.35517,22.89043],[120.35173,22.8891],[120.35198,22.8875],[120.34909,22.89057],[120.34514,22.88944],[120.33227,22.88932],[120.33046,22.89119],[120.32704,22.89846],[120.32488,22.90046],[120.32008,22.89499],[120.31878,22.8955],[120.31648,22.89844],[120.31915,22.90249],[120.32164,22.8995],[120.32291,22.90151],[120.32226,22.90502],[120.32393,22.9061],[120.3257,22.90525],[120.32674,22.90561],[120.32704,22.90767],[120.3214,22.91176],[120.32218,22.91346],[120.32113,22.9152],[120.32164,22.91932],[120.3209,22.92105],[120.32395,22.92833],[120.32306,22.92874],[120.32293,22.93052],[120.32469,22.93177],[120.32545,22.93451],[120.32666,22.93523],[120.32677,22.93778],[120.32611,22.93853],[120.32663,22.94317],[120.32555,22.94573],[120.31732,22.95645],[120.31146,22.96083],[120.3138,22.96247],[120.31474,22.96692],[120.31591,22.96782],[120.31092,22.96856],[120.31013,22.97145],[120.31105,22.97374],[120.30995,22.97542],[120.30369,22.97998],[120.29758,22.97977],[120.29667,22.98094],[120.29627,22.98242],[120.29753,22.9847],[120.2972,22.98635],[120.29812,22.98767],[120.29867,22.99131],[120.29993,22.99276],[120.30042,22.99591],[120.29956,23.00025],[120.29605,23.00448],[120.2954,23.01141],[120.2958,23.01381],[120.29932,23.01048]]]}},{"type":"Feature","properties":{"code":"67000300","name":"臺南市龍崎區"},"geometry":{"type":"Polygon","coordinates":[[[120.38664,23.00841],[120.38955,23.0077],[120.3905,23.00473],[120.3928,23.00772],[120.39402,23.00768],[120.39486,23.00465],[120.39792,22.99936],[120.39779,22.99729],[120.40012,22.9961],[120.40263,22.9961],[120.40342,22.99267],[120.40797,22.98952],[120.40616,22.98322],[120.40541,22.97202],[120.40687,22.97251],[120.411,22.97144],[120.41114,22.96914],[120.41777,22.96796],[120.42088,22.96862],[120.42253,22.96754],[120.42547,22.96749],[120.42651,22.96622],[120.4293,22.96522],[120.43308,22.95952],[120.43529,22.95945],[120.43299,22.95609],[120.43261,22.95227],[120.42852,22.94254],[120.42856,22.94071],[120.42591,22.93904],[120.42489,22.93317],[120.42276,22.93096],[120.42202,22.92741],[120.41617,22.9161],[120.4106,22.91432],[120.40868,22.91234],[120.40573,22.91569],[120.40545,22.91805],[120.40111,22.91852],[120.39985,22.92145],[120.39863,22.92243],[120.39217,22.92229],[120.38924,22.92032],[120.38864,22.92064],[120.3868,22.91826],[120.38166,22.92116],[120.38181,22.91991],[120.38055,22.92019],[120.38018,22.91846],[120.37729,22.91798],[120.37651,22.91435],[120.37401,22.91425],[120.37317,22.91244],[120.37121,22.91234],[120.37171,22.91082],[120.37023,22.91018],[120.36932,22.90869],[120.36901,22.9061],[120.36764,22.90574],[120.36738,22.90685],[120.3658,22.9077],[120.36445,22.90628],[120.36202,22.90545],[120.35933,22.90565],[120.35778,22.90939],[120.35541,22.91236],[120.3551,22.91511],[120.35231,22.91693],[120.35271,22.92179],[120.35519,22.92406],[120.35451,22.92631],[120.35276,22.9268],[120.3503,22.9294],[120.34908,22.93618],[120.34786,22.93675],[120.34827,22.93782],[120.3508,22.93814],[120.35016,22.93871],[120.35016,22.94199],[120.34902,22.94309],[120.34937,22.94453],[120.34734,22.95427],[120.35145,22.95748],[120.35171,22.95891],[120.3531,22.95985],[120.35148,22.96338],[120.35516,22.96486],[120.35763,22.96732],[120.35952,22.96678],[120.35996,22.96489],[120.36354,22.96526],[120.3658,22.96258],[120.36968,22.96025],[120.37132,22.96158],[120.37205,22.96285],[120.37009,22.96239],[120.37059,22.96352],[120.36944,22.96433],[120.37038,22.96561],[120.36935,22.96666],[120.37092,22.96708],[120.36883,22.96773],[120.37042,22.96835],[120.37042,22.97084],[120.36823,22.9709],[120.3685,22.96978],[120.36748,22.96936],[120.36623,22.97088],[120.36929,22.97332],[120.37098,22.97726],[120.36823,22.97898],[120.3694,22.97923],[120.36974,22.98059],[120.37329,22.98317],[120.3725,22.98395],[120.36945,22.98403],[120.36755,22.98491],[120.36422,22.98107],[120.3622,22.98067],[120.36121,22.98246],[120.36276,22.98467],[120.36258,22.98698],[120.36138,22.98822],[120.35724,22.98915],[120.35625,22.99123],[120.35711,22.99366],[120.35301,22.99698],[120.35361,22.99977],[120.35293,23.00067],[120.35747,23.00413],[120.36075,23.00479],[120.36499,23.00165],[120.36785,23.00362],[120.37155,23.00473],[120.37439,23.00447],[120.37654,23.00589],[120.37797,23.00453],[120.37939,23.00519],[120.3826,23.00472],[120.38345,23.00777],[120.38664,23.00841]]]}},{"type":"Feature","properties":{"code":"67000310","name":"臺南市永康區"},"geometry":{"type":"Polygon","coordinates":[[[120.24846,23.06724],[120.25221,23.0666],[120.2526,23.06145],[120.25519,23.06169],[120.25702,23.05973],[120.25973,23.05958],[120.26064,23.06137],[120.26409,23.06195],[120.26565,23.06101],[120.26821,23.06087],[120.2705,23.05938],[120.27716,23.0596],[120.27814,23.05538],[120.28172,23.0515],[120.28389,23.05028],[120.28448,23.04878],[120.28681,23.04753],[120.28661,23.04607],[120.28259,23.04295],[120.28182,23.03986],[120.28243,23.03794],[120.2847,23.03703],[120.28873,23.0333],[120.28898,23.03211],[120.28754,23.0298],[120.2834,23.02705],[120.28328,23.02175],[120.28468,23.01909],[120.2925,23.0158],[120.29148,23.01276],[120.28994,23.01316],[120.28794,23.01241],[120.28734,23.01349],[120.28548,23.01266],[120.2827,23.01398],[120.28195,23.01052],[120.275,23.01104],[120.27306,22.99346],[120.27228,22.99433],[120.26831,22.99345],[120.2672,22.99654],[120.25084,22.9919],[120.24991,22.99105],[120.24784,22.99068],[120.24913,22.99248],[120.24527,22.99239],[120.24359,22.99148],[120.24265,22.99333],[120.23993,22.99326],[120.23998,22.99851],[120.233,22.99852],[120.23275,23.00088],[120.23063,23.00083],[120.22849,23.00183],[120.22998,23.00458],[120.22998,23.00849],[120.22904,23.01071],[120.22563,23.01152],[120.22626,23.0125],[120.2249,23.01265],[120.22448,23.01577],[120.22287,23.01654],[120.2225,23.0191],[120.21749,23.01834],[120.21759,23.02032],[120.21654,23.01885],[120.21545,23.01956],[120.21473,23.01869],[120.2127,23.02089],[120.2094,23.02276],[120.21516,23.02488],[120.21976,23.02896],[120.22532,23.04207],[120.22886,23.04558],[120.23462,23.04918],[120.23772,23.04957],[120.24125,23.05213],[120.24493,23.05765],[120.24738,23.06715],[120.24846,23.06724]]]}},{"type":"Feature","properties":{"code":"67000340","name":"臺南市北區"},"geometry":{"type":"Polygon","coordinates":[[[120.20943,23.02293],[120.21473,23.01869],[120.21545,23.01956],[120.21654,23.01885],[120.21759,23.02032],[120.21749,23.01834],[120.22253,23.01907],[120.22287,23.01654],[120.22448,23.01577],[120.2249,23.01265],[120.22626,23.0125],[120.22563,23.01152],[120.22904,23.01071],[120.22998,23.00849],[120.22998,23.00458],[120.22849,23.00183],[120.23063,23.00083],[120.23275,23.00088],[120.23308,22.9985],[120.22585,23.00038],[120.2131,23.00163],[120.21228,22.99747],[120.21094,22.9973],[120.20493,22.99838],[120.19555,23.00166],[120.19366,23.00359],[120.19355,23.0052],[120.18786,23.0075],[120.18238,23.00525],[120.17412,23.00606],[120.17322,23.00736],[120.17729,23.0093],[120.187,23.01655],[120.19264,23.0197],[120.20288,23.02281],[120.20943,23.02293]]]}},{"type":"Feature","properties":{"code":"67000170","name":"臺南市北門區"},"geometry":{"type":"Polygon","coordinates":[[[120.14419,23.32308],[120.14852,23.31975],[120.14837,23.31527],[120.14966,23.31325],[120.1543,23.31302],[120.15622,23.31004],[120.16058,23.31065],[120.1642,23.30945],[120.17072,23.30483],[120.17392,23.2999],[120.176,23.29391],[120.18011,23.29109],[120.18407,23.29032],[120.18489,23.28755],[120.1829,23.2879],[120.18277,23.28714],[120.18025,23.2868],[120.17891,23.28545],[120.1798,23.28449],[120.18156,23.28545],[120.18362,23.28415],[120.18311,23.28171],[120.1801,23.28264],[120.1712,23.2811],[120.16856,23.27962],[120.16702,23.27762],[120.16304,23.28202],[120.15925,23.28482],[120.15657,23.28878],[120.15168,23.28691],[120.14893,23.28948],[120.1468,23.29332],[120.14414,23.29338],[120.14539,23.28648],[120.15016,23.28216],[120.14973,23.27996],[120.15081,23.27546],[120.1498,23.27514],[120.1524,23.26756],[120.15035,23.26539],[120.14787,23.26038],[120.14346,23.26235],[120.14151,23.26244],[120.13413,23.25609],[120.13343,23.25312],[120.13561,23.25331],[120.13608,23.25164],[120.13976,23.25025],[120.1396,23.2469],[120.1426,23.24465],[120.14316,23.24125],[120.1412,23.24091],[120.14107,23.23925],[120.13807,23.23887],[120.13812,23.23588],[120.13559,23.22897],[120.12869,23.22671],[120.1161,23.22722],[120.10793,23.22667],[120.10575,23.22532],[120.10248,23.22504],[120.09577,23.22554],[120.09378,23.22713],[120.08849,23.22918],[120.0873,23.23149],[120.08884,23.23511],[120.08901,23.23781],[120.08662,23.23796],[120.08316,23.24113],[120.08701,23.24537],[120.08803,23.24873],[120.08935,23.24963],[120.09218,23.25961],[120.09434,23.27171],[120.09503,23.28123],[120.09433,23.295],[120.09632,23.29909],[120.10187,23.30228],[120.10311,23.30452],[120.10684,23.30528],[120.11081,23.3104],[120.11255,23.31558],[120.11361,23.32226],[120.1128,23.32258],[120.11285,23.32537],[120.11111,23.33043],[120.11166,23.33299],[120.11808,23.34016],[120.13229,23.32976],[120.13692,23.32799],[120.14419,23.32308]]]}},{"type":"Feature","properties":{"code":"67000350","name":"臺南市安南區"},"geometry":{"type":"Polygon","coordinates":[[[120.15769,23.0892],[120.1627,23.09042],[120.16405,23.08457],[120.171,23.08225],[120.1727,23.08355],[120.17501,23.0811],[120.17624,23.08121],[120.17651,23.0783],[120.18121,23.07837],[120.18167,23.07759],[120.1874,23.08313],[120.20247,23.07788],[120.20717,23.07855],[120.19963,23.07189],[120.2021,23.06773],[120.20561,23.07006],[120.20672,23.06856],[120.21323,23.06969],[120.21416,23.07353],[120.21673,23.07429],[120.22052,23.07389],[120.22106,23.07541],[120.22307,23.07583],[120.2244,23.07275],[120.23487,23.06974],[120.23784,23.06696],[120.24694,23.06559],[120.24493,23.05765],[120.24125,23.05213],[120.23714,23.04928],[120.23345,23.04851],[120.22908,23.04576],[120.22558,23.04241],[120.22016,23.02956],[120.21495,23.02476],[120.21059,23.02308],[120.20328,23.02288],[120.19389,23.02019],[120.18727,23.01673],[120.17729,23.0093],[120.1714,23.0067],[120.1662,23.00474],[120.16323,23.00474],[120.16156,23.00571],[120.15629,23.00552],[120.14183,22.99953],[120.13819,22.99683],[120.11413,23.01594],[120.10397,23.02278],[120.08611,23.03328],[120.07447,23.03887],[120.06771,23.04097],[120.06517,23.04325],[120.06267,23.04401],[120.07553,23.06035],[120.09058,23.07318],[120.09187,23.07657],[120.10101,23.08495],[120.111,23.08791],[120.12631,23.08863],[120.14908,23.09135],[120.15256,23.09137],[120.15769,23.0892]]]}},{"type":"Feature","properties":{"code":"67000330","name":"臺南市南區"},"geometry":{"type":"Polygon","coordinates":[[[120.19638,22.98749],[120.19757,22.98747],[120.19764,22.98149],[120.21201,22.98125],[120.2133,22.97876],[120.21681,22.96281],[120.21662,22.94517],[120.20122,22.94485],[120.19849,22.93857],[120.1989,22.93776],[120.2023,22.93828],[120.20237,22.93729],[120.19806,22.92955],[120.19524,22.92913],[120.1941,22.9281],[120.19422,22.92489],[120.19296,22.922],[120.19101,22.92045],[120.18918,22.92069],[120.18657,22.91965],[120.17675,22.91234],[120.17475,22.9117],[120.17685,22.91264],[120.17405,22.91442],[120.173,22.91929],[120.17491,22.9268],[120.17518,22.93298],[120.17201,22.94969],[120.16943,22.9557],[120.16281,22.96498],[120.15965,22.96355],[120.15536,22.96474],[120.1554,22.96548],[120.18334,22.9835],[120.1895,22.98871],[120.19638,22.98749]]]}},{"type":"Feature","properties":{"code":"67000320","name":"臺南市東區"},"geometry":{"type":"Polygon","coordinates":[[[120.23303,22.99851],[120.23998,22.99851],[120.23993,22.99326],[120.24265,22.99333],[120.24359,22.99148],[120.24527,22.99239],[120.24922,22.99245],[120.24758,22.98982],[120.24945,22.98762],[120.24907,22.97716],[120.24779,22.97586],[120.2465,22.9759],[120.2433,22.97742],[120.24222,22.97948],[120.23895,22.98011],[120.23786,22.97417],[120.23818,22.96753],[120.23716,22.96365],[120.23781,22.9611],[120.22742,22.95945],[120.22652,22.96127],[120.22158,22.96203],[120.22029,22.96073],[120.21701,22.96058],[120.21362,22.97786],[120.21115,22.98324],[120.2118,22.99516],[120.2131,23.00163],[120.22585,23.00038],[120.23303,22.99851]]]}},{"type":"Feature","properties":{"code":"67000360","name":"臺南市安平區"},"geometry":{"type":"Polygon","coordinates":[[[120.15892,23.00565],[120.1633,23.00336],[120.17489,22.99931],[120.18675,22.99892],[120.18631,22.99501],[120.18701,22.98957],[120.18655,22.98631],[120.18334,22.9835],[120.1554,22.96548],[120.15544,22.96751],[120.15979,22.97122],[120.15868,22.97488],[120.14749,22.98778],[120.14035,22.99334],[120.14109,22.99598],[120.13944,22.99741],[120.14262,22.99987],[120.15629,23.00552],[120.15892,23.00565]]]}},{"type":"Feature","properties":{"code":"67000370","name":"臺南市中西區"},"geometry":{"type":"Polygon","coordinates":[[[120.17477,23.00595],[120.18257,23.00526],[120.18786,23.0075],[120.19355,23.0052],[120.19366,23.00359],[120.19555,23.00166],[120.20519,22.99831],[120.21228,22.99747],[120.21114,22.98346],[120.21201,22.98125],[120.19764,22.98149],[120.19757,22.98747],[120.1895,22.98871],[120.18655,22.98631],[120.18675,22.99892],[120.17489,22.99931],[120.16293,23.00351],[120.15946,23.00565],[120.16636,23.00476],[120.17318,23.00754],[120.17477,23.00595]]]}},{"type":"Feature","properties":{"code":"67000190","name":"臺南市善化區"},"geometry":{"type":"Polygon","coordinates":[[[120.30608,23.17511],[120.3088,23.17254],[120.3202,23.16852],[120.33128,23.1597],[120.3429,23.15347],[120.34621,23.15056],[120.34456,23.14211],[120.33617,23.13468],[120.33458,23.12821],[120.33144,23.12118],[120.33112,23.11853],[120.33282,23.11374],[120.33209,23.11217],[120.33288,23.10656],[120.32519,23.10627],[120.32517,23.10779],[120.32313,23.10723],[120.32142,23.10799],[120.32085,23.10716],[120.31356,23.10995],[120.30947,23.11064],[120.29854,23.10562],[120.29748,23.10667],[120.29595,23.10663],[120.29555,23.10936],[120.2936,23.11003],[120.28959,23.10735],[120.28814,23.11103],[120.28657,23.11014],[120.28685,23.10944],[120.28119,23.10612],[120.28179,23.1099],[120.27948,23.10997],[120.27781,23.11141],[120.276,23.11059],[120.27497,23.11111],[120.27215,23.10874],[120.27147,23.10578],[120.27048,23.10488],[120.26975,23.1072],[120.26747,23.10625],[120.26824,23.10855],[120.2622,23.10523],[120.25871,23.10607],[120.25664,23.10515],[120.25581,23.10796],[120.25944,23.10856],[120.26174,23.11013],[120.26458,23.11333],[120.26539,23.11608],[120.26728,23.11652],[120.26923,23.12211],[120.26906,23.12265],[120.26611,23.12139],[120.26466,23.1254],[120.26286,23.12453],[120.26165,23.12812],[120.26299,23.12799],[120.26286,23.1293],[120.26212,23.13013],[120.26104,23.13001],[120.26055,23.13141],[120.25965,23.13065],[120.25946,23.13166],[120.25593,23.1312],[120.25606,23.13267],[120.25517,23.13245],[120.2549,23.13504],[120.25991,23.13791],[120.26285,23.14194],[120.2612,23.14481],[120.26051,23.1535],[120.26357,23.15418],[120.26427,23.15863],[120.26356,23.16077],[120.26526,23.16778],[120.26671,23.17064],[120.2701,23.17374],[120.26988,23.17113],[120.27943,23.17464],[120.29017,23.17614],[120.29911,23.17636],[120.30608,23.17511]]]}},{"type":"Feature","properties":{"code":"67000220","name":"臺南市山上區"},"geometry":{"type":"Polygon","coordinates":[[[120.36912,23.09992],[120.37718,23.1016],[120.38301,23.10174],[120.38509,23.10294],[120.3869,23.10584],[120.39338,23.10632],[120.39549,23.10742],[120.39558,23.10857],[120.39681,23.10768],[120.39753,23.10825],[120.39904,23.10776],[120.40262,23.11565],[120.40566,23.11564],[120.40895,23.11398],[120.40909,23.11296],[120.41009,23.11314],[120.41184,23.11119],[120.4176,23.11197],[120.41949,23.10897],[120.41763,23.10642],[120.41836,23.10219],[120.41414,23.09942],[120.41413,23.0976],[120.41238,23.09424],[120.41068,23.0939],[120.41004,23.0906],[120.4059,23.08616],[120.40358,23.08487],[120.40126,23.08127],[120.39601,23.07882],[120.3886,23.07918],[120.38799,23.07814],[120.38884,23.07582],[120.38647,23.07757],[120.38505,23.07709],[120.38439,23.07547],[120.38306,23.07565],[120.38248,23.07718],[120.38124,23.07728],[120.38078,23.07854],[120.37965,23.07872],[120.37877,23.08068],[120.37764,23.08117],[120.37528,23.07881],[120.37392,23.07952],[120.37008,23.07887],[120.36939,23.0775],[120.37095,23.07591],[120.37048,23.07447],[120.36893,23.07457],[120.36381,23.07253],[120.35952,23.07265],[120.35914,23.07152],[120.35644,23.07324],[120.35714,23.07585],[120.35488,23.07718],[120.35405,23.07508],[120.35447,23.07359],[120.35331,23.07268],[120.35156,23.07566],[120.34984,23.0758],[120.35112,23.07889],[120.35073,23.08107],[120.34848,23.07925],[120.34541,23.0808],[120.34369,23.08047],[120.34273,23.07939],[120.34157,23.07988],[120.34209,23.08173],[120.34054,23.08354],[120.3441,23.08402],[120.34343,23.0884],[120.34409,23.08909],[120.33582,23.09912],[120.33243,23.10759],[120.33209,23.11217],[120.33282,23.11374],[120.33112,23.11853],[120.33144,23.12118],[120.33458,23.12821],[120.33617,23.13468],[120.33931,23.13765],[120.33941,23.13296],[120.34106,23.1276],[120.34711,23.11763],[120.35291,23.11182],[120.36912,23.09992]]]}},{"type":"Feature","properties":{"code":"67000040","name":"臺南市柳營區"},"geometry":{"type":"Polygon","coordinates":[[[120.33588,23.29604],[120.34017,23.29433],[120.34196,23.29452],[120.34658,23.30055],[120.34846,23.30163],[120.34908,23.30444],[120.35001,23.30504],[120.35811,23.30169],[120.35701,23.29828],[120.35822,23.29766],[120.36086,23.29743],[120.36633,23.29871],[120.36827,23.29441],[120.36999,23.29324],[120.37456,23.29307],[120.37798,23.28965],[120.38527,23.29027],[120.38835,23.28746],[120.39229,23.28609],[120.39338,23.28418],[120.39433,23.27876],[120.39233,23.27611],[120.38944,23.27583],[120.38961,23.27197],[120.39072,23.26894],[120.3944,23.26726],[120.39392,23.26502],[120.39583,23.26289],[120.39924,23.26384],[120.40047,23.26538],[120.40127,23.26396],[120.40559,23.26219],[120.4089,23.26384],[120.41287,23.26319],[120.41247,23.26132],[120.41362,23.25977],[120.41352,23.25813],[120.41555,23.2569],[120.41664,23.25736],[120.41807,23.25498],[120.42028,23.25505],[120.42341,23.25301],[120.42463,23.2499],[120.42486,23.2461],[120.42336,23.24468],[120.42286,23.23997],[120.422,23.23908],[120.4185,23.23856],[120.412,23.23502],[120.41051,23.23532],[120.40831,23.23392],[120.40228,23.23348],[120.40128,23.23047],[120.39679,23.23107],[120.39466,23.234],[120.39074,23.23595],[120.38761,23.23515],[120.38303,23.23747],[120.38095,23.23677],[120.37581,23.24006],[120.37334,23.2403],[120.37316,23.24103],[120.37037,23.23971],[120.36819,23.23986],[120.36577,23.238],[120.36579,23.23627],[120.36191,23.23498],[120.36236,23.2382],[120.35896,23.24168],[120.35485,23.24199],[120.35038,23.24403],[120.35192,23.24817],[120.35169,23.25212],[120.34656,23.25663],[120.34467,23.25646],[120.34248,23.25491],[120.34125,23.25527],[120.33861,23.25739],[120.33529,23.26345],[120.33301,23.26326],[120.33146,23.25879],[120.33026,23.25783],[120.32963,23.26111],[120.32812,23.26033],[120.32605,23.26053],[120.32588,23.26232],[120.32461,23.26359],[120.32231,23.26107],[120.32079,23.2631],[120.31871,23.26336],[120.31516,23.25909],[120.3098,23.26012],[120.3099,23.26246],[120.30889,23.26336],[120.30528,23.26388],[120.29963,23.26246],[120.29741,23.26486],[120.29545,23.26429],[120.29433,23.26181],[120.28917,23.26222],[120.2883,23.26042],[120.28721,23.26007],[120.28384,23.26017],[120.28042,23.26186],[120.2832,23.26999],[120.28346,23.27531],[120.28465,23.27687],[120.29061,23.27702],[120.29063,23.2785],[120.29364,23.28343],[120.29422,23.28537],[120.29307,23.28828],[120.29319,23.29114],[120.29233,23.29178],[120.29307,23.29398],[120.30089,23.29618],[120.30592,23.29662],[120.31351,23.29585],[120.32408,23.29612],[120.32513,23.29713],[120.32455,23.30213],[120.32503,23.304],[120.32641,23.30554],[120.32907,23.30627],[120.33232,23.3029],[120.33228,23.30012],[120.33311,23.29824],[120.33588,23.29604]]]}},{"type":"Feature","properties":{"code":"67000060","name":"臺南市東山區"},"geometry":{"type":"Polygon","coordinates":[[[120.40805,23.33466],[120.41143,23.33484],[120.41317,23.33235],[120.41512,23.33234],[120.41604,23.32726],[120.41862,23.32489],[120.42003,23.32554],[120.42313,23.3248],[120.42643,23.32218],[120.43145,23.32054],[120.43682,23.31423],[120.43777,23.3145],[120.43873,23.31349],[120.44025,23.31433],[120.44116,23.31236],[120.4411,23.30977],[120.4477,23.30523],[120.44801,23.30398],[120.44576,23.30063],[120.44821,23.29919],[120.44902,23.30018],[120.45036,23.30012],[120.45005,23.29836],[120.45093,23.2969],[120.45246,23.29704],[120.45266,23.29888],[120.4542,23.29978],[120.45483,23.29832],[120.45985,23.30159],[120.46096,23.30043],[120.46416,23.30099],[120.46464,23.29999],[120.46639,23.30001],[120.46838,23.29764],[120.47108,23.29655],[120.47445,23.29846],[120.47764,23.29797],[120.47918,23.29573],[120.48109,23.29487],[120.48111,23.29351],[120.48595,23.29358],[120.49066,23.29886],[120.49582,23.29941],[120.49764,23.29791],[120.50268,23.29769],[120.50478,23.29612],[120.50779,23.29527],[120.50758,23.29312],[120.50382,23.29101],[120.50218,23.28882],[120.50267,23.28756],[120.50386,23.28846],[120.50468,23.28814],[120.50618,23.29047],[120.50872,23.28986],[120.51181,23.29193],[120.51565,23.29178],[120.51797,23.29043],[120.51736,23.28736],[120.52198,23.2874],[120.52298,23.2843],[120.52283,23.28164],[120.52097,23.27969],[120.52229,23.27412],[120.52043,23.27178],[120.52609,23.26649],[120.52669,23.26401],[120.52853,23.26196],[120.52932,23.25787],[120.53229,23.25514],[120.52997,23.24795],[120.52416,23.242],[120.51685,23.23847],[120.51215,23.23515],[120.51061,23.23309],[120.50336,23.22997],[120.49917,23.22483],[120.49328,23.22076],[120.49079,23.22232],[120.48781,23.22231],[120.48612,23.22066],[120.48139,23.22015],[120.47822,23.22194],[120.47604,23.22443],[120.47145,23.22491],[120.46988,23.22588],[120.46789,23.22538],[120.46493,23.22789],[120.46463,23.22738],[120.46007,23.22812],[120.45518,23.23123],[120.45351,23.23031],[120.45175,23.23044],[120.45047,23.23191],[120.44768,23.23069],[120.44609,23.22767],[120.44475,23.22714],[120.44441,23.22927],[120.44302,23.22746],[120.4426,23.22937],[120.44543,23.23742],[120.44187,23.23561],[120.44012,23.23724],[120.43737,23.23735],[120.4364,23.23665],[120.43458,23.23702],[120.43297,23.23584],[120.43271,23.23916],[120.42398,23.24536],[120.42485,23.24605],[120.42485,23.24774],[120.42319,23.25337],[120.42028,23.25505],[120.41813,23.25495],[120.41664,23.25736],[120.41555,23.2569],[120.41352,23.25813],[120.41362,23.25977],[120.41247,23.26132],[120.41287,23.26319],[120.4089,23.26384],[120.40559,23.26219],[120.40127,23.26396],[120.40047,23.26538],[120.39924,23.26384],[120.39539,23.26304],[120.39392,23.26502],[120.3944,23.26726],[120.3909,23.26871],[120.38959,23.27209],[120.38951,23.27595],[120.39233,23.27611],[120.39432,23.27866],[120.39338,23.28418],[120.39229,23.28609],[120.38835,23.28746],[120.38527,23.29027],[120.37798,23.28965],[120.37456,23.29307],[120.36999,23.29324],[120.36827,23.29441],[120.36633,23.29871],[120.36086,23.29743],[120.35822,23.29766],[120.35701,23.29828],[120.35811,23.30169],[120.35001,23.30504],[120.34908,23.30444],[120.34846,23.30163],[120.34658,23.30055],[120.34196,23.29452],[120.34017,23.29433],[120.33456,23.29684],[120.33236,23.29984],[120.33246,23.3026],[120.33146,23.30399],[120.33863,23.30995],[120.34341,23.30973],[120.34346,23.31078],[120.34022,23.31593],[120.34124,23.31895],[120.35213,23.31352],[120.35373,23.31537],[120.35812,23.31738],[120.3594,23.32146],[120.35906,23.32344],[120.3616,23.32526],[120.36284,23.32311],[120.36827,23.32132],[120.36892,23.31735],[120.37187,23.31576],[120.37276,23.32112],[120.37135,23.32387],[120.36936,23.32469],[120.36936,23.32544],[120.37253,23.3267],[120.38167,23.32575],[120.38308,23.32705],[120.37906,23.33104],[120.37845,23.33344],[120.37939,23.33378],[120.38513,23.33171],[120.38468,23.33688],[120.38625,23.33936],[120.39017,23.33993],[120.39006,23.33464],[120.39142,23.33218],[120.39242,23.33271],[120.39351,23.33511],[120.39367,23.34014],[120.39856,23.33964],[120.39978,23.33441],[120.40151,23.33192],[120.40272,23.3318],[120.4045,23.33291],[120.4029,23.33625],[120.40275,23.33972],[120.40499,23.34168],[120.40719,23.33887],[120.40677,23.33625],[120.40805,23.33466]]]}},{"type":"Feature","properties":{"code":"67000150","name":"臺南市七股區"},"geometry":{"type":"Polygon","coordinates":[[[120.14044,23.19436],[120.14054,23.19157],[120.14127,23.19153],[120.14341,23.18684],[120.14677,23.18858],[120.15101,23.18911],[120.15136,23.18567],[120.15032,23.18416],[120.15313,23.18024],[120.15308,23.17939],[120.14712,23.17983],[120.14825,23.17599],[120.14496,23.17536],[120.14482,23.17461],[120.14727,23.17329],[120.14566,23.17047],[120.14494,23.16685],[120.15002,23.16575],[120.15331,23.16387],[120.15361,23.1579],[120.15662,23.15814],[120.1567,23.15613],[120.15889,23.15717],[120.15814,23.15216],[120.1554,23.14893],[120.15375,23.14356],[120.15422,23.13846],[120.15502,23.13505],[120.15571,23.13482],[120.14888,23.1344],[120.14893,23.12721],[120.152,23.12661],[120.1518,23.12255],[120.15804,23.12411],[120.16232,23.12141],[120.16127,23.12015],[120.16106,23.11628],[120.16837,23.11724],[120.16754,23.12292],[120.16925,23.12314],[120.1757,23.11766],[120.17811,23.11109],[120.17206,23.10293],[120.17362,23.09967],[120.17601,23.09896],[120.17464,23.08551],[120.171,23.08225],[120.16405,23.08457],[120.1627,23.09042],[120.15769,23.0892],[120.15199,23.09143],[120.12631,23.08863],[120.111,23.08791],[120.10101,23.08495],[120.09187,23.07657],[120.09058,23.07318],[120.07553,23.06035],[120.06267,23.04402],[120.05796,23.0431],[120.04983,23.05221],[120.044,23.06167],[120.03898,23.06805],[120.03818,23.06728],[120.03287,23.06733],[120.02942,23.06641],[120.02691,23.06793],[120.02852,23.07238],[120.0279,23.07517],[120.0318,23.08759],[120.03472,23.10081],[120.0379,23.10847],[120.04394,23.11919],[120.05145,23.12558],[120.05422,23.12572],[120.05092,23.12239],[120.05504,23.1257],[120.05285,23.12872],[120.05284,23.13064],[120.05583,23.13714],[120.05908,23.15876],[120.0635,23.17094],[120.06942,23.18217],[120.06948,23.18348],[120.07205,23.18389],[120.0837,23.18897],[120.08612,23.18766],[120.09281,23.18828],[120.09452,23.18668],[120.09795,23.18503],[120.10132,23.18474],[120.10322,23.18314],[120.10601,23.18452],[120.10845,23.18348],[120.10993,23.18535],[120.11299,23.18625],[120.11563,23.18365],[120.11778,23.18452],[120.1206,23.18215],[120.12423,23.1816],[120.12516,23.18368],[120.12808,23.18236],[120.12959,23.18272],[120.12906,23.18468],[120.12743,23.18516],[120.1269,23.19407],[120.12883,23.19499],[120.13116,23.19345],[120.13661,23.19551],[120.13983,23.19586],[120.14044,23.19436]]]}},{"type":"Feature","properties":{"code":"67000160","name":"臺南市將軍區"},"geometry":{"type":"Polygon","coordinates":[[[120.08471,23.23966],[120.08662,23.23796],[120.08908,23.23764],[120.0873,23.23149],[120.08807,23.22949],[120.09378,23.22713],[120.09577,23.22554],[120.10098,23.22507],[120.10575,23.22532],[120.10793,23.22667],[120.1161,23.22722],[120.12329,23.22659],[120.13083,23.22705],[120.13385,23.22798],[120.14443,23.23385],[120.15871,23.23794],[120.16268,23.23732],[120.16835,23.23299],[120.17002,23.22758],[120.17311,23.22578],[120.17487,23.22325],[120.1783,23.20859],[120.17577,23.20296],[120.17446,23.19697],[120.17119,23.19223],[120.17004,23.18542],[120.16806,23.18419],[120.16164,23.18364],[120.16071,23.18518],[120.15936,23.18496],[120.15596,23.18815],[120.1523,23.1879],[120.15234,23.18687],[120.15128,23.18685],[120.15088,23.18917],[120.14667,23.18855],[120.14341,23.18684],[120.14127,23.19153],[120.14054,23.19157],[120.13983,23.19586],[120.13661,23.19551],[120.13116,23.19345],[120.12883,23.19499],[120.12668,23.19388],[120.12743,23.18516],[120.12906,23.18468],[120.12959,23.18272],[120.12808,23.18236],[120.12516,23.18368],[120.12423,23.1816],[120.1206,23.18215],[120.11778,23.18452],[120.11563,23.18365],[120.11299,23.18625],[120.10993,23.18535],[120.10845,23.18348],[120.10601,23.18452],[120.10322,23.18314],[120.10132,23.18474],[120.09795,23.18503],[120.09452,23.18668],[120.09281,23.18828],[120.08612,23.18766],[120.0837,23.18897],[120.07205,23.18389],[120.06948,23.18348],[120.07158,23.18973],[120.07751,23.20047],[120.07894,23.2049],[120.08186,23.22229],[120.08182,23.22565],[120.08066,23.22912],[120.08048,23.23693],[120.08316,23.24113],[120.08471,23.23966]]]}}]}