{"type":"FeatureCollection","source":"https://data.gov.tw/dataset/7441 鄉鎮市區界線(TWD97經緯度)","agency":"內政部國土測繪中心","license":"政府資料開放授權條款第1版","generatedBy":"scripts/build-geo.py","features":[{"type":"Feature","properties":{"code":"68000050","name":"桃園市蘆竹區"},"geometry":{"type":"Polygon","coordinates":[[[121.26382,25.12197],[121.26902,25.11992],[121.27978,25.11781],[121.28339,25.11781],[121.28393,25.11282],[121.28295,25.10936],[121.2852,25.1086],[121.28715,25.10682],[121.29025,25.10686],[121.29162,25.10264],[121.2955,25.10302],[121.29807,25.10453],[121.29916,25.10403],[121.30129,25.10155],[121.30139,25.09848],[121.30285,25.09676],[121.31052,25.09655],[121.31824,25.09301],[121.32487,25.0926],[121.32792,25.09109],[121.33013,25.08825],[121.3383,25.08374],[121.3436,25.08422],[121.34938,25.08233],[121.35026,25.08124],[121.34943,25.08075],[121.3488,25.0812],[121.34247,25.08009],[121.34798,25.0788],[121.34525,25.07854],[121.34635,25.07678],[121.34422,25.07784],[121.34447,25.07606],[121.34623,25.07564],[121.34468,25.07505],[121.34281,25.0753],[121.34157,25.07662],[121.34117,25.07571],[121.34046,25.07636],[121.34057,25.07396],[121.34267,25.07343],[121.34185,25.07267],[121.34803,25.07382],[121.34987,25.07666],[121.35042,25.07537],[121.3499,25.07354],[121.35176,25.07446],[121.35346,25.07329],[121.35172,25.07357],[121.34985,25.0713],[121.34889,25.07239],[121.34802,25.07087],[121.34645,25.0703],[121.3497,25.06965],[121.35214,25.06792],[121.3523,25.06879],[121.35377,25.06858],[121.3551,25.06687],[121.3549,25.06537],[121.34355,25.0655],[121.34002,25.06375],[121.32949,25.06086],[121.32381,25.05768],[121.32194,25.05395],[121.32063,25.05389],[121.31588,25.05108],[121.30829,25.0511],[121.30759,25.04918],[121.30292,25.04734],[121.29362,25.04987],[121.29658,25.04639],[121.30144,25.03679],[121.30252,25.03315],[121.29629,25.03235],[121.29579,25.0313],[121.29355,25.03063],[121.29245,25.02881],[121.29064,25.02827],[121.28871,25.02638],[121.28749,25.02666],[121.28691,25.02873],[121.28519,25.02878],[121.28421,25.03212],[121.27754,25.03049],[121.27841,25.02701],[121.27664,25.02576],[121.27484,25.02633],[121.27502,25.02386],[121.27138,25.0218],[121.27409,25.01248],[121.2776,25.00736],[121.28033,25.00082],[121.27551,24.99594],[121.27525,24.99395],[121.2742,24.99303],[121.27488,24.99019],[121.27404,24.98822],[121.27309,24.9904],[121.27124,24.99071],[121.26838,24.98904],[121.26798,24.98996],[121.26451,24.98973],[121.25981,24.98706],[121.25799,24.9913],[121.25721,24.99128],[121.25759,24.99215],[121.25639,24.99384],[121.25676,24.99598],[121.25417,25.00282],[121.25025,25.00667],[121.24619,25.01404],[121.2402,25.02177],[121.23861,25.02279],[121.23606,25.028],[121.23306,25.02969],[121.23217,25.03116],[121.23477,25.03231],[121.23433,25.03623],[121.2376,25.03916],[121.23677,25.0426],[121.24315,25.0465],[121.24482,25.04593],[121.24767,25.04724],[121.24635,25.04829],[121.24835,25.04994],[121.24545,25.05531],[121.25108,25.05729],[121.24904,25.05991],[121.24974,25.06125],[121.25209,25.06208],[121.25452,25.0608],[121.25938,25.06376],[121.26227,25.06624],[121.26242,25.06901],[121.26481,25.07054],[121.26553,25.07326],[121.26722,25.07345],[121.26781,25.07271],[121.27031,25.07349],[121.27316,25.07761],[121.27209,25.08063],[121.26613,25.08293],[121.26242,25.0904],[121.25809,25.09352],[121.25654,25.09823],[121.25425,25.10161],[121.25257,25.11313],[121.24851,25.11777],[121.2484,25.11953],[121.2496,25.12022],[121.24982,25.12142],[121.25309,25.12078],[121.25762,25.12208],[121.25978,25.12361],[121.26382,25.12197]]]}},{"type":"Feature","properties":{"code":"68000070","name":"桃園市龜山區"},"geometry":{"type":"Polygon","coordinates":[[[121.37614,25.06612],[121.38216,25.0643],[121.38291,25.06293],[121.38831,25.06306],[121.38817,25.06155],[121.39111,25.06148],[121.39087,25.06078],[121.38895,25.0607],[121.38768,25.05972],[121.38974,25.05906],[121.38849,25.0583],[121.38864,25.05688],[121.3856,25.05811],[121.38573,25.0568],[121.38744,25.05491],[121.38444,25.05256],[121.3895,25.05348],[121.38987,25.05284],[121.39082,25.0533],[121.39089,25.05448],[121.3928,25.05504],[121.39104,25.05358],[121.39295,25.05398],[121.3977,25.0514],[121.4007,25.05139],[121.39976,25.04936],[121.39854,25.05101],[121.39749,25.0504],[121.39853,25.04847],[121.39402,25.05034],[121.39441,25.0475],[121.39603,25.04856],[121.39858,25.04812],[121.39944,25.04776],[121.3977,25.04629],[121.39956,25.04603],[121.39986,25.04496],[121.4031,25.0456],[121.3983,25.04411],[121.40067,25.04333],[121.40015,25.04303],[121.39387,25.04378],[121.39067,25.04194],[121.39355,25.042],[121.39438,25.04009],[121.39758,25.03849],[121.39897,25.03861],[121.39959,25.0375],[121.40107,25.03773],[121.4012,25.03637],[121.39959,25.03588],[121.40121,25.03445],[121.39857,25.03475],[121.39827,25.0301],[121.40082,25.02908],[121.40151,25.02815],[121.4013,25.02642],[121.40377,25.02528],[121.40443,25.0239],[121.40868,25.02086],[121.41061,25.02105],[121.411,25.01943],[121.41216,25.0194],[121.4114,25.01803],[121.40917,25.01839],[121.40414,25.01719],[121.40163,25.01577],[121.39725,25.01622],[121.39466,25.01464],[121.39243,25.0154],[121.39262,25.01375],[121.39119,25.01203],[121.39365,25.00981],[121.39952,25.00697],[121.40023,25.00422],[121.40204,25.00253],[121.40187,25.00124],[121.40327,25.00025],[121.40324,24.99933],[121.39684,24.9973],[121.39647,24.99555],[121.39402,24.99342],[121.39061,24.99326],[121.38804,24.9964],[121.38418,24.99571],[121.38359,24.99351],[121.38432,24.99168],[121.38341,24.98861],[121.38546,24.98604],[121.38223,24.98392],[121.38095,24.98429],[121.37933,24.98357],[121.37673,24.98125],[121.3724,24.97994],[121.36914,24.97682],[121.36391,24.97959],[121.36142,24.97882],[121.36122,24.97781],[121.35409,24.9778],[121.35235,24.98085],[121.34715,24.97884],[121.34268,24.98232],[121.34113,24.98027],[121.3368,24.98068],[121.33383,24.97869],[121.3298,24.97905],[121.32728,24.98235],[121.32556,24.9813],[121.3213,24.98711],[121.32218,24.9893],[121.32141,24.99084],[121.3233,24.99225],[121.3228,24.99362],[121.32361,24.99537],[121.32668,24.99605],[121.32892,24.99801],[121.33221,25.00482],[121.33124,25.00773],[121.33239,25.01062],[121.32961,25.01327],[121.33003,25.01659],[121.32585,25.01678],[121.32492,25.01828],[121.32493,25.02035],[121.32694,25.02189],[121.32552,25.0224],[121.32632,25.02445],[121.32474,25.02633],[121.31713,25.02657],[121.31555,25.02904],[121.30969,25.03163],[121.30674,25.03056],[121.30356,25.03072],[121.30144,25.03679],[121.29658,25.04639],[121.2936,25.04984],[121.30292,25.04734],[121.30759,25.04918],[121.30829,25.0511],[121.31602,25.05112],[121.32063,25.05389],[121.32201,25.05399],[121.32381,25.05768],[121.32931,25.06078],[121.34002,25.06375],[121.34355,25.0655],[121.36321,25.06493],[121.37614,25.06612]]]}},{"type":"Feature","properties":{"code":"68000130","name":"桃園市復興區"},"geometry":{"type":"Polygon","coordinates":[[[121.34771,24.84549],[121.35487,24.84395],[121.35779,24.83952],[121.36018,24.83811],[121.36416,24.83813],[121.36993,24.83629],[121.37282,24.83498],[121.37281,24.83379],[121.37362,24.83328],[121.38335,24.83698],[121.38457,24.83806],[121.38504,24.84081],[121.38808,24.84241],[121.39041,24.84247],[121.39367,24.84398],[121.39704,24.8438],[121.39799,24.84178],[121.3999,24.84156],[121.40284,24.84355],[121.40804,24.84113],[121.41269,24.83695],[121.41561,24.8356],[121.41385,24.83196],[121.41608,24.82874],[121.41692,24.82557],[121.42365,24.82543],[121.42504,24.8228],[121.42529,24.82011],[121.42701,24.81904],[121.42957,24.81528],[121.43657,24.81205],[121.43696,24.80556],[121.43798,24.80374],[121.4371,24.79818],[121.43774,24.7961],[121.44571,24.79013],[121.45038,24.79093],[121.4504,24.78985],[121.44884,24.78824],[121.44961,24.78619],[121.44596,24.78172],[121.44058,24.77914],[121.43692,24.77372],[121.43143,24.77194],[121.42623,24.76783],[121.4233,24.76202],[121.42584,24.76059],[121.42557,24.7584],[121.42849,24.75345],[121.42922,24.74995],[121.42869,24.74806],[121.43016,24.74555],[121.43037,24.74346],[121.43275,24.74075],[121.43287,24.73707],[121.43533,24.73341],[121.43428,24.73002],[121.43832,24.72659],[121.44096,24.72608],[121.4449,24.71515],[121.44879,24.71219],[121.45022,24.70568],[121.46255,24.70164],[121.4695,24.69615],[121.47096,24.69679],[121.47424,24.6961],[121.47464,24.69266],[121.47304,24.6898],[121.47395,24.68533],[121.47542,24.68365],[121.476,24.67919],[121.48,24.67385],[121.47238,24.67315],[121.46921,24.67183],[121.4595,24.67316],[121.45531,24.66832],[121.45391,24.6644],[121.44925,24.66165],[121.44761,24.65617],[121.44899,24.65298],[121.45126,24.65168],[121.45134,24.65092],[121.44876,24.64601],[121.44508,24.64318],[121.44484,24.64105],[121.44563,24.63942],[121.44502,24.6373],[121.44055,24.6351],[121.43609,24.6274],[121.43484,24.62446],[121.43566,24.62133],[121.43477,24.61938],[121.43352,24.61879],[121.43259,24.61564],[121.43062,24.61451],[121.42759,24.6057],[121.4244,24.60301],[121.41829,24.60103],[121.41278,24.60365],[121.41222,24.60085],[121.40847,24.59898],[121.40305,24.59171],[121.39574,24.58893],[121.39461,24.58744],[121.39166,24.58651],[121.38721,24.58656],[121.38304,24.58944],[121.37278,24.59375],[121.37182,24.597],[121.36692,24.59907],[121.36333,24.60313],[121.36418,24.60676],[121.3613,24.60988],[121.36131,24.61214],[121.35952,24.61377],[121.35882,24.61717],[121.36178,24.62066],[121.36306,24.62067],[121.3655,24.63067],[121.36642,24.63179],[121.36117,24.63375],[121.35782,24.63371],[121.35739,24.6376],[121.35593,24.64105],[121.3524,24.64354],[121.35301,24.64878],[121.35233,24.65405],[121.35352,24.65544],[121.35286,24.65621],[121.35382,24.65905],[121.35307,24.66039],[121.35352,24.6678],[121.35168,24.6661],[121.34899,24.66791],[121.34548,24.66644],[121.34367,24.66939],[121.34032,24.66638],[121.3392,24.66656],[121.33981,24.67187],[121.33858,24.67996],[121.32977,24.69097],[121.32417,24.69497],[121.32027,24.69579],[121.31874,24.69763],[121.31718,24.69814],[121.31285,24.69752],[121.3039,24.69292],[121.30082,24.69396],[121.29949,24.69557],[121.30226,24.70191],[121.30328,24.70839],[121.30641,24.71308],[121.30762,24.72018],[121.3054,24.72599],[121.29867,24.73071],[121.29818,24.7338],[121.3001,24.73744],[121.30119,24.74211],[121.30529,24.74628],[121.30507,24.75005],[121.30766,24.75517],[121.30414,24.75745],[121.30103,24.76336],[121.29809,24.76293],[121.29419,24.76387],[121.29246,24.76772],[121.28755,24.76868],[121.28556,24.77008],[121.27717,24.771],[121.27355,24.77459],[121.2713,24.77482],[121.27138,24.77712],[121.2706,24.77835],[121.26798,24.77993],[121.26603,24.77979],[121.26486,24.78138],[121.26001,24.78196],[121.25848,24.78587],[121.26043,24.78792],[121.26117,24.78996],[121.26047,24.79297],[121.25956,24.79371],[121.25761,24.79283],[121.25214,24.79395],[121.25037,24.79567],[121.24773,24.79672],[121.24662,24.80007],[121.24767,24.80138],[121.24736,24.80371],[121.24542,24.80696],[121.24318,24.80873],[121.2532,24.81067],[121.25641,24.80637],[121.26052,24.80504],[121.26289,24.8051],[121.26446,24.80566],[121.26587,24.80757],[121.2649,24.814],[121.26868,24.81494],[121.27502,24.81516],[121.27953,24.81674],[121.28325,24.81575],[121.28624,24.81621],[121.29504,24.80982],[121.29942,24.80823],[121.30228,24.80832],[121.30467,24.81],[121.30575,24.80982],[121.31185,24.80555],[121.31633,24.80345],[121.32204,24.80841],[121.32169,24.81356],[121.31899,24.81845],[121.32118,24.82038],[121.32094,24.82193],[121.32381,24.82156],[121.32508,24.82017],[121.32573,24.82175],[121.32807,24.82245],[121.32755,24.82489],[121.33165,24.82501],[121.33141,24.826],[121.33363,24.82745],[121.33039,24.82808],[121.33067,24.83078],[121.33136,24.83123],[121.33039,24.83399],[121.3322,24.83785],[121.33189,24.84157],[121.33315,24.84146],[121.33304,24.84436],[121.33581,24.84494],[121.33622,24.84376],[121.34001,24.84339],[121.34506,24.84552],[121.34771,24.84549]]]}},{"type":"Feature","properties":{"code":"68000030","name":"桃園市大溪區"},"geometry":{"type":"Polygon","coordinates":[[[121.31826,24.93473],[121.32071,24.93367],[121.32123,24.93206],[121.32193,24.93233],[121.32322,24.93128],[121.32206,24.92804],[121.33325,24.92983],[121.3398,24.9285],[121.33518,24.92492],[121.32818,24.92477],[121.32491,24.92352],[121.31759,24.91636],[121.32029,24.91354],[121.32245,24.91259],[121.32359,24.90991],[121.32621,24.90918],[121.32621,24.90719],[121.32403,24.90471],[121.3219,24.9036],[121.32149,24.90143],[121.32032,24.9002],[121.32717,24.8959],[121.33056,24.89778],[121.33179,24.89981],[121.33325,24.89943],[121.33338,24.89624],[121.33208,24.89346],[121.33325,24.89317],[121.33351,24.89159],[121.33845,24.89335],[121.34053,24.89232],[121.34217,24.89255],[121.34114,24.88799],[121.34468,24.88585],[121.34563,24.88005],[121.34724,24.87868],[121.35058,24.87858],[121.35208,24.87676],[121.35347,24.87652],[121.3534,24.87498],[121.35445,24.87347],[121.35312,24.8711],[121.34938,24.86876],[121.34576,24.86809],[121.34505,24.86694],[121.34634,24.8656],[121.34835,24.86073],[121.34949,24.85969],[121.35337,24.8587],[121.35557,24.85506],[121.35784,24.85445],[121.35813,24.85337],[121.35479,24.85335],[121.35334,24.85059],[121.35186,24.85061],[121.35265,24.8491],[121.34986,24.84965],[121.35038,24.84877],[121.34872,24.84835],[121.34786,24.85095],[121.34764,24.84993],[121.34621,24.85011],[121.34295,24.84877],[121.33727,24.84841],[121.33585,24.84493],[121.33304,24.84436],[121.33315,24.84146],[121.33189,24.84157],[121.3322,24.83785],[121.33039,24.83399],[121.33136,24.83123],[121.33067,24.83078],[121.33039,24.82808],[121.33363,24.82745],[121.33141,24.826],[121.33165,24.82501],[121.32755,24.82489],[121.32807,24.82245],[121.32573,24.82175],[121.32508,24.82017],[121.32381,24.82156],[121.32094,24.82193],[121.32118,24.82038],[121.31899,24.81845],[121.32169,24.81356],[121.32204,24.80841],[121.31633,24.80345],[121.31185,24.80555],[121.30575,24.80982],[121.30467,24.81],[121.30228,24.80832],[121.29942,24.80823],[121.29504,24.80982],[121.28624,24.81621],[121.28325,24.81575],[121.27953,24.81674],[121.27502,24.81516],[121.26868,24.81494],[121.2649,24.814],[121.26587,24.80757],[121.26446,24.80566],[121.26289,24.8051],[121.26052,24.80504],[121.25641,24.80637],[121.2532,24.81067],[121.24309,24.8087],[121.24389,24.81407],[121.2482,24.81996],[121.25326,24.824],[121.25542,24.83143],[121.25968,24.83644],[121.26113,24.84034],[121.26774,24.84903],[121.26756,24.85147],[121.2643,24.85898],[121.26266,24.85814],[121.26134,24.85894],[121.26146,24.86002],[121.25879,24.8647],[121.25507,24.86293],[121.25266,24.86017],[121.25157,24.86056],[121.25025,24.85942],[121.24938,24.85972],[121.24796,24.85836],[121.24574,24.86001],[121.24883,24.86894],[121.24882,24.87516],[121.25084,24.88222],[121.25096,24.88342],[121.25017,24.88379],[121.25084,24.88502],[121.2505,24.88674],[121.24926,24.88602],[121.24956,24.89285],[121.2507,24.89615],[121.25245,24.89834],[121.253,24.9088],[121.25415,24.91113],[121.25693,24.91369],[121.25661,24.91602],[121.26295,24.91756],[121.26578,24.92059],[121.26799,24.92172],[121.26837,24.92393],[121.26983,24.92457],[121.27024,24.92596],[121.27358,24.92948],[121.27349,24.92743],[121.27615,24.92796],[121.27527,24.92618],[121.27748,24.92173],[121.2765,24.92046],[121.27801,24.9201],[121.28131,24.92115],[121.28359,24.92025],[121.29274,24.92448],[121.29426,24.92466],[121.29623,24.92327],[121.29716,24.92504],[121.29824,24.92418],[121.29974,24.92491],[121.31578,24.93847],[121.31826,24.93473]]]}},{"type":"Feature","properties":{"code":"68000080","name":"桃園市八德區"},"geometry":{"type":"Polygon","coordinates":[[[121.2821,24.97786],[121.28109,24.97507],[121.2841,24.97017],[121.28729,24.9706],[121.28855,24.96497],[121.29134,24.96192],[121.29508,24.96117],[121.2953,24.96319],[121.29606,24.96359],[121.29368,24.96769],[121.29562,24.97523],[121.29653,24.97662],[121.29959,24.97621],[121.30069,24.97899],[121.3036,24.97821],[121.3023,24.97465],[121.30521,24.97298],[121.3069,24.97363],[121.30773,24.9728],[121.30933,24.9755],[121.3107,24.97498],[121.31036,24.97293],[121.31181,24.97194],[121.31266,24.97273],[121.31439,24.97096],[121.31515,24.97202],[121.31721,24.97169],[121.31721,24.97083],[121.31834,24.97064],[121.31882,24.97256],[121.32038,24.97132],[121.32046,24.97006],[121.32185,24.97098],[121.32329,24.97034],[121.32387,24.97124],[121.32514,24.97116],[121.32821,24.97284],[121.3289,24.9696],[121.32693,24.96659],[121.32885,24.96788],[121.32981,24.96689],[121.32805,24.96545],[121.32915,24.96058],[121.32809,24.95526],[121.328,24.94919],[121.33161,24.94554],[121.33042,24.94453],[121.32414,24.94329],[121.31618,24.93878],[121.30189,24.92642],[121.29834,24.92418],[121.29716,24.92504],[121.29623,24.92327],[121.29426,24.92466],[121.29274,24.92448],[121.28359,24.92025],[121.28131,24.92115],[121.27801,24.9201],[121.27652,24.92045],[121.27748,24.92173],[121.27527,24.92618],[121.27615,24.92796],[121.27349,24.92743],[121.27355,24.92947],[121.27024,24.92596],[121.26983,24.92457],[121.26837,24.92393],[121.26799,24.92172],[121.26578,24.92059],[121.26295,24.91756],[121.25661,24.91602],[121.25693,24.91369],[121.25415,24.91113],[121.25309,24.90888],[121.25573,24.91637],[121.25516,24.91852],[121.25182,24.92165],[121.25532,24.92467],[121.2582,24.9304],[121.25922,24.93063],[121.25885,24.93325],[121.26177,24.93522],[121.2631,24.93719],[121.2666,24.94849],[121.26687,24.95295],[121.26432,24.96043],[121.26562,24.96364],[121.26523,24.96832],[121.26332,24.97],[121.26457,24.97037],[121.26359,24.97318],[121.27472,24.98082],[121.27813,24.98472],[121.28266,24.98708],[121.28331,24.98545],[121.28197,24.9838],[121.28252,24.98134],[121.28145,24.97973],[121.2821,24.97786]]]}},{"type":"Feature","properties":{"code":"68000010","name":"桃園市桃園區"},"geometry":{"type":"Polygon","coordinates":[[[121.30171,25.03317],[121.30252,25.03315],[121.30398,25.03047],[121.30969,25.03163],[121.31555,25.02904],[121.31713,25.02657],[121.32519,25.02596],[121.32632,25.02445],[121.32548,25.02249],[121.32694,25.02184],[121.32504,25.02054],[121.32483,25.01848],[121.32585,25.01678],[121.33003,25.01659],[121.32961,25.01327],[121.33239,25.01062],[121.33124,25.00773],[121.33223,25.00488],[121.32892,24.99801],[121.32668,24.99605],[121.32361,24.99537],[121.3228,24.99362],[121.3233,24.99225],[121.32141,24.99084],[121.32218,24.9893],[121.32133,24.98706],[121.32556,24.9813],[121.32728,24.98235],[121.3298,24.97905],[121.32716,24.97817],[121.32862,24.97632],[121.32761,24.97488],[121.32368,24.97282],[121.32403,24.9713],[121.32329,24.97034],[121.32185,24.97098],[121.32033,24.97007],[121.32038,24.97132],[121.31882,24.97256],[121.31834,24.97064],[121.31721,24.97083],[121.31721,24.97169],[121.31515,24.97202],[121.31439,24.97096],[121.31269,24.97272],[121.31181,24.97194],[121.31046,24.97276],[121.31018,24.9753],[121.3093,24.97549],[121.30773,24.9728],[121.30713,24.9736],[121.30521,24.97298],[121.30258,24.97432],[121.30236,24.97576],[121.30361,24.97819],[121.30064,24.97897],[121.29959,24.97621],[121.29653,24.97662],[121.29562,24.97523],[121.29368,24.96769],[121.29606,24.96359],[121.2953,24.96319],[121.29508,24.96117],[121.29134,24.96192],[121.28846,24.96511],[121.28731,24.97058],[121.28417,24.97012],[121.28126,24.97456],[121.28233,24.97829],[121.28145,24.97973],[121.28252,24.98134],[121.28196,24.98375],[121.28331,24.98545],[121.28266,24.98708],[121.27813,24.98472],[121.27472,24.98082],[121.26369,24.97325],[121.26168,24.98206],[121.25963,24.9863],[121.25981,24.98706],[121.26451,24.98973],[121.26798,24.98996],[121.26838,24.98904],[121.27124,24.99071],[121.27309,24.9904],[121.27404,24.98822],[121.27488,24.99019],[121.2742,24.99303],[121.27525,24.99395],[121.27551,24.99594],[121.28033,25.00082],[121.2776,25.00736],[121.27409,25.01248],[121.27138,25.0218],[121.27502,25.02386],[121.27484,25.02633],[121.27664,25.02576],[121.27841,25.02701],[121.27754,25.03049],[121.28421,25.03212],[121.28519,25.02878],[121.28691,25.02873],[121.28749,25.02666],[121.28871,25.02638],[121.29064,25.02827],[121.29245,25.02881],[121.29355,25.03063],[121.29579,25.0313],[121.29629,25.03235],[121.30171,25.03317]]]}},{"type":"Feature","properties":{"code":"68000060","name":"桃園市大園區"},"geometry":{"type":"Polygon","coordinates":[[[121.24388,25.11856],[121.2484,25.11953],[121.24896,25.11699],[121.25257,25.11313],[121.25425,25.10161],[121.25654,25.09823],[121.25809,25.09352],[121.26242,25.0904],[121.26613,25.08293],[121.27209,25.08063],[121.27325,25.07837],[121.27031,25.07349],[121.26781,25.07271],[121.26722,25.07345],[121.26553,25.07326],[121.26481,25.07054],[121.26242,25.06901],[121.26227,25.06624],[121.25938,25.06376],[121.25452,25.0608],[121.25209,25.06208],[121.24974,25.06125],[121.24904,25.05991],[121.25108,25.05729],[121.24545,25.05531],[121.24835,25.04994],[121.24635,25.04829],[121.24767,25.04724],[121.24482,25.04593],[121.24315,25.0465],[121.23677,25.0426],[121.2376,25.03916],[121.23433,25.03623],[121.23477,25.03231],[121.23217,25.03116],[121.23306,25.02969],[121.23606,25.028],[121.23831,25.02324],[121.24619,25.01404],[121.2476,25.01067],[121.24461,25.01077],[121.23845,25.00941],[121.23463,25.00788],[121.23313,25.00806],[121.23264,25.00727],[121.22937,25.00737],[121.22854,25.00682],[121.22937,25.00466],[121.22723,25.00411],[121.22669,25.00316],[121.2239,25.00498],[121.22314,25.00726],[121.2236,25.01166],[121.2228,25.01435],[121.22509,25.0175],[121.22531,25.0205],[121.22387,25.01793],[121.22282,25.0188],[121.22137,25.01736],[121.21867,25.01961],[121.21638,25.01867],[121.2151,25.01973],[121.21249,25.01714],[121.21325,25.01585],[121.21261,25.01508],[121.21163,25.01414],[121.2104,25.01507],[121.20958,25.01425],[121.21421,25.00947],[121.21336,25.00908],[121.21351,25.00462],[121.21423,25.00343],[121.21323,25.00336],[121.21123,25.00096],[121.20931,25.00413],[121.21004,25.00726],[121.20858,25.00857],[121.21003,25.01129],[121.20785,25.01266],[121.20895,25.01726],[121.20621,25.01657],[121.20788,25.01891],[121.2061,25.02146],[121.2078,25.02378],[121.20092,25.02629],[121.19829,25.02368],[121.19625,25.02659],[121.19501,25.02638],[121.19381,25.02324],[121.19378,25.01811],[121.1904,25.01875],[121.18788,25.01575],[121.18715,25.01989],[121.18532,25.02184],[121.18518,25.02607],[121.18274,25.02848],[121.1801,25.0225],[121.1785,25.02338],[121.1787,25.02415],[121.17733,25.0248],[121.17594,25.02748],[121.17335,25.02676],[121.17191,25.02767],[121.16586,25.02824],[121.16222,25.02649],[121.16216,25.02823],[121.15834,25.02991],[121.16528,25.03947],[121.16755,25.04404],[121.16187,25.04652],[121.16085,25.04846],[121.16173,25.05164],[121.15907,25.05292],[121.15531,25.05845],[121.15671,25.06006],[121.15524,25.06256],[121.15522,25.06608],[121.15745,25.06803],[121.15652,25.06899],[121.15681,25.07035],[121.15204,25.07535],[121.15359,25.07692],[121.15522,25.07722],[121.15506,25.08373],[121.16461,25.08738],[121.17474,25.09368],[121.18431,25.09585],[121.18552,25.09728],[121.18864,25.09796],[121.19303,25.10178],[121.19725,25.10233],[121.19775,25.10408],[121.20119,25.10454],[121.20825,25.10797],[121.20999,25.10814],[121.21284,25.11058],[121.22011,25.11189],[121.2294,25.11519],[121.23643,25.11604],[121.23962,25.11565],[121.23918,25.12074],[121.23977,25.12318],[121.24145,25.12204],[121.24197,25.11951],[121.24388,25.11856]]]}},{"type":"Feature","properties":{"code":"68000040","name":"桃園市楊梅區"},"geometry":{"type":"Polygon","coordinates":[[[121.17697,24.95915],[121.17825,24.95009],[121.17899,24.94836],[121.18165,24.9466],[121.18195,24.94401],[121.18471,24.9413],[121.18464,24.93903],[121.18875,24.92874],[121.18725,24.92284],[121.18861,24.92055],[121.18908,24.91575],[121.18834,24.9075],[121.18693,24.90495],[121.18706,24.90262],[121.1853,24.89566],[121.18367,24.89344],[121.18468,24.88994],[121.18244,24.89022],[121.17846,24.88865],[121.17735,24.88665],[121.17784,24.88575],[121.177,24.88262],[121.17472,24.88139],[121.17476,24.8761],[121.17609,24.87387],[121.1755,24.87207],[121.17005,24.87226],[121.16539,24.87398],[121.16021,24.87335],[121.15817,24.87532],[121.15787,24.87731],[121.15538,24.88076],[121.1522,24.88022],[121.14855,24.88125],[121.14466,24.8802],[121.1426,24.88169],[121.14114,24.88143],[121.13909,24.88244],[121.13676,24.88093],[121.13559,24.87799],[121.13331,24.87961],[121.12964,24.87969],[121.12815,24.88095],[121.1239,24.87993],[121.11633,24.88168],[121.1135,24.88256],[121.10777,24.88607],[121.10932,24.88752],[121.11103,24.89127],[121.11007,24.89621],[121.10908,24.89774],[121.10131,24.89515],[121.09128,24.89336],[121.08943,24.89538],[121.08345,24.89885],[121.08064,24.89835],[121.07384,24.8999],[121.07111,24.89948],[121.07055,24.90185],[121.0691,24.90278],[121.06245,24.9046],[121.06062,24.90368],[121.05759,24.90583],[121.05913,24.90723],[121.0581,24.91061],[121.05824,24.9139],[121.06039,24.91839],[121.06087,24.92029],[121.0601,24.92068],[121.06096,24.92348],[121.05837,24.93008],[121.05757,24.93045],[121.05832,24.93221],[121.05766,24.93312],[121.05856,24.93516],[121.05839,24.93697],[121.06221,24.93913],[121.0707,24.93913],[121.0718,24.94382],[121.07104,24.94584],[121.07383,24.94659],[121.07683,24.94977],[121.08041,24.94836],[121.08468,24.94975],[121.08677,24.94824],[121.08566,24.95051],[121.08553,24.95328],[121.0875,24.95579],[121.08968,24.95636],[121.09058,24.95531],[121.09548,24.95392],[121.09619,24.95486],[121.09952,24.95429],[121.10694,24.94588],[121.11123,24.94651],[121.11237,24.94511],[121.11394,24.94656],[121.11452,24.94886],[121.11542,24.94864],[121.11708,24.95032],[121.11879,24.94895],[121.12168,24.9505],[121.12285,24.94928],[121.12626,24.94894],[121.12528,24.95213],[121.12749,24.95344],[121.13265,24.95148],[121.13955,24.95033],[121.14455,24.94712],[121.14769,24.94655],[121.1516,24.95183],[121.15832,24.95649],[121.17697,24.95915]]]}},{"type":"Feature","properties":{"code":"68000110","name":"桃園市新屋區"},"geometry":{"type":"Polygon","coordinates":[[[121.03726,25.01732],[121.03967,25.01733],[121.04206,25.01561],[121.04478,25.01749],[121.04708,25.01631],[121.04777,25.01459],[121.05042,25.01471],[121.05116,25.01578],[121.05563,25.01309],[121.0613,25.01131],[121.06135,25.00923],[121.0645,25.00839],[121.06545,25.00576],[121.06848,25.00157],[121.07343,25.00344],[121.07229,25.00589],[121.0787,25.00711],[121.08119,25.00447],[121.08459,25.00338],[121.08709,25.00093],[121.09044,25.00336],[121.09163,25.00218],[121.09315,25.00242],[121.09463,25.00028],[121.09559,25.00099],[121.09969,24.99627],[121.10479,24.99674],[121.10707,24.98996],[121.11141,24.98667],[121.11682,24.99348],[121.11954,24.99458],[121.12042,24.99398],[121.12337,24.99464],[121.12789,24.9982],[121.12863,24.998],[121.13011,24.99662],[121.13106,24.99376],[121.13034,24.99247],[121.12892,24.99276],[121.12834,24.99205],[121.12834,24.99039],[121.12917,24.9896],[121.12861,24.98598],[121.13066,24.98285],[121.13021,24.98132],[121.13651,24.97201],[121.14142,24.96932],[121.14528,24.96893],[121.14781,24.96466],[121.1498,24.96411],[121.15171,24.96499],[121.15499,24.96314],[121.1614,24.96182],[121.16579,24.95777],[121.15832,24.95649],[121.15572,24.95515],[121.1516,24.95183],[121.14769,24.94655],[121.14455,24.94712],[121.13955,24.95033],[121.13265,24.95148],[121.12749,24.95344],[121.12528,24.95213],[121.12626,24.94894],[121.12285,24.94928],[121.12168,24.9505],[121.11879,24.94895],[121.11708,24.95032],[121.11542,24.94864],[121.11452,24.94886],[121.11394,24.94656],[121.11237,24.94511],[121.11123,24.94651],[121.10769,24.94557],[121.0997,24.95419],[121.09619,24.95486],[121.09543,24.95393],[121.09058,24.95531],[121.08968,24.95636],[121.0874,24.95573],[121.08557,24.95345],[121.08566,24.95051],[121.08677,24.94824],[121.08468,24.94975],[121.08041,24.94836],[121.07688,24.94978],[121.07383,24.94659],[121.07108,24.94589],[121.0718,24.94382],[121.07066,24.93911],[121.06221,24.93913],[121.05824,24.93675],[121.05545,24.93624],[121.05163,24.9387],[121.04838,24.93959],[121.04795,24.94126],[121.04611,24.94265],[121.04629,24.94355],[121.04239,24.94416],[121.04055,24.94327],[121.03814,24.94638],[121.03076,24.9439],[121.02891,24.94518],[121.0258,24.94048],[121.02154,24.9414],[121.01937,24.94042],[121.01781,24.94177],[121.01571,24.94165],[121.01268,24.94314],[121.01194,24.9448],[121.00956,24.94425],[121.0071,24.94622],[121.00426,24.94312],[121.00293,24.94001],[120.99786,24.94065],[120.99351,24.93858],[120.99274,24.93508],[120.99066,24.93543],[120.98738,24.93905],[120.98203,24.93997],[120.98478,24.94362],[120.98646,24.94827],[120.99362,24.95549],[120.99843,24.95857],[121.0035,24.96761],[121.0099,24.97505],[121.01112,24.98021],[121.01044,24.98729],[121.01225,24.98876],[121.01045,24.98883],[121.00937,24.99027],[121.01191,24.99081],[121.01434,24.9926],[121.01622,24.99536],[121.01796,25.00367],[121.01961,25.00745],[121.02616,25.00767],[121.03459,25.01703],[121.03726,25.01732]]]}},{"type":"Feature","properties":{"code":"68000120","name":"桃園市觀音區"},"geometry":{"type":"Polygon","coordinates":[[[121.15529,25.08207],[121.15522,25.07722],[121.15359,25.07692],[121.15204,25.07535],[121.15681,25.07035],[121.15652,25.06899],[121.15745,25.06803],[121.15522,25.06608],[121.15524,25.06256],[121.15671,25.06006],[121.15531,25.05845],[121.15907,25.05292],[121.16173,25.05164],[121.16085,25.04846],[121.16187,25.04652],[121.16755,25.04404],[121.16528,25.03947],[121.1583,25.02995],[121.16217,25.02821],[121.16222,25.02649],[121.16079,25.02487],[121.162,25.02105],[121.16118,25.01418],[121.16211,25.01038],[121.16491,25.00603],[121.16504,25.0022],[121.16854,24.99177],[121.16724,24.99041],[121.16836,24.98797],[121.16386,24.98227],[121.16101,24.97413],[121.15877,24.9733],[121.15668,24.97136],[121.15048,24.96428],[121.14742,24.96493],[121.14528,24.96893],[121.14142,24.96932],[121.13658,24.97194],[121.13272,24.9785],[121.13159,24.97912],[121.13004,24.98167],[121.13066,24.98285],[121.12861,24.98598],[121.12917,24.9896],[121.12828,24.99087],[121.12864,24.99259],[121.13025,24.99242],[121.13106,24.99377],[121.13005,24.99672],[121.12812,24.99818],[121.12337,24.99464],[121.12042,24.99398],[121.11954,24.99458],[121.11682,24.99348],[121.11141,24.98667],[121.10707,24.98996],[121.10479,24.99674],[121.09969,24.99627],[121.09559,25.00099],[121.09463,25.00028],[121.09315,25.00242],[121.09163,25.00218],[121.09044,25.00336],[121.08709,25.00093],[121.08459,25.00338],[121.08119,25.00447],[121.0787,25.00711],[121.07229,25.00589],[121.07343,25.00344],[121.06848,25.00157],[121.06545,25.00576],[121.0645,25.00839],[121.06135,25.00923],[121.06136,25.01127],[121.05563,25.01309],[121.05116,25.01578],[121.05042,25.01471],[121.04777,25.01459],[121.04708,25.01631],[121.04478,25.01749],[121.04206,25.01561],[121.03944,25.01741],[121.03515,25.01737],[121.02666,25.00795],[121.01961,25.00745],[121.02456,25.01337],[121.02893,25.02094],[121.03854,25.03088],[121.04378,25.03465],[121.04875,25.04076],[121.05606,25.04617],[121.0643,25.0489],[121.0721,25.04987],[121.08665,25.05644],[121.09002,25.06299],[121.09395,25.06284],[121.09376,25.0634],[121.09585,25.06397],[121.10023,25.06762],[121.11207,25.07225],[121.12501,25.0768],[121.14408,25.08062],[121.14721,25.08201],[121.15506,25.08373],[121.15529,25.08207]]]}},{"type":"Feature","properties":{"code":"68000020","name":"桃園市中壢區"},"geometry":{"type":"Polygon","coordinates":[[[121.18543,25.02253],[121.18723,25.01969],[121.18788,25.01575],[121.1904,25.01875],[121.19378,25.01811],[121.19381,25.02324],[121.19501,25.02638],[121.19625,25.02659],[121.19829,25.02368],[121.20092,25.02629],[121.2078,25.02378],[121.2061,25.02146],[121.20788,25.01891],[121.20621,25.01657],[121.20895,25.01726],[121.20785,25.01266],[121.21003,25.01129],[121.20858,25.00857],[121.21004,25.00726],[121.20931,25.00413],[121.21123,25.00096],[121.21323,25.00336],[121.21423,25.00343],[121.21351,25.00462],[121.21336,25.00908],[121.21421,25.00947],[121.20958,25.01425],[121.2104,25.01507],[121.21163,25.01414],[121.21261,25.01508],[121.21325,25.01585],[121.21249,25.01714],[121.2151,25.01973],[121.21638,25.01867],[121.21867,25.01961],[121.22137,25.01736],[121.22282,25.0188],[121.22387,25.01793],[121.22531,25.0205],[121.22509,25.0175],[121.2228,25.01435],[121.2236,25.01166],[121.22314,25.00726],[121.2239,25.00498],[121.22669,25.00316],[121.22723,25.00411],[121.22937,25.00466],[121.22854,25.00682],[121.22937,25.00737],[121.23264,25.00727],[121.23313,25.00806],[121.23463,25.00788],[121.24461,25.01077],[121.2476,25.01067],[121.24884,25.00876],[121.24947,25.00902],[121.25025,25.00667],[121.25427,25.00263],[121.25676,24.99598],[121.25639,24.99384],[121.25759,24.99215],[121.25721,24.99128],[121.25799,24.9913],[121.25969,24.9876],[121.26243,24.9773],[121.26369,24.97548],[121.26457,24.97037],[121.26332,24.97],[121.26523,24.96832],[121.26562,24.96364],[121.26432,24.96043],[121.26687,24.95295],[121.2666,24.94849],[121.2631,24.93719],[121.26177,24.93522],[121.25878,24.9331],[121.25915,24.93057],[121.24287,24.92507],[121.24009,24.92621],[121.23962,24.92803],[121.23659,24.92793],[121.23574,24.93013],[121.23425,24.92949],[121.23162,24.93161],[121.22912,24.93149],[121.22796,24.93555],[121.22524,24.93765],[121.22431,24.94297],[121.2225,24.94392],[121.22215,24.94511],[121.22345,24.9476],[121.22307,24.94955],[121.22139,24.95162],[121.22189,24.95262],[121.22075,24.95389],[121.21949,24.9522],[121.21816,24.95354],[121.21572,24.95281],[121.2132,24.95611],[121.20823,24.95737],[121.19392,24.95749],[121.19176,24.95904],[121.19125,24.9604],[121.18997,24.96051],[121.19107,24.96585],[121.19111,24.97009],[121.19042,24.9713],[121.18699,24.96868],[121.18405,24.96772],[121.18192,24.96935],[121.17887,24.96953],[121.17801,24.96148],[121.17712,24.96069],[121.17806,24.95976],[121.17704,24.95915],[121.16568,24.95769],[121.1614,24.96182],[121.15499,24.96314],[121.15145,24.965],[121.15668,24.97136],[121.15877,24.9733],[121.16101,24.97413],[121.16386,24.98227],[121.16838,24.98804],[121.16724,24.99041],[121.16838,24.99119],[121.16853,24.99233],[121.16504,25.0022],[121.16494,25.00593],[121.16211,25.01038],[121.16118,25.01418],[121.162,25.02105],[121.16103,25.02584],[121.16586,25.02824],[121.17191,25.02767],[121.17335,25.02676],[121.17594,25.02748],[121.17733,25.0248],[121.1787,25.02415],[121.1785,25.02338],[121.18017,25.0225],[121.18271,25.02849],[121.18518,25.02607],[121.18543,25.02253]]]}},{"type":"Feature","properties":{"code":"68000090","name":"桃園市龍潭區"},"geometry":{"type":"Polygon","coordinates":[[[121.19291,24.89354],[121.19276,24.89237],[121.19396,24.89286],[121.19529,24.89136],[121.19436,24.89015],[121.19463,24.88819],[121.19533,24.88785],[121.20318,24.88917],[121.20763,24.89346],[121.20884,24.89213],[121.2128,24.89114],[121.21955,24.89374],[121.22065,24.89327],[121.22003,24.89111],[121.22145,24.8885],[121.22128,24.88973],[121.2226,24.89199],[121.22631,24.89152],[121.2262,24.89246],[121.22879,24.89386],[121.22991,24.8928],[121.23109,24.88834],[121.23495,24.88588],[121.23595,24.88624],[121.2359,24.88693],[121.23748,24.88715],[121.23755,24.88787],[121.23946,24.88768],[121.24161,24.89016],[121.24348,24.888],[121.24624,24.88799],[121.24671,24.88615],[121.2467,24.88438],[121.24545,24.88332],[121.24572,24.88087],[121.24437,24.8746],[121.24304,24.87301],[121.24427,24.87247],[121.24679,24.87507],[121.24926,24.88602],[121.25049,24.88676],[121.25084,24.88502],[121.25017,24.88379],[121.25096,24.88342],[121.24882,24.87516],[121.24885,24.86904],[121.24575,24.85996],[121.24796,24.85836],[121.24938,24.85972],[121.25025,24.85942],[121.25157,24.86056],[121.25266,24.86017],[121.25507,24.86293],[121.25879,24.8647],[121.26146,24.86002],[121.26134,24.85894],[121.26266,24.85814],[121.2643,24.85898],[121.26756,24.85147],[121.26774,24.84903],[121.26113,24.84034],[121.25968,24.83644],[121.25542,24.83143],[121.25326,24.824],[121.2482,24.81996],[121.24389,24.81407],[121.24309,24.8087],[121.2409,24.80587],[121.23824,24.80465],[121.22822,24.80282],[121.22161,24.79938],[121.22086,24.80299],[121.21963,24.80408],[121.21994,24.80744],[121.21872,24.80865],[121.21959,24.81179],[121.21704,24.81242],[121.2149,24.81197],[121.20954,24.80948],[121.20805,24.80716],[121.20467,24.80725],[121.2029,24.81031],[121.20586,24.81265],[121.20315,24.81457],[121.20297,24.81614],[121.20225,24.81649],[121.20331,24.81731],[121.20065,24.81773],[121.19934,24.81613],[121.19975,24.8152],[121.19886,24.81493],[121.19648,24.81784],[121.18591,24.82382],[121.17684,24.82729],[121.17375,24.82765],[121.17624,24.8321],[121.16992,24.83481],[121.1688,24.83398],[121.16645,24.83621],[121.16011,24.83736],[121.15946,24.83864],[121.15642,24.84068],[121.1559,24.84212],[121.15474,24.8423],[121.15442,24.84406],[121.14997,24.84436],[121.15284,24.84616],[121.15361,24.84872],[121.15554,24.84991],[121.15595,24.85194],[121.15706,24.85243],[121.1563,24.85362],[121.15651,24.85591],[121.15907,24.85792],[121.16023,24.8578],[121.15925,24.85902],[121.16007,24.85846],[121.16138,24.85947],[121.15988,24.86244],[121.16079,24.86314],[121.15945,24.86873],[121.15621,24.87444],[121.15792,24.87445],[121.15817,24.87532],[121.16025,24.87334],[121.16539,24.87398],[121.17005,24.87226],[121.1755,24.87207],[121.17609,24.87387],[121.17476,24.8761],[121.17472,24.88139],[121.177,24.88262],[121.17784,24.88575],[121.17735,24.88665],[121.17839,24.88858],[121.18254,24.89023],[121.18759,24.88889],[121.19012,24.89099],[121.19123,24.89345],[121.19255,24.89412],[121.19291,24.89354]]]}},{"type":"Feature","properties":{"code":"68000100","name":"桃園市平鎮區"},"geometry":{"type":"Polygon","coordinates":[[[121.1911,24.96789],[121.18997,24.96051],[121.19125,24.9604],[121.19176,24.95904],[121.1942,24.95734],[121.20762,24.95747],[121.2132,24.95611],[121.21572,24.95281],[121.21816,24.95354],[121.21962,24.9522],[121.22075,24.95389],[121.22189,24.95262],[121.22139,24.95162],[121.22307,24.94955],[121.22345,24.9476],[121.22215,24.94511],[121.2225,24.94392],[121.22431,24.94297],[121.22524,24.93765],[121.22796,24.93555],[121.22912,24.93149],[121.23162,24.93161],[121.23425,24.92949],[121.23574,24.93013],[121.23659,24.92793],[121.23962,24.92803],[121.24009,24.92621],[121.24287,24.92507],[121.2498,24.92693],[121.25823,24.93058],[121.25554,24.92495],[121.25182,24.92165],[121.25516,24.91852],[121.25573,24.91582],[121.2529,24.90949],[121.25335,24.90698],[121.25246,24.8984],[121.24962,24.89314],[121.2491,24.88442],[121.24772,24.87734],[121.24446,24.87249],[121.24304,24.87301],[121.24437,24.8746],[121.24572,24.88087],[121.24544,24.88327],[121.2467,24.88438],[121.24669,24.88628],[121.24624,24.88799],[121.24348,24.888],[121.24161,24.89016],[121.23946,24.88768],[121.23755,24.88787],[121.23748,24.88715],[121.2359,24.88693],[121.23496,24.88588],[121.23109,24.88834],[121.22991,24.8928],[121.22879,24.89386],[121.2262,24.89246],[121.22631,24.89152],[121.2226,24.89199],[121.22128,24.88973],[121.22145,24.8885],[121.22003,24.89111],[121.22065,24.89327],[121.21955,24.89374],[121.2128,24.89114],[121.20884,24.89213],[121.20763,24.89346],[121.20318,24.88917],[121.19533,24.88785],[121.19463,24.88819],[121.19436,24.89015],[121.19529,24.89136],[121.19396,24.89286],[121.1927,24.89243],[121.19255,24.89412],[121.19123,24.89345],[121.19012,24.89099],[121.18772,24.88895],[121.18468,24.88994],[121.18367,24.89344],[121.1853,24.89566],[121.18706,24.90262],[121.18693,24.90495],[121.18885,24.90986],[121.18861,24.92055],[121.18725,24.92284],[121.18878,24.92858],[121.18464,24.93903],[121.18471,24.9413],[121.18195,24.94401],[121.18165,24.9466],[121.17899,24.94836],[121.17825,24.95009],[121.17697,24.95915],[121.17806,24.95976],[121.17712,24.96069],[121.17801,24.96148],[121.17891,24.96956],[121.18206,24.9693],[121.18405,24.96772],[121.18699,24.96868],[121.19042,24.9713],[121.1911,24.96789]]]}}]}